{
  "type": "FeatureCollection",
  "features": [

    {"type":"Feature","properties":{"id":"canal-ourcq","waterway":"canal","name":"Canal de l'Ourcq","width":"35"},"geometry":{"type":"LineString","coordinates":[[2.3580,48.8837],[2.3600,48.88375],[2.3620,48.8838],[2.3640,48.88383],[2.3660,48.88385],[2.3680,48.88378],[2.3699,48.8837],[2.3720,48.88365],[2.3740,48.8836],[2.3760,48.88358],[2.3780,48.88355],[2.3800,48.8835],[2.3820,48.88348]]}},

    {"type":"Feature","properties":{"id":"lock-01","waterway":"lock","name":"Écluse des Morts"},"geometry":{"type":"Point","coordinates":[2.3645,48.8837]}},
    {"type":"Feature","properties":{"id":"lock-02","waterway":"lock","name":"Écluse de la Villette"},"geometry":{"type":"Point","coordinates":[2.3780,48.88355]}},

    {"type":"Feature","properties":{"id":"bld-n01","building":"apartments","building:levels":"6","name":"Résidence Ourcq"},"geometry":{"type":"Polygon","coordinates":[[[2.3608,48.8845],[2.3616,48.8845],[2.3616,48.8849],[2.3608,48.8849],[2.3608,48.8845]]]}},
    {"type":"Feature","properties":{"id":"bld-n02","building":"residential","building:levels":"5"},"geometry":{"type":"Polygon","coordinates":[[[2.3620,48.8846],[2.3627,48.8846],[2.3627,48.8850],[2.3620,48.8850],[2.3620,48.8846]]]}},
    {"type":"Feature","properties":{"id":"bld-n03","building":"commercial","building:levels":"3","name":"MK2 Quai de la Loire","amenity":"cinema"},"geometry":{"type":"Polygon","coordinates":[[[2.3634,48.8843],[2.3648,48.8843],[2.3648,48.8848],[2.3634,48.8848],[2.3634,48.8843]]]}},
    {"type":"Feature","properties":{"id":"bld-n04","building":"apartments","building:levels":"7"},"geometry":{"type":"Polygon","coordinates":[[[2.3653,48.8845],[2.3661,48.8845],[2.3661,48.8851],[2.3653,48.8851],[2.3653,48.8845]]]}},
    {"type":"Feature","properties":{"id":"bld-n05","building":"residential","building:levels":"5"},"geometry":{"type":"Polygon","coordinates":[[[2.3666,48.8846],[2.3674,48.8846],[2.3674,48.8850],[2.3666,48.8850],[2.3666,48.8846]]]}},
    {"type":"Feature","properties":{"id":"bld-n06","building":"apartments","building:levels":"6"},"geometry":{"type":"Polygon","coordinates":[[[2.3683,48.8844],[2.3692,48.8844],[2.3692,48.8850],[2.3683,48.8850],[2.3683,48.8844]]]}},
    {"type":"Feature","properties":{"id":"bld-n07","building":"residential","building:levels":"5"},"geometry":{"type":"Polygon","coordinates":[[[2.3698,48.8845],[2.3706,48.8845],[2.3706,48.8849],[2.3698,48.8849],[2.3698,48.8845]]]}},
    {"type":"Feature","properties":{"id":"bld-n08","building":"commercial","building:levels":"4","name":"Hôtel du Nord","amenity":"restaurant"},"geometry":{"type":"Polygon","coordinates":[[[2.3712,48.8844],[2.3719,48.8844],[2.3719,48.8848],[2.3712,48.8848],[2.3712,48.8844]]]}},
    {"type":"Feature","properties":{"id":"bld-n09","building":"apartments","building:levels":"7"},"geometry":{"type":"Polygon","coordinates":[[[2.3725,48.8845],[2.3734,48.8845],[2.3734,48.8851],[2.3725,48.8851],[2.3725,48.8845]]]}},
    {"type":"Feature","properties":{"id":"bld-n10","building":"residential","building:levels":"5"},"geometry":{"type":"Polygon","coordinates":[[[2.3740,48.8846],[2.3748,48.8846],[2.3748,48.8850],[2.3740,48.8850],[2.3740,48.8846]]]}},
    {"type":"Feature","properties":{"id":"bld-n11","building":"apartments","building:levels":"6","name":"Résidence du Canal"},"geometry":{"type":"Polygon","coordinates":[[[2.3755,48.8844],[2.3765,48.8844],[2.3765,48.8850],[2.3755,48.8850],[2.3755,48.8844]]]}},
    {"type":"Feature","properties":{"id":"bld-n12","building":"residential","building:levels":"5"},"geometry":{"type":"Polygon","coordinates":[[[2.3772,48.8845],[2.3780,48.8845],[2.3780,48.8849],[2.3772,48.8849],[2.3772,48.8845]]]}},
    {"type":"Feature","properties":{"id":"bld-n13","building":"residential","building:levels":"8"},"geometry":{"type":"Polygon","coordinates":[[[2.3788,48.8844],[2.3798,48.8844],[2.3798,48.8852],[2.3788,48.8852],[2.3788,48.8844]]]}},
    {"type":"Feature","properties":{"id":"bld-n14","building":"commercial","building:levels":"3","name":"Chez Prune","amenity":"cafe"},"geometry":{"type":"Polygon","coordinates":[[[2.3630,48.8842],[2.3636,48.8842],[2.3636,48.8845],[2.3630,48.8845],[2.3630,48.8842]]]}},
    {"type":"Feature","properties":{"id":"bld-n15","building":"residential","building:levels":"6"},"geometry":{"type":"Polygon","coordinates":[[[2.3805,48.8845],[2.3814,48.8845],[2.3814,48.8851],[2.3805,48.8851],[2.3805,48.8845]]]}},

    {"type":"Feature","properties":{"id":"bld-s01","building":"residential","building:levels":"4"},"geometry":{"type":"Polygon","coordinates":[[[2.3610,48.8826],[2.3618,48.8826],[2.3618,48.8831],[2.3610,48.8831],[2.3610,48.8826]]]}},
    {"type":"Feature","properties":{"id":"bld-s02","building":"apartments","building:levels":"6"},"geometry":{"type":"Polygon","coordinates":[[[2.3625,48.8824],[2.3635,48.8824],[2.3635,48.8830],[2.3625,48.8830],[2.3625,48.8824]]]}},
    {"type":"Feature","properties":{"id":"bld-s03","building":"commercial","building:levels":"2","name":"Point Éphémère","amenity":"bar"},"geometry":{"type":"Polygon","coordinates":[[[2.3642,48.8826],[2.3654,48.8826],[2.3654,48.8831],[2.3642,48.8831],[2.3642,48.8826]]]}},
    {"type":"Feature","properties":{"id":"bld-s04","building":"residential","building:levels":"5"},"geometry":{"type":"Polygon","coordinates":[[[2.3660,48.8824],[2.3669,48.8824],[2.3669,48.8830],[2.3660,48.8830],[2.3660,48.8824]]]}},
    {"type":"Feature","properties":{"id":"bld-s05","building":"residential","building:levels":"6"},"geometry":{"type":"Polygon","coordinates":[[[2.3678,48.8825],[2.3688,48.8825],[2.3688,48.8831],[2.3678,48.8831],[2.3678,48.8825]]]}},
    {"type":"Feature","properties":{"id":"bld-s06","building":"apartments","building:levels":"7"},"geometry":{"type":"Polygon","coordinates":[[[2.3695,48.8824],[2.3706,48.8824],[2.3706,48.8831],[2.3695,48.8831],[2.3695,48.8824]]]}},
    {"type":"Feature","properties":{"id":"bld-s07","building":"industrial","building:levels":"2","name":"Magasins Généraux"},"geometry":{"type":"Polygon","coordinates":[[[2.3714,48.8823],[2.3730,48.8823],[2.3730,48.8830],[2.3714,48.8830],[2.3714,48.8823]]]}},
    {"type":"Feature","properties":{"id":"bld-s08","building":"residential","building:levels":"5"},"geometry":{"type":"Polygon","coordinates":[[[2.3738,48.8825],[2.3748,48.8825],[2.3748,48.8830],[2.3738,48.8830],[2.3738,48.8825]]]}},
    {"type":"Feature","properties":{"id":"bld-s09","building":"residential","building:levels":"4"},"geometry":{"type":"Polygon","coordinates":[[[2.3756,48.8826],[2.3766,48.8826],[2.3766,48.8831],[2.3756,48.8831],[2.3756,48.8826]]]}},
    {"type":"Feature","properties":{"id":"bld-s10","building":"commercial","building:levels":"3","name":"Café de l'Écluse","amenity":"cafe"},"geometry":{"type":"Polygon","coordinates":[[[2.3773,48.8825],[2.3781,48.8825],[2.3781,48.8829],[2.3773,48.8829],[2.3773,48.8825]]]}},
    {"type":"Feature","properties":{"id":"bld-s11","building":"apartments","building:levels":"7"},"geometry":{"type":"Polygon","coordinates":[[[2.3790,48.8824],[2.3801,48.8824],[2.3801,48.8831],[2.3790,48.8831],[2.3790,48.8824]]]}},
    {"type":"Feature","properties":{"id":"bld-s12","building":"residential","building:levels":"5"},"geometry":{"type":"Polygon","coordinates":[[[2.3808,48.8825],[2.3816,48.8825],[2.3816,48.8830],[2.3808,48.8830],[2.3808,48.8825]]]}},
    {"type":"Feature","properties":{"id":"bld-s13","building":"commercial","building:levels":"2","name":"Boulangerie du Canal","shop":"bakery"},"geometry":{"type":"Polygon","coordinates":[[[2.3670,48.8823],[2.3676,48.8823],[2.3676,48.8826],[2.3670,48.8826],[2.3670,48.8823]]]}},
    {"type":"Feature","properties":{"id":"bld-s14","building":"residential","building:levels":"6"},"geometry":{"type":"Polygon","coordinates":[[[2.3600,48.8825],[2.3608,48.8825],[2.3608,48.8831],[2.3600,48.8831],[2.3600,48.8825]]]}},

    {"type":"Feature","properties":{"id":"park-01","leisure":"park","name":"Jardin de l'Écluse des Morts"},"geometry":{"type":"Polygon","coordinates":[[[2.3636,48.8852],[2.3656,48.8852],[2.3656,48.8862],[2.3636,48.8862],[2.3636,48.8852]]]}},
    {"type":"Feature","properties":{"id":"park-02","leisure":"park","name":"Square de la Place de Bitche"},"geometry":{"type":"Polygon","coordinates":[[[2.3708,48.8852],[2.3726,48.8852],[2.3726,48.8860],[2.3708,48.8860],[2.3708,48.8852]]]}},
    {"type":"Feature","properties":{"id":"park-03","leisure":"park","name":"Jardin du Bassin de la Villette"},"geometry":{"type":"Polygon","coordinates":[[[2.3770,48.8816],[2.3795,48.8816],[2.3795,48.8824],[2.3770,48.8824],[2.3770,48.8816]]]}},
    {"type":"Feature","properties":{"id":"garden-01","leisure":"garden","name":"Jardin Villemin Sud"},"geometry":{"type":"Polygon","coordinates":[[[2.3600,48.8818],[2.3618,48.8818],[2.3618,48.8824],[2.3600,48.8824],[2.3600,48.8818]]]}},

    {"type":"Feature","properties":{"id":"road-01","highway":"secondary","name":"Quai de la Loire"},"geometry":{"type":"LineString","coordinates":[[2.3580,48.8842],[2.3620,48.8843],[2.3660,48.8843],[2.3699,48.8842],[2.3740,48.8841],[2.3780,48.8841],[2.3820,48.8840]]}},
    {"type":"Feature","properties":{"id":"road-02","highway":"secondary","name":"Quai de la Marne"},"geometry":{"type":"LineString","coordinates":[[2.3580,48.8832],[2.3620,48.8832],[2.3660,48.8832],[2.3699,48.8832],[2.3740,48.8831],[2.3780,48.8831],[2.3820,48.8830]]}},
    {"type":"Feature","properties":{"id":"road-03","highway":"tertiary","name":"Rue de Crimée"},"geometry":{"type":"LineString","coordinates":[[2.3680,48.8862],[2.3680,48.8852],[2.3680,48.8842],[2.3680,48.8837],[2.3680,48.8832],[2.3680,48.8822]]}},
    {"type":"Feature","properties":{"id":"road-04","highway":"residential","name":"Rue de Thionville"},"geometry":{"type":"LineString","coordinates":[[2.3645,48.8858],[2.3645,48.8848],[2.3645,48.8842]]}},
    {"type":"Feature","properties":{"id":"road-05","highway":"residential","name":"Rue Petit"},"geometry":{"type":"LineString","coordinates":[[2.3720,48.8858],[2.3720,48.8848],[2.3720,48.8842]]}},
    {"type":"Feature","properties":{"id":"road-06","highway":"primary","name":"Avenue Jean Jaurès"},"geometry":{"type":"LineString","coordinates":[[2.3760,48.8862],[2.3770,48.8852],[2.3780,48.8842],[2.3790,48.8832],[2.3800,48.8822]]}},
    {"type":"Feature","properties":{"id":"road-07","highway":"cycleway","name":"Piste cyclable Quai de la Loire"},"geometry":{"type":"LineString","coordinates":[[2.3590,48.8840],[2.3630,48.8841],[2.3670,48.8841],[2.3699,48.8840],[2.3730,48.8840],[2.3770,48.8839],[2.3810,48.8838]]}},
    {"type":"Feature","properties":{"id":"road-08","highway":"footway","name":"Chemin de halage nord"},"geometry":{"type":"LineString","coordinates":[[2.3585,48.8839],[2.3625,48.88395],[2.3665,48.88398],[2.3699,48.8839],[2.3735,48.88385],[2.3775,48.8838],[2.3815,48.88375]]}},
    {"type":"Feature","properties":{"id":"road-09","highway":"footway","name":"Chemin de halage sud"},"geometry":{"type":"LineString","coordinates":[[2.3585,48.8835],[2.3625,48.8835],[2.3665,48.88352],[2.3699,48.8835],[2.3735,48.88348],[2.3775,48.88345],[2.3815,48.8834]]}},

    {"type":"Feature","properties":{"id":"bench-01","amenity":"bench"},"geometry":{"type":"Point","coordinates":[2.3610,48.8839]}},
    {"type":"Feature","properties":{"id":"bench-02","amenity":"bench"},"geometry":{"type":"Point","coordinates":[2.3625,48.88392]}},
    {"type":"Feature","properties":{"id":"bench-03","amenity":"bench"},"geometry":{"type":"Point","coordinates":[2.3640,48.88395]}},
    {"type":"Feature","properties":{"id":"bench-04","amenity":"bench"},"geometry":{"type":"Point","coordinates":[2.3658,48.88398]}},
    {"type":"Feature","properties":{"id":"bench-05","amenity":"bench"},"geometry":{"type":"Point","coordinates":[2.3675,48.8839]}},
    {"type":"Feature","properties":{"id":"bench-06","amenity":"bench"},"geometry":{"type":"Point","coordinates":[2.3693,48.8839]}},
    {"type":"Feature","properties":{"id":"bench-07","amenity":"bench"},"geometry":{"type":"Point","coordinates":[2.3710,48.88388]}},
    {"type":"Feature","properties":{"id":"bench-08","amenity":"bench"},"geometry":{"type":"Point","coordinates":[2.3728,48.88385]}},
    {"type":"Feature","properties":{"id":"bench-09","amenity":"bench"},"geometry":{"type":"Point","coordinates":[2.3745,48.88383]}},
    {"type":"Feature","properties":{"id":"bench-10","amenity":"bench"},"geometry":{"type":"Point","coordinates":[2.3762,48.8838]}},
    {"type":"Feature","properties":{"id":"bench-11","amenity":"bench"},"geometry":{"type":"Point","coordinates":[2.3615,48.88352]}},
    {"type":"Feature","properties":{"id":"bench-12","amenity":"bench"},"geometry":{"type":"Point","coordinates":[2.3645,48.88354]}},
    {"type":"Feature","properties":{"id":"bench-13","amenity":"bench"},"geometry":{"type":"Point","coordinates":[2.3680,48.88352]}},
    {"type":"Feature","properties":{"id":"bench-14","amenity":"bench"},"geometry":{"type":"Point","coordinates":[2.3715,48.8835]}},
    {"type":"Feature","properties":{"id":"bench-15","amenity":"bench"},"geometry":{"type":"Point","coordinates":[2.3750,48.88348]}},
    {"type":"Feature","properties":{"id":"bench-16","amenity":"bench"},"geometry":{"type":"Point","coordinates":[2.3785,48.88345]}},
    {"type":"Feature","properties":{"id":"bench-17","amenity":"bench","direction":"270"},"geometry":{"type":"Point","coordinates":[2.3645,48.8855]}},
    {"type":"Feature","properties":{"id":"bench-18","amenity":"bench","direction":"90"},"geometry":{"type":"Point","coordinates":[2.3715,48.8855]}},

    {"type":"Feature","properties":{"id":"lamp-01","highway":"street_lamp"},"geometry":{"type":"Point","coordinates":[2.3600,48.88395]}},
    {"type":"Feature","properties":{"id":"lamp-02","highway":"street_lamp"},"geometry":{"type":"Point","coordinates":[2.3612,48.88398]}},
    {"type":"Feature","properties":{"id":"lamp-03","highway":"street_lamp"},"geometry":{"type":"Point","coordinates":[2.3624,48.884]}},
    {"type":"Feature","properties":{"id":"lamp-04","highway":"street_lamp"},"geometry":{"type":"Point","coordinates":[2.3636,48.884]}},
    {"type":"Feature","properties":{"id":"lamp-05","highway":"street_lamp"},"geometry":{"type":"Point","coordinates":[2.3648,48.884]}},
    {"type":"Feature","properties":{"id":"lamp-06","highway":"street_lamp"},"geometry":{"type":"Point","coordinates":[2.3660,48.88398]}},
    {"type":"Feature","properties":{"id":"lamp-07","highway":"street_lamp"},"geometry":{"type":"Point","coordinates":[2.3672,48.88395]}},
    {"type":"Feature","properties":{"id":"lamp-08","highway":"street_lamp"},"geometry":{"type":"Point","coordinates":[2.3684,48.8839]}},
    {"type":"Feature","properties":{"id":"lamp-09","highway":"street_lamp"},"geometry":{"type":"Point","coordinates":[2.3696,48.88388]}},
    {"type":"Feature","properties":{"id":"lamp-10","highway":"street_lamp"},"geometry":{"type":"Point","coordinates":[2.3708,48.88385]}},
    {"type":"Feature","properties":{"id":"lamp-11","highway":"street_lamp"},"geometry":{"type":"Point","coordinates":[2.3720,48.88383]}},
    {"type":"Feature","properties":{"id":"lamp-12","highway":"street_lamp"},"geometry":{"type":"Point","coordinates":[2.3732,48.88380]}},
    {"type":"Feature","properties":{"id":"lamp-13","highway":"street_lamp"},"geometry":{"type":"Point","coordinates":[2.3744,48.88378]}},
    {"type":"Feature","properties":{"id":"lamp-14","highway":"street_lamp"},"geometry":{"type":"Point","coordinates":[2.3756,48.88375]}},
    {"type":"Feature","properties":{"id":"lamp-15","highway":"street_lamp"},"geometry":{"type":"Point","coordinates":[2.3768,48.88372]}},
    {"type":"Feature","properties":{"id":"lamp-16","highway":"street_lamp"},"geometry":{"type":"Point","coordinates":[2.3780,48.8837]}},
    {"type":"Feature","properties":{"id":"lamp-17","highway":"street_lamp"},"geometry":{"type":"Point","coordinates":[2.3605,48.88348]}},
    {"type":"Feature","properties":{"id":"lamp-18","highway":"street_lamp"},"geometry":{"type":"Point","coordinates":[2.3625,48.8835]}},
    {"type":"Feature","properties":{"id":"lamp-19","highway":"street_lamp"},"geometry":{"type":"Point","coordinates":[2.3645,48.88352]}},
    {"type":"Feature","properties":{"id":"lamp-20","highway":"street_lamp"},"geometry":{"type":"Point","coordinates":[2.3665,48.88352]}},
    {"type":"Feature","properties":{"id":"lamp-21","highway":"street_lamp"},"geometry":{"type":"Point","coordinates":[2.3685,48.8835]}},
    {"type":"Feature","properties":{"id":"lamp-22","highway":"street_lamp"},"geometry":{"type":"Point","coordinates":[2.3705,48.88348]}},
    {"type":"Feature","properties":{"id":"lamp-23","highway":"street_lamp"},"geometry":{"type":"Point","coordinates":[2.3725,48.88345]}},
    {"type":"Feature","properties":{"id":"lamp-24","highway":"street_lamp"},"geometry":{"type":"Point","coordinates":[2.3745,48.88343]}},
    {"type":"Feature","properties":{"id":"lamp-25","highway":"street_lamp"},"geometry":{"type":"Point","coordinates":[2.3765,48.8834]}},
    {"type":"Feature","properties":{"id":"lamp-26","highway":"street_lamp"},"geometry":{"type":"Point","coordinates":[2.3785,48.88338]}},
    {"type":"Feature","properties":{"id":"lamp-27","highway":"street_lamp"},"geometry":{"type":"Point","coordinates":[2.3680,48.8843]}},
    {"type":"Feature","properties":{"id":"lamp-28","highway":"street_lamp"},"geometry":{"type":"Point","coordinates":[2.3680,48.8831]}},

    {"type":"Feature","properties":{"id":"fountain-01","amenity":"drinking_water","fountain":"wallace"},"geometry":{"type":"Point","coordinates":[2.3640,48.88398]}},
    {"type":"Feature","properties":{"id":"fountain-02","amenity":"drinking_water","fountain":"wallace"},"geometry":{"type":"Point","coordinates":[2.3710,48.88385]}},
    {"type":"Feature","properties":{"id":"fountain-03","amenity":"drinking_water","fountain":"wallace"},"geometry":{"type":"Point","coordinates":[2.3780,48.88372]}},
    {"type":"Feature","properties":{"id":"fountain-04","amenity":"drinking_water"},"geometry":{"type":"Point","coordinates":[2.3660,48.88352]}},
    {"type":"Feature","properties":{"id":"fountain-05","amenity":"drinking_water"},"geometry":{"type":"Point","coordinates":[2.3730,48.88345]}},
    {"type":"Feature","properties":{"id":"fountain-06","amenity":"drinking_water"},"geometry":{"type":"Point","coordinates":[2.3645,48.8856]}},
    {"type":"Feature","properties":{"id":"fountain-07","amenity":"drinking_water"},"geometry":{"type":"Point","coordinates":[2.3716,48.8855]}},
    {"type":"Feature","properties":{"id":"fountain-08","amenity":"drinking_water"},"geometry":{"type":"Point","coordinates":[2.3620,48.8835]}},

    {"type":"Feature","properties":{"id":"bin-01","amenity":"waste_basket"},"geometry":{"type":"Point","coordinates":[2.3608,48.8839]}},
    {"type":"Feature","properties":{"id":"bin-02","amenity":"waste_basket"},"geometry":{"type":"Point","coordinates":[2.3638,48.88395]}},
    {"type":"Feature","properties":{"id":"bin-03","amenity":"waste_basket"},"geometry":{"type":"Point","coordinates":[2.3668,48.88392]}},
    {"type":"Feature","properties":{"id":"bin-04","amenity":"waste_basket"},"geometry":{"type":"Point","coordinates":[2.3698,48.8839]}},
    {"type":"Feature","properties":{"id":"bin-05","amenity":"waste_basket"},"geometry":{"type":"Point","coordinates":[2.3728,48.88385]}},
    {"type":"Feature","properties":{"id":"bin-06","amenity":"waste_basket"},"geometry":{"type":"Point","coordinates":[2.3758,48.8838]}},
    {"type":"Feature","properties":{"id":"bin-07","amenity":"waste_basket"},"geometry":{"type":"Point","coordinates":[2.3788,48.88375]}},
    {"type":"Feature","properties":{"id":"bin-08","amenity":"waste_basket"},"geometry":{"type":"Point","coordinates":[2.3618,48.8835]}},
    {"type":"Feature","properties":{"id":"bin-09","amenity":"waste_basket"},"geometry":{"type":"Point","coordinates":[2.3658,48.88352]}},
    {"type":"Feature","properties":{"id":"bin-10","amenity":"waste_basket"},"geometry":{"type":"Point","coordinates":[2.3698,48.8835]}},
    {"type":"Feature","properties":{"id":"bin-11","amenity":"waste_basket"},"geometry":{"type":"Point","coordinates":[2.3738,48.88345]}},
    {"type":"Feature","properties":{"id":"bin-12","amenity":"waste_basket"},"geometry":{"type":"Point","coordinates":[2.3778,48.8834]}},

    {"type":"Feature","properties":{"id":"velib-01","amenity":"bicycle_rental","name":"Quai de la Loire - Crimée","ref":"19001","capacity":"30"},"geometry":{"type":"Point","coordinates":[2.3680,48.88405]}},
    {"type":"Feature","properties":{"id":"velib-02","amenity":"bicycle_rental","name":"Quai de la Loire - Thionville","ref":"19002","capacity":"24"},"geometry":{"type":"Point","coordinates":[2.3645,48.88408]}},
    {"type":"Feature","properties":{"id":"velib-03","amenity":"bicycle_rental","name":"Quai de la Loire - Petit","ref":"19003","capacity":"20"},"geometry":{"type":"Point","coordinates":[2.3720,48.8840]}},
    {"type":"Feature","properties":{"id":"velib-04","amenity":"bicycle_rental","name":"Quai de la Marne - Crimée","ref":"19004","capacity":"26"},"geometry":{"type":"Point","coordinates":[2.3680,48.8834]}},
    {"type":"Feature","properties":{"id":"velib-05","amenity":"bicycle_rental","name":"Avenue Jean Jaurès - Canal","ref":"19005","capacity":"32"},"geometry":{"type":"Point","coordinates":[2.3770,48.8842]}},
    {"type":"Feature","properties":{"id":"velib-06","amenity":"bicycle_rental","name":"Place de Bitche","ref":"19006","capacity":"22"},"geometry":{"type":"Point","coordinates":[2.3718,48.88505]}},
    {"type":"Feature","properties":{"id":"velib-07","amenity":"bicycle_rental","name":"Rue de Thionville","ref":"19007","capacity":"18"},"geometry":{"type":"Point","coordinates":[2.3645,48.8852]}},
    {"type":"Feature","properties":{"id":"velib-08","amenity":"bicycle_rental","name":"Quai de la Marne - Villette","ref":"19008","capacity":"28"},"geometry":{"type":"Point","coordinates":[2.3740,48.8834]}},
    {"type":"Feature","properties":{"id":"velib-09","amenity":"bicycle_rental","name":"Bassin de la Villette","ref":"19009","capacity":"20"},"geometry":{"type":"Point","coordinates":[2.3790,48.8838]}},
    {"type":"Feature","properties":{"id":"velib-10","amenity":"bicycle_rental","name":"Rue de l'Ourcq","ref":"19010","capacity":"16"},"geometry":{"type":"Point","coordinates":[2.3610,48.8842]}},
    {"type":"Feature","properties":{"id":"velib-11","amenity":"bicycle_rental","name":"Quai de la Loire Est","ref":"19011","capacity":"24"},"geometry":{"type":"Point","coordinates":[2.3755,48.88395]}},
    {"type":"Feature","properties":{"id":"velib-12","amenity":"bicycle_rental","name":"Quai de la Marne Ouest","ref":"19012","capacity":"20"},"geometry":{"type":"Point","coordinates":[2.3625,48.8834]}},

    {"type":"Feature","properties":{"id":"bus-01","highway":"bus_stop","name":"Quai de la Loire","route_ref":"65;75"},"geometry":{"type":"Point","coordinates":[2.3640,48.8843]}},
    {"type":"Feature","properties":{"id":"bus-02","highway":"bus_stop","name":"Crimée","route_ref":"60;PC2"},"geometry":{"type":"Point","coordinates":[2.3680,48.8843]}},
    {"type":"Feature","properties":{"id":"bus-03","highway":"bus_stop","name":"Jean Jaurès - Canal","route_ref":"48;PC2"},"geometry":{"type":"Point","coordinates":[2.3770,48.8842]}},
    {"type":"Feature","properties":{"id":"bus-04","highway":"bus_stop","name":"Place de Bitche","route_ref":"65"},"geometry":{"type":"Point","coordinates":[2.3720,48.8842]}},
    {"type":"Feature","properties":{"id":"bus-05","highway":"bus_stop","name":"Quai de la Marne","route_ref":"75"},"geometry":{"type":"Point","coordinates":[2.3660,48.8832]}},
    {"type":"Feature","properties":{"id":"bus-06","highway":"bus_stop","name":"Bassin de la Villette","route_ref":"54;PC2"},"geometry":{"type":"Point","coordinates":[2.3790,48.8831]}},

    {"type":"Feature","properties":{"id":"traffic-01","highway":"traffic_signals"},"geometry":{"type":"Point","coordinates":[2.3680,48.8842]}},
    {"type":"Feature","properties":{"id":"traffic-02","highway":"traffic_signals"},"geometry":{"type":"Point","coordinates":[2.3680,48.88325]}},
    {"type":"Feature","properties":{"id":"traffic-03","highway":"traffic_signals"},"geometry":{"type":"Point","coordinates":[2.3770,48.8842]}},
    {"type":"Feature","properties":{"id":"traffic-04","highway":"traffic_signals"},"geometry":{"type":"Point","coordinates":[2.3770,48.8831]}},
    {"type":"Feature","properties":{"id":"traffic-05","highway":"traffic_signals"},"geometry":{"type":"Point","coordinates":[2.3645,48.8842]}},

    {"type":"Feature","properties":{"id":"shop-01","shop":"bakery","name":"Boulangerie du Canal"},"geometry":{"type":"Point","coordinates":[2.3672,48.88235]}},
    {"type":"Feature","properties":{"id":"shop-02","shop":"bakery","name":"Au Pain de l'Ourcq"},"geometry":{"type":"Point","coordinates":[2.3718,48.8845]}},
    {"type":"Feature","properties":{"id":"shop-03","amenity":"cafe","name":"Chez Prune"},"geometry":{"type":"Point","coordinates":[2.3633,48.88435]}},
    {"type":"Feature","properties":{"id":"shop-04","amenity":"restaurant","name":"Hôtel du Nord"},"geometry":{"type":"Point","coordinates":[2.3715,48.8845]}},
    {"type":"Feature","properties":{"id":"shop-05","amenity":"bar","name":"Point Éphémère"},"geometry":{"type":"Point","coordinates":[2.3648,48.8828]}},
    {"type":"Feature","properties":{"id":"shop-06","amenity":"cafe","name":"Café de l'Écluse"},"geometry":{"type":"Point","coordinates":[2.3777,48.8827]}},
    {"type":"Feature","properties":{"id":"shop-07","shop":"convenience","name":"Franprix Canal"},"geometry":{"type":"Point","coordinates":[2.3695,48.8846]}},
    {"type":"Feature","properties":{"id":"shop-08","amenity":"pharmacy","name":"Pharmacie du Canal"},"geometry":{"type":"Point","coordinates":[2.3660,48.8847]}},
    {"type":"Feature","properties":{"id":"shop-09","amenity":"restaurant","name":"Le Cambodge"},"geometry":{"type":"Point","coordinates":[2.3625,48.8845]}},
    {"type":"Feature","properties":{"id":"shop-10","amenity":"bar","name":"La Rotonde Stalingrad"},"geometry":{"type":"Point","coordinates":[2.3800,48.8842]}},

    {"type":"Feature","properties":{"id":"barge-01","waterway":"boat","name":"Péniche Antipode","length":"30"},"geometry":{"type":"Point","coordinates":[2.3630,48.88365]}},
    {"type":"Feature","properties":{"id":"barge-02","waterway":"boat","name":"Péniche Demoiselle","length":"25"},"geometry":{"type":"Point","coordinates":[2.3670,48.88373]}},
    {"type":"Feature","properties":{"id":"barge-03","waterway":"boat","name":"Canauxrama","length":"20","tourism":"boat_tour"},"geometry":{"type":"Point","coordinates":[2.3720,48.88362]}},
    {"type":"Feature","properties":{"id":"barge-04","waterway":"boat","length":"28"},"geometry":{"type":"Point","coordinates":[2.3755,48.88358]}},
    {"type":"Feature","properties":{"id":"barge-05","waterway":"boat","name":"Paris Canal","length":"22","tourism":"boat_tour"},"geometry":{"type":"Point","coordinates":[2.3790,48.88352]}},

    {"type":"Feature","properties":{"id":"tree-01","natural":"tree"},"geometry":{"type":"Point","coordinates":[2.3600,48.88398]}},
    {"type":"Feature","properties":{"id":"tree-02","natural":"tree"},"geometry":{"type":"Point","coordinates":[2.3608,48.884]}},
    {"type":"Feature","properties":{"id":"tree-03","natural":"tree"},"geometry":{"type":"Point","coordinates":[2.3616,48.884]}},
    {"type":"Feature","properties":{"id":"tree-04","natural":"tree"},"geometry":{"type":"Point","coordinates":[2.3624,48.88402]}},
    {"type":"Feature","properties":{"id":"tree-05","natural":"tree"},"geometry":{"type":"Point","coordinates":[2.3632,48.88402]}},
    {"type":"Feature","properties":{"id":"tree-06","natural":"tree"},"geometry":{"type":"Point","coordinates":[2.3640,48.884]}},
    {"type":"Feature","properties":{"id":"tree-07","natural":"tree"},"geometry":{"type":"Point","coordinates":[2.3648,48.884]}},
    {"type":"Feature","properties":{"id":"tree-08","natural":"tree"},"geometry":{"type":"Point","coordinates":[2.3656,48.884]}},
    {"type":"Feature","properties":{"id":"tree-09","natural":"tree"},"geometry":{"type":"Point","coordinates":[2.3664,48.88398]}},
    {"type":"Feature","properties":{"id":"tree-10","natural":"tree"},"geometry":{"type":"Point","coordinates":[2.3672,48.88395]}},
    {"type":"Feature","properties":{"id":"tree-11","natural":"tree"},"geometry":{"type":"Point","coordinates":[2.3680,48.88393]}},
    {"type":"Feature","properties":{"id":"tree-12","natural":"tree"},"geometry":{"type":"Point","coordinates":[2.3688,48.8839]}},
    {"type":"Feature","properties":{"id":"tree-13","natural":"tree"},"geometry":{"type":"Point","coordinates":[2.3696,48.88388]}},
    {"type":"Feature","properties":{"id":"tree-14","natural":"tree"},"geometry":{"type":"Point","coordinates":[2.3704,48.88388]}},
    {"type":"Feature","properties":{"id":"tree-15","natural":"tree"},"geometry":{"type":"Point","coordinates":[2.3712,48.88385]}},
    {"type":"Feature","properties":{"id":"tree-16","natural":"tree"},"geometry":{"type":"Point","coordinates":[2.3720,48.88383]}},
    {"type":"Feature","properties":{"id":"tree-17","natural":"tree"},"geometry":{"type":"Point","coordinates":[2.3728,48.88380]}},
    {"type":"Feature","properties":{"id":"tree-18","natural":"tree"},"geometry":{"type":"Point","coordinates":[2.3736,48.88378]}},
    {"type":"Feature","properties":{"id":"tree-19","natural":"tree"},"geometry":{"type":"Point","coordinates":[2.3744,48.88375]}},
    {"type":"Feature","properties":{"id":"tree-20","natural":"tree"},"geometry":{"type":"Point","coordinates":[2.3752,48.88373]}},
    {"type":"Feature","properties":{"id":"tree-21","natural":"tree"},"geometry":{"type":"Point","coordinates":[2.3760,48.8837]}},
    {"type":"Feature","properties":{"id":"tree-22","natural":"tree"},"geometry":{"type":"Point","coordinates":[2.3768,48.88368]}},
    {"type":"Feature","properties":{"id":"tree-23","natural":"tree"},"geometry":{"type":"Point","coordinates":[2.3776,48.88367]}},
    {"type":"Feature","properties":{"id":"tree-24","natural":"tree"},"geometry":{"type":"Point","coordinates":[2.3784,48.88365]}}
  ]
}
