{"type":"FeatureCollection","features":[{"type":"Feature","properties":{"@id":"way/73111070","building":"apartments","source":"extraction vectorielle v1 cadastre-dgi-fr source : Direction Générale des Impôts - Cadas. Mise à jour : 2010","id":"way/73111070"},"geometry":{"type":"Polygon","coordinates":[[[2.4121644,48.8921614],[2.4122246,48.8921687],[2.412385,48.8921868],[2.4125071,48.8922002],[2.4125037,48.8922051],[2.4124076,48.8921946],[2.4122723,48.8921792],[2.4121618,48.8921651],[2.4121644,48.8921614]]]},"id":"way/73111070"},{"type":"Feature","properties":{"@id":"way/73112207","building":"apartments","building:levels":"7","source":"extraction vectorielle v1 cadastre-dgi-fr source : Direction Générale des Impôts - Cadas. Mise à jour : 2010","id":"way/73112207"},"geometry":{"type":"Polygon","coordinates":[[[2.4127417,48.8923393],[2.4127987,48.8922073],[2.4128094,48.8922088],[2.4128332,48.8921518],[2.4128246,48.8921498],[2.4128913,48.8919992],[2.4128986,48.8920005],[2.4129211,48.8919499],[2.4129145,48.8919485],[2.4129716,48.891817],[2.4129789,48.891818],[2.4130035,48.8917663],[2.4131701,48.8917963],[2.4131518,48.891838],[2.4131675,48.8918413],[2.4131631,48.8918534],[2.4131712,48.8918551],[2.4131139,48.8919869],[2.4131035,48.8919842],[2.4130888,48.8920181],[2.4130818,48.8920345],[2.4130917,48.8920369],[2.413024,48.8921875],[2.4130143,48.8921867],[2.4130054,48.8922078],[2.4129902,48.892244],[2.4130006,48.8922459],[2.4129438,48.8923816],[2.4129306,48.8923799],[2.4129094,48.8924295],[2.4127293,48.8923936],[2.4127516,48.8923424],[2.4127417,48.8923393]]]},"id":"way/73112207"},{"type":"Feature","properties":{"@id":"way/73113163","building":"apartments","source":"extraction vectorielle v1 cadastre-dgi-fr source : Direction Générale des Impôts - Cadas. Mise à jour : 2010","id":"way/73113163"},"geometry":{"type":"Polygon","coordinates":[[[2.412385,48.8921868],[2.4123998,48.8921659],[2.4123323,48.8921464],[2.4123261,48.8921548],[2.4122715,48.8921396],[2.4123156,48.8920735],[2.4123468,48.8920821],[2.4123647,48.8920556],[2.4124859,48.8920924],[2.4124483,48.8921507],[2.4124478,48.8921545],[2.4125229,48.8921756],[2.4125071,48.8922002],[2.412385,48.8921868]]]},"id":"way/73113163"},{"type":"Feature","properties":{"@id":"way/73118199","building":"yes","source":"extraction vectorielle v1 cadastre-dgi-fr source : Direction Générale des Impôts - Cadas. Mise à jour : 2010","id":"way/73118199"},"geometry":{"type":"Polygon","coordinates":[[[2.4125599,48.8921238],[2.4125152,48.8921121],[2.4125507,48.8920568],[2.4125944,48.8920698],[2.4125778,48.8920938],[2.4125599,48.8921238]]]},"id":"way/73118199"},{"type":"Feature","properties":{"@id":"way/73118353","building":"apartments","building:levels":"10","source":"extraction vectorielle v1 cadastre-dgi-fr source : Direction Générale des Impôts - Cadas. Mise à jour : 2010","id":"way/73118353"},"geometry":{"type":"Polygon","coordinates":[[[2.4123293,48.8924662],[2.4124731,48.8924931],[2.4124416,48.8925685],[2.4124299,48.8925936],[2.4123676,48.8927379],[2.4123577,48.8927619],[2.4123262,48.8928359],[2.4121789,48.8928077],[2.4121852,48.8927965],[2.4122132,48.8927323],[2.4123021,48.8925316],[2.4123293,48.8924662]]]},"id":"way/73118353"},{"type":"Feature","properties":{"@id":"way/73119193","building":"apartments","source":"extraction vectorielle v1 cadastre-dgi-fr source : Direction Générale des Impôts - Cadas. Mise à jour : 2010","wall":"no","id":"way/73119193"},"geometry":{"type":"Polygon","coordinates":[[[2.4124416,48.8925685],[2.4124607,48.892574],[2.4124507,48.8925977],[2.4124299,48.8925936],[2.4124416,48.8925685]]]},"id":"way/73119193"},{"type":"Feature","properties":{"@id":"way/244822475","access":"yes","addr:city":"Pantin","addr:postcode":"93500","addr:street":"Place de l'Église","barrier":"fence","check_date:opening_hours":"2023-05-29","leisure":"park","name":"Square de l’Église","opening_hours":"may-oct 08:00-21:00; nov-apr 09:00-18:30","opening_hours:signed":"no","website":"https://pratique.pantin.fr/parcs-et-jardins/parcs-et-squares","id":"way/244822475"},"geometry":{"type":"Polygon","coordinates":[[[2.4132478,48.8918541],[2.4132558,48.8918345],[2.4132577,48.8918301],[2.4132627,48.8918076],[2.413253,48.8917879],[2.4132297,48.8917731],[2.4132112,48.8917676],[2.4131459,48.8917541],[2.4131963,48.8916309],[2.4130961,48.8916129],[2.4131061,48.8915872],[2.4138935,48.8917344],[2.4138869,48.89175],[2.4138369,48.8918672],[2.4138294,48.8918848],[2.4137998,48.8919545],[2.4136474,48.8919268],[2.4132478,48.8918541]]]},"id":"way/244822475"},{"type":"Feature","properties":{"@id":"way/1112141153","amenity":"shelter","building":"yes","id":"way/1112141153"},"geometry":{"type":"Polygon","coordinates":[[[2.4132032,48.8924361],[2.4132263,48.8923826],[2.4135129,48.892436],[2.4134899,48.8924895],[2.4132032,48.8924361]]]},"id":"way/1112141153"},{"type":"Feature","properties":{"@id":"way/1112141154","amenity":"shelter","building":"yes","id":"way/1112141154"},"geometry":{"type":"Polygon","coordinates":[[[2.4130188,48.8924028],[2.413042,48.8923494],[2.4131974,48.8923786],[2.4131741,48.8924321],[2.4130188,48.8924028]]]},"id":"way/1112141154"},{"type":"Feature","properties":{"@id":"way/1112141155","amenity":"shelter","building":"yes","id":"way/1112141155"},"geometry":{"type":"Polygon","coordinates":[[[2.4129922,48.8924685],[2.4130155,48.892415],[2.4131708,48.8924443],[2.4131475,48.8924977],[2.4129922,48.8924685]]]},"id":"way/1112141155"},{"type":"Feature","properties":{"@id":"way/1112141156","amenity":"shelter","building":"yes","id":"way/1112141156"},"geometry":{"type":"Polygon","coordinates":[[[2.4131767,48.8925018],[2.4131997,48.8924483],[2.4134864,48.8925017],[2.4134634,48.8925551],[2.4131767,48.8925018]]]},"id":"way/1112141156"},{"type":"Feature","properties":{"@id":"way/1112141157","amenity":"shelter","building":"yes","id":"way/1112141157"},"geometry":{"type":"Polygon","coordinates":[[[2.4130456,48.8923378],[2.4130689,48.8922844],[2.4132242,48.8923136],[2.4132009,48.8923671],[2.4130456,48.8923378]]]},"id":"way/1112141157"},{"type":"Feature","properties":{"@id":"way/1112141158","amenity":"shelter","building":"yes","id":"way/1112141158"},"geometry":{"type":"Polygon","coordinates":[[[2.4132301,48.8923712],[2.4132531,48.8923177],[2.4135397,48.892371],[2.4135167,48.8924245],[2.4132301,48.8923712]]]},"id":"way/1112141158"},{"type":"Feature","properties":{"@id":"way/1112141159","amenity":"shelter","building":"yes","id":"way/1112141159"},"geometry":{"type":"Polygon","coordinates":[[[2.4130735,48.8922723],[2.4130968,48.8922189],[2.4132521,48.8922482],[2.4132288,48.8923016],[2.4130735,48.8922723]]]},"id":"way/1112141159"},{"type":"Feature","properties":{"@id":"way/1112141160","amenity":"shelter","building":"yes","id":"way/1112141160"},"geometry":{"type":"Polygon","coordinates":[[[2.413258,48.8923057],[2.413281,48.8922522],[2.4135677,48.8923055],[2.4135447,48.892359],[2.413258,48.8923057]]]},"id":"way/1112141160"},{"type":"Feature","properties":{"@id":"way/1112141161","amenity":"shelter","building":"yes","id":"way/1112141161"},"geometry":{"type":"Polygon","coordinates":[[[2.4131071,48.8921955],[2.4131303,48.8921421],[2.4132857,48.8921713],[2.4132624,48.8922248],[2.4131071,48.8921955]]]},"id":"way/1112141161"},{"type":"Feature","properties":{"@id":"way/1112141162","amenity":"shelter","building":"yes","id":"way/1112141162"},"geometry":{"type":"Polygon","coordinates":[[[2.4132915,48.8922288],[2.4133146,48.8921753],[2.4136012,48.8922287],[2.4135782,48.8922822],[2.4132915,48.8922288]]]},"id":"way/1112141162"},{"type":"Feature","properties":{"@id":"way/1112141163","amenity":"shelter","building":"yes","id":"way/1112141163"},"geometry":{"type":"Polygon","coordinates":[[[2.4131355,48.8921307],[2.4131588,48.8920772],[2.4133141,48.8921065],[2.4132908,48.8921599],[2.4131355,48.8921307]]]},"id":"way/1112141163"},{"type":"Feature","properties":{"@id":"way/1112141164","amenity":"shelter","building":"yes","id":"way/1112141164"},"geometry":{"type":"Polygon","coordinates":[[[2.41332,48.892164],[2.413343,48.8921105],[2.4136297,48.8921639],[2.4136067,48.8922173],[2.41332,48.892164]]]},"id":"way/1112141164"},{"type":"Feature","properties":{"@id":"way/1112141165","amenity":"shelter","building":"yes","id":"way/1112141165"},"geometry":{"type":"Polygon","coordinates":[[[2.413164,48.8920652],[2.4131873,48.8920117],[2.4133426,48.892041],[2.4133193,48.8920944],[2.413164,48.8920652]]]},"id":"way/1112141165"},{"type":"Feature","properties":{"@id":"way/1112141166","amenity":"shelter","building":"yes","id":"way/1112141166"},"geometry":{"type":"Polygon","coordinates":[[[2.4133485,48.8920985],[2.4133715,48.892045],[2.4136581,48.8920984],[2.4136351,48.8921519],[2.4133485,48.8920985]]]},"id":"way/1112141166"},{"type":"Feature","properties":{"@id":"way/30285401","cycleway:left":"opposite_lane","highway":"residential","lit":"yes","maxspeed":"30","name":"Rue du 11 Novembre 1918","oneway":"yes","oneway:bicycle":"no","sidewalk":"both","surface":"asphalt","id":"way/30285401"},"geometry":{"type":"LineString","coordinates":[[2.409885,48.8919928],[2.4099477,48.8920031],[2.41045,48.8920789],[2.4105687,48.892117],[2.4115723,48.8922677],[2.4124184,48.8924284],[2.4124608,48.8924308],[2.4125023,48.8924311],[2.4125357,48.8924245],[2.4125674,48.8924151],[2.412596,48.8923956],[2.4126212,48.8923711]]},"id":"way/30285401"},{"type":"Feature","properties":{"@id":"way/30285403","highway":"residential","lit":"yes","maxspeed":"30","name":"Rue de la Paix","oneway":"yes","oneway:bicycle":"no","sidewalk":"both","surface":"asphalt","id":"way/30285403"},"geometry":{"type":"LineString","coordinates":[[2.4126656,48.8920396],[2.4125664,48.8920033],[2.4119726,48.8918293],[2.4117693,48.8917738],[2.4099638,48.8914652],[2.4098894,48.8914528]]},"id":"way/30285403"},{"type":"Feature","properties":{"@id":"way/30285404","highway":"residential","lit":"yes","maxspeed":"30","name":"Rue de la Paix","oneway":"yes","oneway:bicycle":"no","sidewalk":"both","surface":"asphalt","id":"way/30285404"},"geometry":{"type":"LineString","coordinates":[[2.4126212,48.8923711],[2.4127304,48.8921275],[2.412724,48.8921024],[2.4127099,48.8920798],[2.4126909,48.892058],[2.4126656,48.8920396]]},"id":"way/30285404"},{"type":"Feature","properties":{"@id":"way/1217341569","footway":"sidewalk","highway":"footway","lit":"yes","surface":"asphalt","id":"way/1217341569"},"geometry":{"type":"LineString","coordinates":[[2.4139603,48.8916653],[2.4137199,48.8921464],[2.4136308,48.8923968],[2.4136078,48.8924926],[2.4136005,48.8925833]]},"id":"way/1217341569"},{"type":"Feature","properties":{"@id":"way/1394431207","bicycle":"permissive","foot":"yes","highway":"footway","horse":"no","surface":"concrete","id":"way/1394431207"},"geometry":{"type":"LineString","coordinates":[[2.4131335,48.8919904],[2.4131274,48.8919777],[2.4132036,48.8918001],[2.4131935,48.8917887],[2.4128965,48.8917349]]},"id":"way/1394431207"},{"type":"Feature","properties":{"@id":"node/2520844048","leaf_type":"broadleaved","natural":"tree","id":"node/2520844048"},"geometry":{"type":"Point","coordinates":[2.4128361,48.89184]},"id":"node/2520844048"},{"type":"Feature","properties":{"@id":"node/2520844053","leaf_type":"broadleaved","natural":"tree","id":"node/2520844053"},"geometry":{"type":"Point","coordinates":[2.4127597,48.8918995]},"id":"node/2520844053"},{"type":"Feature","properties":{"@id":"node/2520844065","leaf_type":"broadleaved","natural":"tree","id":"node/2520844065"},"geometry":{"type":"Point","coordinates":[2.4128041,48.8919863]},"id":"node/2520844065"},{"type":"Feature","properties":{"@id":"node/2520844086","leaf_type":"broadleaved","natural":"tree","id":"node/2520844086"},"geometry":{"type":"Point","coordinates":[2.4125507,48.892211]},"id":"node/2520844086"},{"type":"Feature","properties":{"@id":"node/2520844093","leaf_type":"broadleaved","natural":"tree","id":"node/2520844093"},"geometry":{"type":"Point","coordinates":[2.4125377,48.8923418]},"id":"node/2520844093"},{"type":"Feature","properties":{"@id":"node/2520844129","leaf_type":"broadleaved","natural":"tree","id":"node/2520844129"},"geometry":{"type":"Point","coordinates":[2.4129927,48.8926407]},"id":"node/2520844129"},{"type":"Feature","properties":{"@id":"node/4316819893","name":"Le Fournil Guyot","opening_hours":"07:00-15:00,16:00-20:00","operator":"Guyot","shop":"bakery","id":"node/4316819893"},"geometry":{"type":"Point","coordinates":[2.4129995,48.8921243]},"id":"node/4316819893"},{"type":"Feature","properties":{"@id":"node/7071756033","brand":"Votre Marché","brand:wikidata":"Q89135338","check_date:opening_hours":"2023-05-29","name":"Votre Marché","opening_hours":"Mo-Su 09:00-24:00","shop":"convenience","id":"node/7071756033"},"geometry":{"type":"Point","coordinates":[2.4130263,48.8920684]},"id":"node/7071756033"},{"type":"Feature","properties":{"@id":"node/7248555630","amenity":"bench","backrest":"yes","material":"wood","id":"node/7248555630"},"geometry":{"type":"Point","coordinates":[2.4136129,48.891842]},"id":"node/7248555630"},{"type":"Feature","properties":{"@id":"node/7252517676","amenity":"waste_basket","id":"node/7252517676"},"geometry":{"type":"Point","coordinates":[2.4136058,48.8918643]},"id":"node/7252517676"},{"type":"Feature","properties":{"@id":"node/7252517677","amenity":"waste_basket","id":"node/7252517677"},"geometry":{"type":"Point","coordinates":[2.4134647,48.8918673]},"id":"node/7252517677"},{"type":"Feature","properties":{"@id":"node/7252517678","amenity":"waste_basket","id":"node/7252517678"},"geometry":{"type":"Point","coordinates":[2.4133511,48.8918545]},"id":"node/7252517678"},{"type":"Feature","properties":{"@id":"node/9188233884","amenity":"waste_basket","id":"node/9188233884"},"geometry":{"type":"Point","coordinates":[2.4126372,48.8921343]},"id":"node/9188233884"},{"type":"Feature","properties":{"@id":"node/9188233885","amenity":"waste_basket","id":"node/9188233885"},"geometry":{"type":"Point","coordinates":[2.4128259,48.8919982]},"id":"node/9188233885"}]}