{"type":"FeatureCollection","features":[{"type":"Feature","properties":{"@id":"way/58162143","highway":"footway","source":"GPS + CG93-Aerodata2013","surface":"paving_stones","id":"way/58162143"},"geometry":{"type":"LineString","coordinates":[[2.3885363,48.8933814],[2.3887004,48.8934655],[2.3887697,48.8936247],[2.3889344,48.8936316],[2.388935,48.8937411],[2.3890934,48.8937384],[2.3890023,48.8939963],[2.389146,48.8941347],[2.3892427,48.8942036],[2.3893077,48.894227],[2.3895253,48.8942728],[2.3895733,48.8942813],[2.3896709,48.8942978],[2.3898892,48.8943239],[2.3900392,48.89438],[2.3901918,48.894442],[2.3902998,48.8945029],[2.3903059,48.8945578],[2.3902805,48.8945962],[2.3901261,48.8946115],[2.3900369,48.8946233],[2.3900061,48.894638],[2.3900036,48.8946667],[2.3900336,48.8947119],[2.3901347,48.8947811],[2.3903628,48.8948754],[2.390612,48.8949453],[2.3908029,48.8950013],[2.390848,48.8950288],[2.3908475,48.8950391],[2.3908469,48.895051],[2.3908176,48.8950665],[2.3907614,48.8950694],[2.3907232,48.8950768]]},"id":"way/58162143"},{"type":"Feature","properties":{"@id":"way/245795917","leaf_type":"broadleaved","natural":"tree_row","id":"way/245795917"},"geometry":{"type":"LineString","coordinates":[[2.3897149,48.8942696],[2.3900639,48.8943274],[2.3902504,48.8944158],[2.390349,48.8944999],[2.3904076,48.8946102],[2.3904023,48.8946663]]},"id":"way/245795917"},{"type":"Feature","properties":{"@id":"way/271358934","highway":"footway","surface":"paving_stones","id":"way/271358934"},"geometry":{"type":"LineString","coordinates":[[2.3890482,48.8944271],[2.3890375,48.8944214],[2.3890557,48.8944017]]},"id":"way/271358934"},{"type":"Feature","properties":{"@id":"way/271358935","highway":"footway","source":"Bing","surface":"paving_stones","id":"way/271358935"},"geometry":{"type":"LineString","coordinates":[[2.3892777,48.8945281],[2.3892952,48.89452],[2.3892569,48.8945001],[2.3890557,48.8944017],[2.3888129,48.8942832],[2.3885736,48.8941612],[2.3885613,48.8941708]]},"id":"way/271358935"},{"type":"Feature","properties":{"@id":"way/1210091177","bridge":"yes","highway":"footway","oneway":"yes","surface":"paving_stones","id":"way/1210091177"},"geometry":{"type":"LineString","coordinates":[[2.3896399,48.8944335],[2.3896224,48.8944243],[2.3896137,48.8944312]]},"id":"way/1210091177"},{"type":"Feature","properties":{"@id":"way/1210091179","highway":"footway","surface":"paving_stones","id":"way/1210091179"},"geometry":{"type":"LineString","coordinates":[[2.389453,48.8945771],[2.3895402,48.894497],[2.3895597,48.8944791]]},"id":"way/1210091179"},{"type":"Feature","properties":{"@id":"way/1210091298","highway":"footway","surface":"paving_stones","id":"way/1210091298"},"geometry":{"type":"LineString","coordinates":[[2.389522,48.8944532],[2.3895381,48.8944406],[2.3895662,48.8944528],[2.3895244,48.8944889],[2.3895402,48.894497]]},"id":"way/1210091298"},{"type":"Feature","properties":{"@id":"way/1210091303","highway":"footway","surface":"paving_stones","id":"way/1210091303"},"geometry":{"type":"LineString","coordinates":[[2.3891055,48.8944573],[2.3890882,48.8944482]]},"id":"way/1210091303"},{"type":"Feature","properties":{"@id":"way/1210091305","highway":"footway","surface":"paving_stones","id":"way/1210091305"},"geometry":{"type":"LineString","coordinates":[[2.3891644,48.8944884],[2.3891449,48.8944781]]},"id":"way/1210091305"},{"type":"Feature","properties":{"@id":"way/1315793549","highway":"footway","surface":"paving_stones","id":"way/1315793549"},"geometry":{"type":"LineString","coordinates":[[2.3892952,48.89452],[2.3893573,48.8944678],[2.3895733,48.8942813]]},"id":"way/1315793549"},{"type":"Feature","properties":{"@id":"way/1315793550","highway":"footway","surface":"paving_stones","id":"way/1315793550"},"geometry":{"type":"LineString","coordinates":[[2.3893573,48.8944678],[2.3894322,48.8945067]]},"id":"way/1315793550"},{"type":"Feature","properties":{"@id":"node/11210573014","natural":"tree","id":"node/11210573014"},"geometry":{"type":"Point","coordinates":[2.3893587,48.8943437]},"id":"node/11210573014"}]}