{"type":"FeatureCollection","features":[{"type":"Feature","properties":{"@id":"way/29180736","bicycle":"no","cycleway:right":"no","fixme":"Please add name/ref.","highway":"primary","lanes":"2","lit":"yes","maxspeed":"50","noname":"yes","oneway":"yes","surface":"asphalt","id":"way/29180736"},"geometry":{"type":"LineString","coordinates":[[2.3947471,48.8933119],[2.3946754,48.8936021],[2.3945887,48.8937897]]},"id":"way/29180736"},{"type":"Feature","properties":{"@id":"way/30168413","cycleway:both":"no","highway":"primary","lanes":"4","lit":"yes","maxspeed":"50","name":"Boulevard Sérurier","name:etymology:wikidata":"Q376344","sidewalk:both":"separate","surface":"asphalt","id":"way/30168413"},"geometry":{"type":"LineString","coordinates":[[2.3941589,48.8952584],[2.3941807,48.895218],[2.3942742,48.8949724],[2.3943399,48.8947728],[2.3943766,48.8946355],[2.3944871,48.894205],[2.3945887,48.8937897]]},"id":"way/30168413"},{"type":"Feature","properties":{"@id":"way/977485974","bicycle:backward":"use_sidepath","highway":"primary","lanes":"2","lit":"yes","maxspeed":"50","name":"Boulevard Sérurier","name:etymology:wikidata":"Q376344","oneway":"yes","surface":"asphalt","id":"way/977485974"},"geometry":{"type":"LineString","coordinates":[[2.3945887,48.8937897],[2.3946071,48.8935575],[2.3948149,48.8926998],[2.3948171,48.8926908],[2.3948694,48.8925133]]},"id":"way/977485974"},{"type":"Feature","properties":{"@id":"way/1193579437","footway":"sidewalk","highway":"footway","lit":"yes","id":"way/1193579437"},"geometry":{"type":"LineString","coordinates":[[2.3942499,48.8953076],[2.3942905,48.8952281],[2.3944053,48.8949679],[2.3945488,48.8944772],[2.3948814,48.8930872],[2.3949525,48.8929206],[2.3950209,48.8928077],[2.3951523,48.8926455]]},"id":"way/1193579437"},{"type":"Feature","properties":{"@id":"node/10976650999","highway":"street_lamp","id":"node/10976650999"},"geometry":{"type":"Point","coordinates":[2.3953784,48.8936063]},"id":"node/10976650999"},{"type":"Feature","properties":{"@id":"node/10976651000","highway":"street_lamp","id":"node/10976651000"},"geometry":{"type":"Point","coordinates":[2.3953034,48.893892]},"id":"node/10976651000"},{"type":"Feature","properties":{"@id":"node/10976651001","highway":"street_lamp","id":"node/10976651001"},"geometry":{"type":"Point","coordinates":[2.3952268,48.8941744]},"id":"node/10976651001"},{"type":"Feature","properties":{"@id":"node/10976651002","highway":"street_lamp","id":"node/10976651002"},"geometry":{"type":"Point","coordinates":[2.3951471,48.8944549]},"id":"node/10976651002"},{"type":"Feature","properties":{"@id":"node/10976651809","highway":"street_lamp","id":"node/10976651809"},"geometry":{"type":"Point","coordinates":[2.394686,48.8944226]},"id":"node/10976651809"},{"type":"Feature","properties":{"@id":"node/10976651810","highway":"street_lamp","id":"node/10976651810"},"geometry":{"type":"Point","coordinates":[2.3947609,48.8941383]},"id":"node/10976651810"},{"type":"Feature","properties":{"@id":"node/10976651811","highway":"street_lamp","id":"node/10976651811"},"geometry":{"type":"Point","coordinates":[2.3948446,48.8938461]},"id":"node/10976651811"},{"type":"Feature","properties":{"@id":"node/11897857336","highway":"street_lamp","id":"node/11897857336"},"geometry":{"type":"Point","coordinates":[2.3945609,48.8942896]},"id":"node/11897857336"},{"type":"Feature","properties":{"@id":"node/11897857339","highway":"street_lamp","id":"node/11897857339"},"geometry":{"type":"Point","coordinates":[2.3946319,48.8939998]},"id":"node/11897857339"},{"type":"Feature","properties":{"@id":"node/11897857341","highway":"street_lamp","id":"node/11897857341"},"geometry":{"type":"Point","coordinates":[2.3947071,48.8937012]},"id":"node/11897857341"}]}