{"type":"FeatureCollection","features":[{"type":"Feature","properties":{"@id":"way/1197272902","building":"roof","layer":"1","id":"way/1197272902"},"geometry":{"type":"Polygon","coordinates":[[[2.386344,48.8942078],[2.3862948,48.894185],[2.3876573,48.8929094],[2.387715,48.8929364],[2.386344,48.8942078]]]},"id":"way/1197272902"},{"type":"Feature","properties":{"@id":"way/145513285","highway":"footway","lit":"yes","source":"GPS / BDOrtho IGN 2020","surface":"asphalt","id":"way/145513285"},"geometry":{"type":"LineString","coordinates":[[2.3867377,48.8943125],[2.3867212,48.8942755],[2.3867172,48.894228],[2.3867234,48.8941859],[2.3867402,48.8941434],[2.3867631,48.8941099],[2.3868012,48.8940736],[2.386842,48.8940451],[2.3869041,48.8940183],[2.38697,48.893997],[2.3870164,48.8939874],[2.3870356,48.893985],[2.3871044,48.8939839],[2.387166,48.893989],[2.387224,48.8939997],[2.3872775,48.8940163],[2.3873319,48.8940408],[2.3873777,48.894076],[2.3874188,48.8941177],[2.3874434,48.8941614],[2.3874565,48.8942201]]},"id":"way/145513285"},{"type":"Feature","properties":{"@id":"way/190701397","highway":"footway","layer":"-2","lit":"yes","surface":"asphalt","id":"way/190701397"},"geometry":{"type":"LineString","coordinates":[[2.3903627,48.8958196],[2.3898848,48.8955882],[2.3891726,48.8952433],[2.3884972,48.894906],[2.3883581,48.8948365],[2.3882166,48.8947658],[2.3880137,48.8946635],[2.3872552,48.8942732],[2.3872674,48.8942488],[2.3872714,48.8942224],[2.3872675,48.8941985],[2.3872526,48.8941701],[2.3872268,48.8941444],[2.3871758,48.8941172],[2.3871256,48.8941049],[2.3870576,48.894104],[2.3869992,48.8941169],[2.3869456,48.8941457],[2.3869115,48.8941863],[2.3869028,48.8942292],[2.386911,48.8942598],[2.386939,48.8942959],[2.385942,48.8951707]]},"id":"way/190701397"},{"type":"Feature","properties":{"@id":"way/191303629","highway":"footway","surface":"asphalt","id":"way/191303629"},"geometry":{"type":"LineString","coordinates":[[2.3868819,48.8942799],[2.386911,48.8942598]]},"id":"way/191303629"},{"type":"Feature","properties":{"@id":"way/191303631","highway":"footway","layer":"-1","surface":"asphalt","id":"way/191303631"},"geometry":{"type":"LineString","coordinates":[[2.3866939,48.8943546],[2.3867409,48.8943833],[2.3867914,48.8943547]]},"id":"way/191303631"},{"type":"Feature","properties":{"@id":"way/191303634","highway":"footway","lit":"yes","surface":"asphalt","id":"way/191303634"},"geometry":{"type":"LineString","coordinates":[[2.3872714,48.8942224],[2.3873011,48.8942375]]},"id":"way/191303634"},{"type":"Feature","properties":{"@id":"way/336800784","bicycle":"permissive","covered":"yes","highway":"footway","lit":"yes","name":"Galerie de la Villette","surface":"paving_stones","id":"way/336800784"},"geometry":{"type":"LineString","coordinates":[[2.3863195,48.894181],[2.3859592,48.8945196],[2.3850827,48.8953525],[2.3845286,48.89585]]},"id":"way/336800784"},{"type":"Feature","properties":{"@id":"way/399553103","highway":"footway","surface":"paving_stones","id":"way/399553103"},"geometry":{"type":"LineString","coordinates":[[2.3863195,48.894181],[2.3863952,48.8942051],[2.3864708,48.8942141],[2.38653,48.8941931],[2.3866009,48.8941556],[2.3866593,48.8941026],[2.3866843,48.8940688],[2.3867385,48.893982],[2.3867816,48.8939016],[2.3868566,48.8938193],[2.38694,48.8937526],[2.3870401,48.8937142],[2.3871565,48.8937329],[2.3875099,48.893578]]},"id":"way/399553103"},{"type":"Feature","properties":{"@id":"way/753939489","highway":"footway","lit":"no","surface":"paving_stones","id":"way/753939489"},"geometry":{"type":"LineString","coordinates":[[2.3871565,48.8937329],[2.3873726,48.8938398],[2.3875174,48.8939226],[2.3875891,48.893935],[2.3876381,48.8939319],[2.3876998,48.8939002],[2.3877514,48.8937833],[2.3877782,48.8936912],[2.3877896,48.8936652],[2.3878017,48.8936564],[2.3884772,48.8940252]]},"id":"way/753939489"},{"type":"Feature","properties":{"@id":"way/854343196","highway":"footway","lit":"yes","source":"GPS / BDOrtho IGN 2020","surface":"asphalt","id":"way/854343196"},"geometry":{"type":"LineString","coordinates":[[2.3853406,48.8954786],[2.3854724,48.8953626],[2.3856244,48.8952289],[2.3856633,48.8952461],[2.3861943,48.8947868],[2.3866939,48.8943546],[2.3867377,48.8943125]]},"id":"way/854343196"},{"type":"Feature","properties":{"@id":"way/854343198","highway":"footway","source":"GPS / BDOrtho IGN 2020","surface":"sett","id":"way/854343198"},"geometry":{"type":"LineString","coordinates":[[2.38694,48.8937526],[2.3870047,48.893864]]},"id":"way/854343198"},{"type":"Feature","properties":{"@id":"way/854343200","highway":"footway","lit":"yes","surface":"asphalt","id":"way/854343200"},"geometry":{"type":"LineString","coordinates":[[2.3874484,48.8942702],[2.3874272,48.8942967],[2.3874062,48.8942878]]},"id":"way/854343200"},{"type":"Feature","properties":{"@id":"way/1016074294","bicycle":"permissive","covered":"yes","highway":"footway","lit":"yes","name":"Galerie de la Villette","surface":"paving_stones","id":"way/1016074294"},"geometry":{"type":"LineString","coordinates":[[2.3876649,48.8929491],[2.387472,48.8931122],[2.38699,48.8935535],[2.386734,48.8938026],[2.3863195,48.894181]]},"id":"way/1016074294"},{"type":"Feature","properties":{"@id":"way/1167359470","highway":"footway","layer":"-1","lit":"no","source":"GPS / BDOrtho IGN 2020","surface":"asphalt","id":"way/1167359470"},"geometry":{"type":"LineString","coordinates":[[2.3867409,48.8943833],[2.3863075,48.8947537]]},"id":"way/1167359470"},{"type":"Feature","properties":{"@id":"way/1173374219","highway":"footway","lit":"yes","surface":"concrete:plates","id":"way/1173374219"},"geometry":{"type":"LineString","coordinates":[[2.3870333,48.893976],[2.3870356,48.893985],[2.3870386,48.8940011]]},"id":"way/1173374219"},{"type":"Feature","properties":{"@id":"way/1197274259","highway":"footway","surface":"asphalt","id":"way/1197274259"},"geometry":{"type":"LineString","coordinates":[[2.3878141,48.8929837],[2.3875717,48.8931948],[2.38694,48.8937526]]},"id":"way/1197274259"},{"type":"Feature","properties":{"@id":"way/1210091258","leaf_cycle":"deciduous","leaf_type":"broadleaved","natural":"tree_row","id":"way/1210091258"},"geometry":{"type":"LineString","coordinates":[[2.3866242,48.8942123],[2.3862293,48.894591]]},"id":"way/1210091258"},{"type":"Feature","properties":{"@id":"way/1210091261","handrail":"yes","highway":"footway","id":"way/1210091261"},"geometry":{"type":"LineString","coordinates":[[2.3868344,48.8943192],[2.3868445,48.8943108]]},"id":"way/1210091261"},{"type":"Feature","properties":{"@id":"way/1210091289","highway":"footway","lit":"yes","surface":"concrete:plates","id":"way/1210091289"},"geometry":{"type":"LineString","coordinates":[[2.3870189,48.8939196],[2.3870217,48.8939307]]},"id":"way/1210091289"},{"type":"Feature","properties":{"@id":"way/1210091290","highway":"footway","lit":"yes","surface":"concrete:plates","id":"way/1210091290"},"geometry":{"type":"LineString","coordinates":[[2.3870544,48.8940868],[2.3870576,48.894104]]},"id":"way/1210091290"},{"type":"Feature","properties":{"@id":"way/1210091292","highway":"footway","lit":"yes","surface":"concrete:plates","id":"way/1210091292"},"geometry":{"type":"LineString","coordinates":[[2.3870455,48.8940384],[2.3870473,48.8940483]]},"id":"way/1210091292"},{"type":"Feature","properties":{"@id":"way/1210091342","handrail":"yes","highway":"footway","incline":"up","lit":"yes","ramp":"no","step_count":"32","surface":"concrete:plates","id":"way/1210091342"},"geometry":{"type":"LineString","coordinates":[[2.3873456,48.8942588],[2.3873592,48.8942653]]},"id":"way/1210091342"},{"type":"Feature","properties":{"@id":"way/1251046778","bicycle":"yes","highway":"footway","lit":"yes","smoothness":"intermediate","surface":"paving_stones","id":"way/1251046778"},"geometry":{"type":"LineString","coordinates":[[2.386105,48.8941346],[2.3861394,48.894136],[2.3862112,48.8941369],[2.3862896,48.8941616],[2.3863195,48.894181]]},"id":"way/1251046778"},{"type":"Feature","properties":{"@id":"node/7176898288","amenity":"waste_basket","id":"node/7176898288"},"geometry":{"type":"Point","coordinates":[2.387034,48.8937968]},"id":"node/7176898288"}]}