{"type":"FeatureCollection","features":[{"type":"Feature","properties":{"@id":"way/58169109","building":"yes","name":"Folie Argonaute P4","id":"way/58169109"},"geometry":{"type":"Polygon","coordinates":[[[2.3895897,48.8945819],[2.3896908,48.8944988],[2.3897135,48.8945109],[2.3898202,48.8945673],[2.3897192,48.8946504],[2.3896202,48.8945981],[2.3895897,48.8945819]]]},"id":"way/58169109"},{"type":"Feature","properties":{"@id":"way/58169110","building":"yes","fee":"yes","historic":"ship","image":"https://photos.app.goo.gl/mHo4S6X8KysdwMMU6","layer":"1","museum":"maritime,_military,_technology","name":"Argonaute","opening_hours":"Tu-Su 10:00-18:00+","ref":"S636","ship:type":"submarine","source":"cadastre-dgi-fr source : Direction Générale des Impôts - Cadastre. Mise à jour : 2013","start_date":"1958","tourism":"museum","website":"https://www.cite-sciences.fr/fr/argonaute","wheelchair":"no","wikidata":"Q2638057","wikipedia":"fr:Argonaute (S636)","id":"way/58169110"},"geometry":{"type":"Polygon","coordinates":[[[2.3893627,48.8947174],[2.389361,48.8947165],[2.3893663,48.8947036],[2.3894157,48.8946357],[2.389478,48.8945659],[2.3895204,48.8945256],[2.389593,48.8944662],[2.3896399,48.8944335],[2.3897481,48.8943583],[2.3897642,48.8943518],[2.3897677,48.8943536],[2.3897637,48.8943659],[2.3896674,48.8944879],[2.3896038,48.8945549],[2.3895494,48.8946013],[2.3894858,48.8946446],[2.3893798,48.8947102],[2.3893627,48.8947174]]]},"id":"way/58169110"},{"type":"Feature","properties":{"@id":"way/22690172","highway":"footway","name":"Allée du Cercle","surface":"sett","id":"way/22690172"},"geometry":{"type":"LineString","coordinates":[[2.3913245,48.8945647],[2.3912067,48.8946341],[2.3910813,48.8946953],[2.3908963,48.8947664],[2.3908343,48.8947859],[2.3905688,48.8948482],[2.3903628,48.8948754],[2.3903269,48.8948784],[2.3900934,48.8948855]]},"id":"way/22690172"},{"type":"Feature","properties":{"@id":"way/58162128","bridge":"yes","highway":"footway","layer":"2","surface":"paving_stones","id":"way/58162128"},"geometry":{"type":"LineString","coordinates":[[2.3892777,48.8945281],[2.3888749,48.8948818],[2.3886929,48.895027],[2.3884047,48.8952786]]},"id":"way/58162128"},{"type":"Feature","properties":{"@id":"way/58162143","highway":"footway","source":"GPS + CG93-Aerodata2013","surface":"paving_stones","id":"way/58162143"},"geometry":{"type":"LineString","coordinates":[[2.3885363,48.8933814],[2.3887004,48.8934655],[2.3887697,48.8936247],[2.3889344,48.8936316],[2.388935,48.8937411],[2.3890934,48.8937384],[2.3890023,48.8939963],[2.389146,48.8941347],[2.3892427,48.8942036],[2.3893077,48.894227],[2.3895253,48.8942728],[2.3895733,48.8942813],[2.3896709,48.8942978],[2.3898892,48.8943239],[2.3900392,48.89438],[2.3901918,48.894442],[2.3902998,48.8945029],[2.3903059,48.8945578],[2.3902805,48.8945962],[2.3901261,48.8946115],[2.3900369,48.8946233],[2.3900061,48.894638],[2.3900036,48.8946667],[2.3900336,48.8947119],[2.3901347,48.8947811],[2.3903628,48.8948754],[2.390612,48.8949453],[2.3908029,48.8950013],[2.390848,48.8950288],[2.3908475,48.8950391],[2.3908469,48.895051],[2.3908176,48.8950665],[2.3907614,48.8950694],[2.3907232,48.8950768]]},"id":"way/58162143"},{"type":"Feature","properties":{"@id":"way/190701397","highway":"footway","layer":"-2","lit":"yes","surface":"asphalt","id":"way/190701397"},"geometry":{"type":"LineString","coordinates":[[2.3903627,48.8958196],[2.3898848,48.8955882],[2.3891726,48.8952433],[2.3884972,48.894906],[2.3883581,48.8948365],[2.3882166,48.8947658],[2.3880137,48.8946635],[2.3872552,48.8942732],[2.3872674,48.8942488],[2.3872714,48.8942224],[2.3872675,48.8941985],[2.3872526,48.8941701],[2.3872268,48.8941444],[2.3871758,48.8941172],[2.3871256,48.8941049],[2.3870576,48.894104],[2.3869992,48.8941169],[2.3869456,48.8941457],[2.3869115,48.8941863],[2.3869028,48.8942292],[2.386911,48.8942598],[2.386939,48.8942959],[2.385942,48.8951707]]},"id":"way/190701397"},{"type":"Feature","properties":{"@id":"way/245795917","leaf_type":"broadleaved","natural":"tree_row","id":"way/245795917"},"geometry":{"type":"LineString","coordinates":[[2.3897149,48.8942696],[2.3900639,48.8943274],[2.3902504,48.8944158],[2.390349,48.8944999],[2.3904076,48.8946102],[2.3904023,48.8946663]]},"id":"way/245795917"},{"type":"Feature","properties":{"@id":"way/245795926","leaf_type":"broadleaved","natural":"tree_row","id":"way/245795926"},"geometry":{"type":"LineString","coordinates":[[2.390329,48.8946243],[2.3901252,48.8946654],[2.3900986,48.8946952],[2.3901212,48.8947215],[2.3903277,48.8948222],[2.3905155,48.8948213],[2.3909245,48.8947302],[2.3912083,48.8945813]]},"id":"way/245795926"},{"type":"Feature","properties":{"@id":"way/271358935","highway":"footway","source":"Bing","surface":"paving_stones","id":"way/271358935"},"geometry":{"type":"LineString","coordinates":[[2.3892777,48.8945281],[2.3892952,48.89452],[2.3892569,48.8945001],[2.3890557,48.8944017],[2.3888129,48.8942832],[2.3885736,48.8941612],[2.3885613,48.8941708]]},"id":"way/271358935"},{"type":"Feature","properties":{"@id":"way/1210091125","highway":"footway","surface":"paving_stones","id":"way/1210091125"},"geometry":{"type":"LineString","coordinates":[[2.3899004,48.8949673],[2.3898821,48.8949851]]},"id":"way/1210091125"},{"type":"Feature","properties":{"@id":"way/1210091126","highway":"footway","surface":"paving_stones","id":"way/1210091126"},"geometry":{"type":"LineString","coordinates":[[2.3897385,48.8949912],[2.3897513,48.8949972]]},"id":"way/1210091126"},{"type":"Feature","properties":{"@id":"way/1210091131","highway":"footway","surface":"paving_stones","id":"way/1210091131"},"geometry":{"type":"LineString","coordinates":[[2.389062,48.8949126],[2.3891595,48.8948219],[2.3893059,48.8946858]]},"id":"way/1210091131"},{"type":"Feature","properties":{"@id":"way/1210091132","highway":"footway","surface":"paving_stones","id":"way/1210091132"},"geometry":{"type":"LineString","coordinates":[[2.3898159,48.8949243],[2.3897385,48.8949912],[2.3896606,48.8950585],[2.3895791,48.895129],[2.3894974,48.8951996]]},"id":"way/1210091132"},{"type":"Feature","properties":{"@id":"way/1210091155","highway":"footway","surface":"paving_stones","id":"way/1210091155"},"geometry":{"type":"LineString","coordinates":[[2.3895807,48.8952492],[2.3894974,48.8951996],[2.3894241,48.8951559],[2.3894033,48.8951447],[2.3893544,48.8951207],[2.3893698,48.8951059],[2.3893436,48.8950916],[2.3893051,48.895073],[2.3892478,48.8950656],[2.3892263,48.8950552],[2.3891462,48.8950173],[2.3890362,48.8949617],[2.389062,48.8949126],[2.3890171,48.8948365],[2.3890638,48.8947856]]},"id":"way/1210091155"},{"type":"Feature","properties":{"@id":"way/1210091179","highway":"footway","surface":"paving_stones","id":"way/1210091179"},"geometry":{"type":"LineString","coordinates":[[2.389453,48.8945771],[2.3895402,48.894497],[2.3895597,48.8944791]]},"id":"way/1210091179"},{"type":"Feature","properties":{"@id":"way/1210091180","bridge":"yes","highway":"footway","oneway":"yes","surface":"metal","id":"way/1210091180"},"geometry":{"type":"LineString","coordinates":[[2.389453,48.8945771],[2.3893972,48.8946262],[2.3894157,48.8946357]]},"id":"way/1210091180"},{"type":"Feature","properties":{"@id":"way/1210091278","highway":"footway","surface":"paving_stones","id":"way/1210091278"},"geometry":{"type":"LineString","coordinates":[[2.3895564,48.8947958],[2.3895355,48.8947856]]},"id":"way/1210091278"},{"type":"Feature","properties":{"@id":"way/1210091279","highway":"footway","surface":"paving_stones","id":"way/1210091279"},"geometry":{"type":"LineString","coordinates":[[2.3897151,48.8948733],[2.3895564,48.8947958]]},"id":"way/1210091279"},{"type":"Feature","properties":{"@id":"way/1210091280","highway":"footway","surface":"paving_stones","id":"way/1210091280"},"geometry":{"type":"LineString","coordinates":[[2.3897359,48.8948835],[2.3897151,48.8948733]]},"id":"way/1210091280"},{"type":"Feature","properties":{"@id":"way/1210091281","highway":"footway","surface":"paving_stones","id":"way/1210091281"},"geometry":{"type":"LineString","coordinates":[[2.390765,48.8954061],[2.3904454,48.8952399],[2.3904246,48.8952303],[2.3903428,48.8951883],[2.3902697,48.8951489],[2.3902482,48.8951387],[2.390089,48.8950627],[2.3900675,48.8950525],[2.3899832,48.8950096],[2.3899004,48.8949673],[2.3898159,48.8949243],[2.3897359,48.8948835]]},"id":"way/1210091281"},{"type":"Feature","properties":{"@id":"way/1210091298","highway":"footway","surface":"paving_stones","id":"way/1210091298"},"geometry":{"type":"LineString","coordinates":[[2.389522,48.8944532],[2.3895381,48.8944406],[2.3895662,48.8944528],[2.3895244,48.8944889],[2.3895402,48.894497]]},"id":"way/1210091298"},{"type":"Feature","properties":{"@id":"way/1210091299","bridge":"yes","highway":"footway","lit":"no","surface":"metal","id":"way/1210091299"},"geometry":{"type":"LineString","coordinates":[[2.3894322,48.8945067],[2.3894466,48.8945145],[2.3894513,48.8945103]]},"id":"way/1210091299"},{"type":"Feature","properties":{"@id":"way/1210091305","highway":"footway","surface":"paving_stones","id":"way/1210091305"},"geometry":{"type":"LineString","coordinates":[[2.3891644,48.8944884],[2.3891449,48.8944781]]},"id":"way/1210091305"},{"type":"Feature","properties":{"@id":"way/1210091307","highway":"footway","surface":"asphalt","id":"way/1210091307"},"geometry":{"type":"LineString","coordinates":[[2.3892053,48.8945124],[2.3892,48.8945072]]},"id":"way/1210091307"},{"type":"Feature","properties":{"@id":"way/1210091318","highway":"footway","surface":"paving_stones","id":"way/1210091318"},"geometry":{"type":"LineString","coordinates":[[2.3891404,48.8947991],[2.3891321,48.8947944]]},"id":"way/1210091318"},{"type":"Feature","properties":{"@id":"way/1210091319","highway":"footway","surface":"asphalt","id":"way/1210091319"},"geometry":{"type":"LineString","coordinates":[[2.3891185,48.8947611],[2.3891012,48.8947524]]},"id":"way/1210091319"},{"type":"Feature","properties":{"@id":"way/1210091322","highway":"footway","surface":"paving_stones","id":"way/1210091322"},"geometry":{"type":"LineString","coordinates":[[2.3895355,48.8947856],[2.3893059,48.8946858],[2.3892206,48.8946487],[2.3891012,48.8947524],[2.3890638,48.8947856],[2.3890806,48.8947941]]},"id":"way/1210091322"},{"type":"Feature","properties":{"@id":"way/1210091323","highway":"footway","surface":"paving_stones","id":"way/1210091323"},"geometry":{"type":"LineString","coordinates":[[2.3891114,48.8948096],[2.3891219,48.8948149],[2.3891404,48.8947991],[2.3891602,48.8947822],[2.3891523,48.8947782]]},"id":"way/1210091323"},{"type":"Feature","properties":{"@id":"way/1210136514","highway":"footway","surface":"paving_stones","id":"way/1210136514"},"geometry":{"type":"LineString","coordinates":[[2.389413,48.8949353],[2.3895492,48.895003]]},"id":"way/1210136514"},{"type":"Feature","properties":{"@id":"way/1210136515","bridge":"yes","highway":"footway","material":"concrete","surface":"paving_stones","id":"way/1210136515"},"geometry":{"type":"LineString","coordinates":[[2.3893698,48.8949152],[2.389413,48.8949353]]},"id":"way/1210136515"},{"type":"Feature","properties":{"@id":"way/1210136516","highway":"footway","surface":"paving_stones","id":"way/1210136516"},"geometry":{"type":"LineString","coordinates":[[2.3891595,48.8948219],[2.3893698,48.8949152]]},"id":"way/1210136516"},{"type":"Feature","properties":{"@id":"way/1315793549","highway":"footway","surface":"paving_stones","id":"way/1315793549"},"geometry":{"type":"LineString","coordinates":[[2.3892952,48.89452],[2.3893573,48.8944678],[2.3895733,48.8942813]]},"id":"way/1315793549"},{"type":"Feature","properties":{"@id":"way/1315793550","highway":"footway","surface":"paving_stones","id":"way/1315793550"},"geometry":{"type":"LineString","coordinates":[[2.3893573,48.8944678],[2.3894322,48.8945067]]},"id":"way/1315793550"},{"type":"Feature","properties":{"@id":"node/2529194367","leaf_cycle":"deciduous","leaf_type":"broadleaved","natural":"tree","id":"node/2529194367"},"geometry":{"type":"Point","coordinates":[2.3894564,48.8947938]},"id":"node/2529194367"},{"type":"Feature","properties":{"@id":"node/2529194375","leaf_cycle":"deciduous","leaf_type":"broadleaved","natural":"tree","id":"node/2529194375"},"geometry":{"type":"Point","coordinates":[2.3895655,48.89485]},"id":"node/2529194375"},{"type":"Feature","properties":{"@id":"node/2529194380","leaf_cycle":"deciduous","leaf_type":"broadleaved","natural":"tree","id":"node/2529194380"},"geometry":{"type":"Point","coordinates":[2.3896355,48.8948799]},"id":"node/2529194380"},{"type":"Feature","properties":{"@id":"node/2529194384","leaf_cycle":"deciduous","leaf_type":"broadleaved","natural":"tree","id":"node/2529194384"},"geometry":{"type":"Point","coordinates":[2.3893769,48.8948629]},"id":"node/2529194384"},{"type":"Feature","properties":{"@id":"node/2529194385","leaf_cycle":"deciduous","leaf_type":"broadleaved","natural":"tree","id":"node/2529194385"},"geometry":{"type":"Point","coordinates":[2.3897437,48.8949318]},"id":"node/2529194385"},{"type":"Feature","properties":{"@id":"node/2529194409","leaf_cycle":"deciduous","leaf_type":"broadleaved","natural":"tree","id":"node/2529194409"},"geometry":{"type":"Point","coordinates":[2.3894142,48.894978]},"id":"node/2529194409"},{"type":"Feature","properties":{"@id":"node/11210573040","amenity":"bench","backrest":"no","id":"node/11210573040"},"geometry":{"type":"Point","coordinates":[2.3891388,48.8945553]},"id":"node/11210573040"},{"type":"Feature","properties":{"@id":"node/11210573041","amenity":"bench","backrest":"no","id":"node/11210573041"},"geometry":{"type":"Point","coordinates":[2.3890697,48.8946148]},"id":"node/11210573041"},{"type":"Feature","properties":{"@id":"node/11210573064","amenity":"bench","backrest":"no","id":"node/11210573064"},"geometry":{"type":"Point","coordinates":[2.3894902,48.8947841]},"id":"node/11210573064"},{"type":"Feature","properties":{"@id":"node/11210573065","amenity":"bench","backrest":"no","id":"node/11210573065"},"geometry":{"type":"Point","coordinates":[2.38957,48.8948242]},"id":"node/11210573065"},{"type":"Feature","properties":{"@id":"node/11210573066","leaf_cycle":"deciduous","leaf_type":"broadleaved","natural":"tree","id":"node/11210573066"},"geometry":{"type":"Point","coordinates":[2.3895503,48.8949522]},"id":"node/11210573066"},{"type":"Feature","properties":{"@id":"node/11210573068","leaf_cycle":"deciduous","leaf_type":"broadleaved","natural":"tree","id":"node/11210573068"},"geometry":{"type":"Point","coordinates":[2.3894841,48.8949188]},"id":"node/11210573068"},{"type":"Feature","properties":{"@id":"node/11210916148","leaf_cycle":"deciduous","leaf_type":"broadleaved","natural":"tree","id":"node/11210916148"},"geometry":{"type":"Point","coordinates":[2.3901942,48.8949247]},"id":"node/11210916148"},{"type":"Feature","properties":{"@id":"node/11210916150","leaf_cycle":"deciduous","leaf_type":"broadleaved","natural":"tree","id":"node/11210916150"},"geometry":{"type":"Point","coordinates":[2.3903009,48.894926]},"id":"node/11210916150"}]}