{"type":"FeatureCollection","features":[{"type":"Feature","properties":{"@id":"way/64040790","addr:city":"Paris","addr:housenumber":"26","addr:postcode":"75019","addr:street":"Corentin Cariou","amenity":"cinema","architect":"Adrien Fainsilber;Gérard Chamayou","branch":"Pathé","brand":"Pathé Gaumont","brand:website":"https://www.pathe.fr/","brand:wikidata":"Q3060526","brand:wikipedia":"fr:Pathé Cinémas","building":"yes","building:levels":"4","building:material":"metal","building:min_level":"0","capacity":"400","capacity:wheelchair":"4","cinema:3D":"yes","cinema:IMAX":"yes","contact:email":"contact@lageode.fr","drive_in":"no","height":"36","image":"https://photos.app.goo.gl/4wrVuNfvqsHFZtNX6","internet_access":"wlan","language:en":"yes","language:es":"yes","min_age":"3","name":"La Géode","name:be":"Жэод","name:es":"la Geoda","name:fr":"La Géode","name:it":"Geoide","name:ja":"ラ・ジェオード","name:ru":"Жеод","name:uk":"Жеод","opening_hours":"Mo-Su 09:00-22:00","operator":"Pathé","phone":"+33140057999","pregnant":"not_recommended","ref:FR:CNC":"4571","ref:structurae":"20006043","roof:height":"18","roof:material":"mirror","roof:shape":"dome","screen":"1","website":"https://www.pathe.fr/cinemas/cinema-la-geode","wheelchair":"yes","wikidata":"Q2280550","wikipedia":"fr:La Géode","id":"way/64040790"},"geometry":{"type":"Polygon","coordinates":[[[2.388893,48.8946296],[2.3888795,48.8946486],[2.3888624,48.8946664],[2.388842,48.8946825],[2.3888188,48.8946969],[2.388793,48.8947093],[2.388765,48.8947194],[2.3887353,48.8947272],[2.3887044,48.8947324],[2.3886727,48.8947351],[2.3886408,48.8947351],[2.3886091,48.8947325],[2.3885781,48.8947273],[2.3885484,48.8947196],[2.3885204,48.8947095],[2.3884946,48.8946971],[2.3884713,48.8946828],[2.3884509,48.8946666],[2.3884337,48.8946489],[2.3884201,48.8946299],[2.3884102,48.8946099],[2.3884042,48.8945893],[2.3884022,48.8945684],[2.3884041,48.8945474],[2.3884101,48.8945268],[2.3884199,48.8945068],[2.3884335,48.8944878],[2.3884506,48.8944701],[2.3884709,48.8944539],[2.3884942,48.8944395],[2.38852,48.8944271],[2.388548,48.894417],[2.3885776,48.8944092],[2.3886086,48.894404],[2.3886403,48.8944013],[2.3886722,48.8944013],[2.3887039,48.8944039],[2.3887348,48.8944091],[2.3887645,48.8944168],[2.3887925,48.8944269],[2.3888184,48.8944393],[2.3888417,48.8944536],[2.3888621,48.8944698],[2.3888792,48.8944875],[2.3888928,48.8945065],[2.3889027,48.8945265],[2.3889088,48.8945471],[2.3889108,48.894568],[2.3889088,48.894589],[2.3889029,48.8946096],[2.388893,48.8946296]]]},"id":"way/64040790"},{"type":"Feature","properties":{"@id":"way/1197272909","building":"yes","building:levels":"5","building:material":"concrete","image":"https://photos.app.goo.gl/brz8BJDqCr9h9pm7A","material":"concrete","id":"way/1197272909"},"geometry":{"type":"Polygon","coordinates":[[[2.3880517,48.8945304],[2.3880119,48.8945109],[2.3880941,48.8944383],[2.3881339,48.8944577],[2.3880966,48.8944907],[2.3880517,48.8945304]]]},"id":"way/1197272909"},{"type":"Feature","properties":{"@id":"way/1197272910","building":"yes","image":"https://photos.app.goo.gl/VhLie69gdK6Crxtc9","id":"way/1197272910"},"geometry":{"type":"Polygon","coordinates":[[[2.388944,48.8949743],[2.3889042,48.8949548],[2.3889864,48.8948822],[2.3890262,48.8949016],[2.388944,48.8949743]]]},"id":"way/1197272910"},{"type":"Feature","properties":{"@id":"way/23162113","bridge":"yes","highway":"footway","image":"https://photos.app.goo.gl/GikoE4CvNFzEzTBD7","layer":"1","surface":"paving_stones","id":"way/23162113"},"geometry":{"type":"LineString","coordinates":[[2.3880301,48.8951293],[2.3883456,48.8948561],[2.3884298,48.8947831]]},"id":"way/23162113"},{"type":"Feature","properties":{"@id":"way/58162121","highway":"footway","surface":"asphalt","id":"way/58162121"},"geometry":{"type":"LineString","coordinates":[[2.388114,48.8946278],[2.3881014,48.8946377],[2.3881282,48.8946507]]},"id":"way/58162121"},{"type":"Feature","properties":{"@id":"way/58162128","bridge":"yes","highway":"footway","layer":"2","surface":"paving_stones","id":"way/58162128"},"geometry":{"type":"LineString","coordinates":[[2.3892777,48.8945281],[2.3888749,48.8948818],[2.3886929,48.895027],[2.3884047,48.8952786]]},"id":"way/58162128"},{"type":"Feature","properties":{"@id":"way/58162140","covered":"yes","highway":"footway","indoor":"yes","id":"way/58162140"},"geometry":{"type":"LineString","coordinates":[[2.3884047,48.8952786],[2.3882679,48.8954017],[2.387914,48.8952208],[2.3875675,48.8950513],[2.3877085,48.8949297]]},"id":"way/58162140"},{"type":"Feature","properties":{"@id":"way/190701397","highway":"footway","layer":"-2","lit":"yes","surface":"asphalt","id":"way/190701397"},"geometry":{"type":"LineString","coordinates":[[2.3903627,48.8958196],[2.3898848,48.8955882],[2.3891726,48.8952433],[2.3884972,48.894906],[2.3883581,48.8948365],[2.3882166,48.8947658],[2.3880137,48.8946635],[2.3872552,48.8942732],[2.3872674,48.8942488],[2.3872714,48.8942224],[2.3872675,48.8941985],[2.3872526,48.8941701],[2.3872268,48.8941444],[2.3871758,48.8941172],[2.3871256,48.8941049],[2.3870576,48.894104],[2.3869992,48.8941169],[2.3869456,48.8941457],[2.3869115,48.8941863],[2.3869028,48.8942292],[2.386911,48.8942598],[2.386939,48.8942959],[2.385942,48.8951707]]},"id":"way/190701397"},{"type":"Feature","properties":{"@id":"way/191303635","highway":"footway","surface":"paving_stones","id":"way/191303635"},"geometry":{"type":"LineString","coordinates":[[2.3882166,48.8947658],[2.3882587,48.8947293],[2.3882376,48.8947086]]},"id":"way/191303635"},{"type":"Feature","properties":{"@id":"way/251641320","bridge":"yes","highway":"footway","layer":"2","surface":"paving_stones","id":"way/251641320"},"geometry":{"type":"LineString","coordinates":[[2.3885613,48.8941708],[2.3881687,48.8945238],[2.3879838,48.894677],[2.3877085,48.8949297]]},"id":"way/251641320"},{"type":"Feature","properties":{"@id":"way/271358923","bridge":"yes","highway":"footway","layer":"1","id":"way/271358923"},"geometry":{"type":"LineString","coordinates":[[2.3888749,48.8948818],[2.3889433,48.894914]]},"id":"way/271358923"},{"type":"Feature","properties":{"@id":"way/271358924","highway":"footway","surface":"asphalt","id":"way/271358924"},"geometry":{"type":"LineString","coordinates":[[2.3887123,48.8949411],[2.3887275,48.8949353]]},"id":"way/271358924"},{"type":"Feature","properties":{"@id":"way/271358928","highway":"footway","id":"way/271358928"},"geometry":{"type":"LineString","coordinates":[[2.3884585,48.8947586],[2.3884298,48.8947831]]},"id":"way/271358928"},{"type":"Feature","properties":{"@id":"way/271358929","highway":"footway","surface":"paving_stones","id":"way/271358929"},"geometry":{"type":"LineString","coordinates":[[2.3889681,48.8948912],[2.3888978,48.8948582]]},"id":"way/271358929"},{"type":"Feature","properties":{"@id":"way/271358931","highway":"footway","surface":"paving_stones","id":"way/271358931"},"geometry":{"type":"LineString","coordinates":[[2.3884972,48.894906],[2.3885487,48.8948619],[2.3885817,48.8948795]]},"id":"way/271358931"},{"type":"Feature","properties":{"@id":"way/1210091093","highway":"footway","surface":"paving_stones","id":"way/1210091093"},"geometry":{"type":"LineString","coordinates":[[2.3883581,48.8948365],[2.3880042,48.895135],[2.3878701,48.8950684]]},"id":"way/1210091093"},{"type":"Feature","properties":{"@id":"way/1210091155","highway":"footway","surface":"paving_stones","id":"way/1210091155"},"geometry":{"type":"LineString","coordinates":[[2.3895807,48.8952492],[2.3894974,48.8951996],[2.3894241,48.8951559],[2.3894033,48.8951447],[2.3893544,48.8951207],[2.3893698,48.8951059],[2.3893436,48.8950916],[2.3893051,48.895073],[2.3892478,48.8950656],[2.3892263,48.8950552],[2.3891462,48.8950173],[2.3890362,48.8949617],[2.389062,48.8949126],[2.3890171,48.8948365],[2.3890638,48.8947856]]},"id":"way/1210091155"},{"type":"Feature","properties":{"@id":"way/1210091187","highway":"footway","surface":"paving_stones","id":"way/1210091187"},"geometry":{"type":"LineString","coordinates":[[2.3880137,48.8946635],[2.3877085,48.8949297]]},"id":"way/1210091187"},{"type":"Feature","properties":{"@id":"way/1210091287","bridge":"yes","highway":"footway","layer":"2","surface":"paving_stones","id":"way/1210091287"},"geometry":{"type":"LineString","coordinates":[[2.3881687,48.8945238],[2.3880966,48.8944907]]},"id":"way/1210091287"},{"type":"Feature","properties":{"@id":"way/1210091296","bridge":"yes","highway":"footway","surface":"paving_stones","id":"way/1210091296"},"geometry":{"type":"LineString","coordinates":[[2.3880966,48.8944907],[2.3880857,48.8944861],[2.3880632,48.8944755],[2.3880723,48.8944675]]},"id":"way/1210091296"},{"type":"Feature","properties":{"@id":"way/1210091301","highway":"footway","surface":"paving_stones","id":"way/1210091301"},"geometry":{"type":"LineString","coordinates":[[2.3881959,48.8946863],[2.3881776,48.8946767]]},"id":"way/1210091301"},{"type":"Feature","properties":{"@id":"way/1210091338","highway":"footway","incline":"up","surface":"paving_stones","id":"way/1210091338"},"geometry":{"type":"LineString","coordinates":[[2.3886423,48.8949072],[2.388653,48.8949124]]},"id":"way/1210091338"},{"type":"Feature","properties":{"@id":"node/11210573023","amenity":"bench","backrest":"no","id":"node/11210573023"},"geometry":{"type":"Point","coordinates":[2.3882915,48.8945204]},"id":"node/11210573023"},{"type":"Feature","properties":{"@id":"node/11210573042","amenity":"bench","backrest":"no","id":"node/11210573042"},"geometry":{"type":"Point","coordinates":[2.3889986,48.8946783]},"id":"node/11210573042"},{"type":"Feature","properties":{"@id":"node/11210573043","amenity":"bench","backrest":"no","id":"node/11210573043"},"geometry":{"type":"Point","coordinates":[2.3888558,48.8948021]},"id":"node/11210573043"},{"type":"Feature","properties":{"@id":"node/11210573044","amenity":"bench","backrest":"no","id":"node/11210573044"},"geometry":{"type":"Point","coordinates":[2.3889256,48.8947395]},"id":"node/11210573044"}]}