{"type":"FeatureCollection","features":[{"type":"Feature","properties":{"@id":"way/63971196","building":"government","building:levels":"2","roof:levels":"0","source":"cadastre-dgi-fr source : Direction Générale des Impôts - Cadastre. Mise à jour : 2010","id":"way/63971196"},"geometry":{"type":"Polygon","coordinates":[[[2.3712999,48.8837195],[2.3714137,48.8837762],[2.3715314,48.8838348],[2.3714696,48.8838898],[2.3712387,48.8837755],[2.3712999,48.8837195]]]},"id":"way/63971196"},{"type":"Feature","properties":{"@id":"way/63971317","building":"apartments","building:levels":"7","source":"cadastre-dgi-fr source : Direction Générale des Impôts - Cadastre. Mise à jour : 2010","id":"way/63971317"},"geometry":{"type":"Polygon","coordinates":[[[2.3724803,48.883736],[2.3724394,48.8838037],[2.3724379,48.8838061],[2.3723796,48.8837843],[2.372392,48.8837632],[2.3723742,48.8837585],[2.3723692,48.8837676],[2.3723539,48.8837636],[2.372359,48.8837546],[2.3723354,48.8837482],[2.3723266,48.8837646],[2.3721829,48.8837085],[2.3722141,48.8836616],[2.3724826,48.8837324],[2.3724806,48.8837354],[2.3724803,48.883736]]]},"id":"way/63971317"},{"type":"Feature","properties":{"@id":"way/63971335","building":"yes","check_date":"2025-01-14","name":"16-18 Quai de la Loire","office":"company","source":"cadastre-dgi-fr source : Direction Générale des Impôts - Cadastre. Mise à jour : 2010","id":"way/63971335"},"geometry":{"type":"Polygon","coordinates":[[[2.3724825,48.8840669],[2.3724526,48.8840521],[2.3724354,48.8840678],[2.3724195,48.8840822],[2.3724052,48.8840953],[2.3719826,48.8838856],[2.3720392,48.8838356],[2.3720464,48.883839],[2.3721047,48.8837897],[2.3721201,48.883797],[2.3721065,48.8838089],[2.3721332,48.8838221],[2.3721862,48.8837765],[2.3724968,48.8839315],[2.3725455,48.8838885],[2.3726179,48.8839418],[2.372621,48.8839442],[2.3724825,48.8840669]]]},"id":"way/63971335"},{"type":"Feature","properties":{"@id":"way/63971384","addr:housenumber":"7","addr:street":"Quai de la Loire","amenity":"cinema","brand":"MK2","brand:website":"https://www.mk2.com","brand:wikidata":"Q19814222","brand:wikipedia":"fr:MK2","building":"retail","building:levels":"3","capacity":"1108","check_date":"2025-01-29","contact:facebook":"https://www.facebook.com/mk2quaideloire","name":"MK2 Quai de Loire","ref:FR:CNC":"9900","screen":"6","source":"cadastre-dgi-fr source : Direction Générale des Impôts - Cadastre. Mise à jour : 2010","website":"https://www.mk2.com/salle/mk2-quai-seine-quai-loire","wikidata":"Q3273032","wikipedia":"fr:MK2 Quai de Loire / Quai de Seine","id":"way/63971384"},"geometry":{"type":"Polygon","coordinates":[[[2.3727518,48.8844037],[2.372727,48.8844246],[2.3726444,48.8844941],[2.3720951,48.8842189],[2.3716134,48.8839776],[2.3717068,48.8838907],[2.3717033,48.8838891],[2.3717092,48.8838839],[2.3727518,48.8844037]]]},"id":"way/63971384"},{"type":"Feature","properties":{"@id":"way/63971465","building":"yes","source":"cadastre-dgi-fr source : Direction Générale des Impôts - Cadastre. Mise à jour : 2010","id":"way/63971465"},"geometry":{"type":"Polygon","coordinates":[[[2.3726516,48.8839772],[2.3726674,48.8839855],[2.372524,48.8840886],[2.3724825,48.8840669],[2.372621,48.8839442],[2.3726179,48.8839418],[2.3727149,48.8838866],[2.3727563,48.8839115],[2.3726516,48.8839772]]]},"id":"way/63971465"},{"type":"Feature","properties":{"@id":"way/63971584","building":"yes","building:levels":"1","source":"cadastre-dgi-fr source : Direction Générale des Impôts - Cadastre. Mise à jour : 2010","id":"way/63971584"},"geometry":{"type":"Polygon","coordinates":[[[2.3725437,48.883862],[2.3725269,48.8838749],[2.3724158,48.8838465],[2.3724229,48.8838327],[2.3725437,48.883862]]]},"id":"way/63971584"},{"type":"Feature","properties":{"@id":"way/63971671","building":"apartments","building:levels":"4","source":"cadastre-dgi-fr source : Direction Générale des Impôts - Cadastre. Mise à jour : 2010","id":"way/63971671"},"geometry":{"type":"Polygon","coordinates":[[[2.3725802,48.8838385],[2.3724394,48.8838037],[2.3724803,48.883736],[2.3724806,48.8837354],[2.3726211,48.8837682],[2.3725802,48.8838385]]]},"id":"way/63971671"},{"type":"Feature","properties":{"@id":"way/131413846","CEMT":"I","boat":"yes","name":"Bassin de la Villette","waterway":"canal","wikidata":"Q810526","id":"way/131413846"},"geometry":{"type":"LineString","coordinates":[[2.3794518,48.8883922],[2.3716152,48.884489],[2.3710595,48.8838398]]},"id":"way/131413846"},{"type":"Feature","properties":{"@id":"way/511789008","footway":"sidewalk","highway":"footway","lit":"yes","name":"Promenade Jean Vigo","name:etymology:wikidata":"Q55395","smoothness":"good","surface":"paving_stones","id":"way/511789008"},"geometry":{"type":"LineString","coordinates":[[2.3752152,48.885864],[2.374321,48.8854055],[2.3738821,48.8851999],[2.3727791,48.8846462],[2.3721128,48.8843117],[2.3713012,48.8839054],[2.3711053,48.8837073],[2.3709589,48.8835415],[2.3709851,48.883502],[2.3706706,48.8831316],[2.3705886,48.8830398],[2.3705248,48.8830243]]},"id":"way/511789008"},{"type":"Feature","properties":{"@id":"way/538547912","bicycle:backward":"use_sidepath","cycleway:both":"separate","highway":"residential","lit":"yes","maxspeed":"30","name":"Quai de la Loire","name:etymology:wikidata":"Q1469","oneway":"yes","parking:left":"lane","parking:left:orientation":"parallel","parking:right":"no","sidewalk:both":"separate","smoothness":"intermediate","surface":"sett","id":"way/538547912"},"geometry":{"type":"LineString","coordinates":[[2.3755687,48.8857408],[2.3754368,48.8856753],[2.3741846,48.8850539],[2.3741067,48.8850152],[2.3736498,48.8847864],[2.3733937,48.8846592],[2.3728752,48.8844016],[2.372441,48.8841853],[2.3711395,48.8835368],[2.3707764,48.8831209],[2.3707597,48.8831018],[2.3706762,48.8829946],[2.3706644,48.8829771],[2.3706225,48.8829209]]},"id":"way/538547912"},{"type":"Feature","properties":{"@id":"way/1186694186","highway":"footway","lit":"yes","surface":"metal","id":"way/1186694186"},"geometry":{"type":"LineString","coordinates":[[2.3721128,48.8843117],[2.3720901,48.8843315],[2.372068,48.8843515]]},"id":"way/1186694186"},{"type":"Feature","properties":{"@id":"way/1193515444","footway":"sidewalk","highway":"footway","smoothness":"good","surface":"asphalt","id":"way/1193515444"},"geometry":{"type":"LineString","coordinates":[[2.3709291,48.8830895],[2.3708894,48.8831447],[2.3712082,48.8835257],[2.3723967,48.8841046],[2.3724951,48.884139],[2.372786,48.8842484],[2.3734749,48.88459],[2.3737329,48.884718]]},"id":"way/1193515444"},{"type":"Feature","properties":{"@id":"node/2650871422","addr:city":"Paris","addr:housenumber":"14","addr:postcode":"75019","addr:street":"Quai de la Loire","amenity":"restaurant","check_date":"2026-01-08","cuisine":"japanese","diet:vegetarian":"yes","indoor_seating":"yes","level":"-1;0","name":"Sekitan","outdoor_seating":"yes","source":"survey","toilets":"yes","website":"https://www.sekitan.fr","id":"node/2650871422"},"geometry":{"type":"Point","coordinates":[2.3717518,48.8837279]},"id":"node/2650871422"},{"type":"Feature","properties":{"@id":"node/4929565421","addr:housenumber":"5","addr:street":"Quai de la Loire","amenity":"restaurant","cuisine":"thai","diet:vegan":"no","diet:vegetarian":"yes","indoor_seating":"yes","name":"nânâ","opening_hours":"Mo-Su 09:00-24:00","outdoor_seating":"yes","source":"survey","toilets:wheelchair":"yes","website":"https://nana-bistro.com/","wheelchair":"yes","id":"node/4929565421"},"geometry":{"type":"Point","coordinates":[2.3719215,48.8841016]},"id":"node/4929565421"},{"type":"Feature","properties":{"@id":"node/5034473881","check_date":"2025-05-14","name":"Store MK2","opening_hours":"Mo-Fr 12:15-21:15, Sa 12:15-22:15, Su 12:15-19:45","second_hand":"no","shop":"books","source":"survey","wheelchair":"yes","id":"node/5034473881"},"geometry":{"type":"Point","coordinates":[2.3723081,48.884294]},"id":"node/5034473881"},{"type":"Feature","properties":{"@id":"node/5679969921","addr:housenumber":"14","addr:postcode":"75019","addr:street":"Quai de la Loire","amenity":"restaurant","cuisine":"japanese","diet:vegan":"yes","diet:vegetarian":"yes","email":"contact@koko-bistro.com","indoor_seating":"yes","level":"0","name":"Koko","opening_hours":"Tu-Su 12:00-23:00","outdoor_seating":"yes","phone":"+33 1 40 34 15 95","ref:FR:SIRET":"81859233900019","smoking":"outside","toilets":"yes","toilets:access":"customers","toilets:disposal":"flush","toilets:handwashing":"yes","toilets:paper_supplied":"yes","toilets:position":"seated;urinal","toilets:wheelchair":"yes","website":"http://koko-bistro.com","website:menu":"http://koko-bistro.com/doc/menu_koko_avril2019.pdf","wheelchair":"yes","id":"node/5679969921"},"geometry":{"type":"Point","coordinates":[2.3719513,48.8838277]},"id":"node/5679969921"},{"type":"Feature","properties":{"@id":"node/9695084531","amenity":"waste_basket","source":"survey","waste":"mixed","id":"node/9695084531"},"geometry":{"type":"Point","coordinates":[2.3715365,48.8838222]},"id":"node/9695084531"},{"type":"Feature","properties":{"@id":"node/12021738848","highway":"street_lamp","id":"node/12021738848"},"geometry":{"type":"Point","coordinates":[2.3712955,48.8839613]},"id":"node/12021738848"},{"type":"Feature","properties":{"@id":"node/12995065964","amenity":"cafe","name":"Koko coffee shop","outdoor_seating":"yes","toilets":"no","id":"node/12995065964"},"geometry":{"type":"Point","coordinates":[2.3718751,48.8837916]},"id":"node/12995065964"}]}