{"type":"FeatureCollection","features":[{"type":"Feature","properties":{"@id":"way/64039320","addr:city":"Paris","addr:housenumber":"14","addr:postcode":"75019","addr:street":"Quai de la Seine","amenity":"cinema","brand":"MK2","brand:website":"https://www.mk2.com","brand:wikidata":"Q19814222","brand:wikipedia":"fr:MK2","building":"yes","building:levels":"2","capacity":"992","facebook":"https://www.facebook.com/mk2quaideseine","name":"MK2 Quai de Seine","ref:FR:CNC":"4731","ref:FR:SIRET":"44096499700033","screen":"6","source":"cadastre-dgi-fr source : Direction Générale des Impôts - Cadastre. Mise à jour : 2010","website":"https://www.mk2.com/salle/mk2-quai-seine-quai-loire","wikidata":"Q3273032","wikipedia":"fr:MK2 Quai de Loire / Quai de Seine","id":"way/64039320"},"geometry":{"type":"Polygon","coordinates":[[[2.3719243,48.8851723],[2.3718271,48.8852566],[2.3709954,48.8848417],[2.3710926,48.8847574],[2.3719243,48.8851723]]]},"id":"way/64039320"},{"type":"Feature","properties":{"@id":"way/612663889","addr:city":"Paris","addr:housenumber":"16","addr:postcode":"75019","addr:street":"Quai de la Seine","leisure":"park","name":"Square du Quai de la Seine","website":"https://www.paris.fr/equipements/square-du-quai-de-la-seine-2662","wikidata":"Q3495082","id":"way/612663889"},"geometry":{"type":"Polygon","coordinates":[[[2.3718984,48.8852935],[2.372055,48.8851697],[2.3724123,48.8853479],[2.372231,48.8854486],[2.3718984,48.8852935]]]},"id":"way/612663889"},{"type":"Feature","properties":{"@id":"way/10661337","bicycle:backward":"use_sidepath","cycleway":"separate","highway":"residential","lanes":"1","lit":"yes","maxspeed":"30","name":"Quai de la Seine","name:etymology:wikidata":"Q1471","oneway":"yes","oneway:bicycle":"yes","parking:left":"no","parking:right":"street_side","parking:right:orientation":"parallel","sidewalk:both":"separate","smoothness":"excellent","source:maxspeed":"BMO arrêté n°2014P0207","surface":"asphalt","id":"way/10661337"},"geometry":{"type":"LineString","coordinates":[[2.3788972,48.88883],[2.378782,48.8887765],[2.378472,48.8886191],[2.3780752,48.8884245],[2.3780017,48.8883881],[2.3773402,48.8880476],[2.3772367,48.8879985],[2.3771239,48.8879409],[2.3768165,48.8877894],[2.3760102,48.8873919],[2.3757443,48.8872608],[2.3755535,48.8871668],[2.3754844,48.8871328],[2.3753374,48.8870613],[2.3746265,48.886715],[2.3745418,48.8866744],[2.3743979,48.8866025],[2.3732199,48.886013],[2.3718943,48.8853512],[2.3718384,48.8853232],[2.3717827,48.8852954],[2.3708667,48.8848448],[2.3705701,48.884692],[2.370011,48.8844049],[2.3698937,48.8843545]]},"id":"way/10661337"},{"type":"Feature","properties":{"@id":"way/19422124","cycleway:both":"no","highway":"residential","lit":"yes","maxspeed":"30","name":"Rue de Soissons","name:etymology:wikidata":"Q167152","oneway":"yes","oneway:bicycle":"no","sidewalk:both":"separate","source:maxspeed":"BMO arrêté n°2014P0207","surface":"asphalt","zone:maxspeed":"FR:30","id":"way/19422124"},"geometry":{"type":"LineString","coordinates":[[2.3718384,48.8853232],[2.3717775,48.8853682],[2.3710584,48.8857317],[2.3709501,48.8857877]]},"id":"way/19422124"},{"type":"Feature","properties":{"@id":"way/29501139","highway":"footway","lit":"yes","name":"Promenade Jeanne Moreau","name:etymology:wikidata":"Q106099","surface":"sett","id":"way/29501139"},"geometry":{"type":"LineString","coordinates":[[2.3707081,48.8845161],[2.3707354,48.884549],[2.3710413,48.884701],[2.3715533,48.8849549],[2.3719912,48.885172],[2.3720278,48.8851914]]},"id":"way/29501139"},{"type":"Feature","properties":{"@id":"way/216508856","cycleway":"crossing","highway":"cycleway","lit":"no","surface":"asphalt","id":"way/216508856"},"geometry":{"type":"LineString","coordinates":[[2.3718758,48.8853054],[2.3718384,48.8853232]]},"id":"way/216508856"},{"type":"Feature","properties":{"@id":"way/732134222","highway":"footway","lit":"yes","name":"Promenade Signoret-Montand","name:etymology:wikidata":"Q106126","smoothness":"good","surface":"paving_stones","id":"way/732134222"},"geometry":{"type":"LineString","coordinates":[[2.3720278,48.8851914],[2.3732952,48.8858122],[2.373393,48.8858601],[2.3734132,48.88587],[2.3745281,48.886416],[2.3748148,48.8865583]]},"id":"way/732134222"},{"type":"Feature","properties":{"@id":"way/843259073","cycleway":"sidewalk","cycleway:surface":"asphalt","footway:surface":"asphalt","highway":"cycleway","lit":"yes","name":"Quai de la Seine","name:etymology:wikidata":"Q1471","oneway":"no","segregated":"yes","surface":"asphalt","id":"way/843259073"},"geometry":{"type":"LineString","coordinates":[[2.3718493,48.8852922],[2.3718105,48.8852725],[2.3711798,48.8849588],[2.3708981,48.8848178],[2.3705375,48.8846386],[2.3704059,48.8845635],[2.3700412,48.8843793],[2.3699926,48.8843552],[2.3699466,48.8843357],[2.3698959,48.8843207],[2.3695058,48.8842599]]},"id":"way/843259073"},{"type":"Feature","properties":{"@id":"way/848154689","highway":"footway","lit":"yes","smoothness":"good","surface":"paving_stones","id":"way/848154689"},"geometry":{"type":"LineString","coordinates":[[2.3744482,48.8865321],[2.3732895,48.885952],[2.371976,48.8853022]]},"id":"way/848154689"},{"type":"Feature","properties":{"@id":"way/848156990","cycleway":"sidewalk","highway":"cycleway","lit":"yes","name":"Quai de la Seine","name:etymology:wikidata":"Q1471","oneway":"no","smoothness":"good","surface":"asphalt","traffic_sign":"FR:B22a","id":"way/848156990"},"geometry":{"type":"LineString","coordinates":[[2.3732505,48.8859859],[2.3731514,48.8859364],[2.3719309,48.8853327],[2.3719196,48.8853271],[2.3718758,48.8853054],[2.3718493,48.8852922]]},"id":"way/848156990"},{"type":"Feature","properties":{"@id":"way/1186694187","highway":"footway","lit":"yes","surface":"paving_stones","id":"way/1186694187"},"geometry":{"type":"LineString","coordinates":[[2.3715533,48.8849549],[2.3716265,48.8848944],[2.3716479,48.8848757]]},"id":"way/1186694187"},{"type":"Feature","properties":{"@id":"way/1193225199","footway":"sidewalk","highway":"footway","lit":"yes","smoothness":"good","surface":"asphalt","id":"way/1193225199"},"geometry":{"type":"LineString","coordinates":[[2.3700715,48.8843532],[2.3705226,48.8846078],[2.3705542,48.8846256],[2.370915,48.8848044],[2.3718251,48.8852608],[2.3718355,48.8852655],[2.3718719,48.8852733]]},"id":"way/1193225199"},{"type":"Feature","properties":{"@id":"way/1193527258","crossing":"uncontrolled","crossing:markings":"yes","footway":"crossing","highway":"footway","lit":"yes","smoothness":"good","surface":"asphalt","id":"way/1193527258"},"geometry":{"type":"LineString","coordinates":[[2.371746,48.8853253],[2.3717827,48.8852954],[2.3718105,48.8852725],[2.3718211,48.8852638]]},"id":"way/1193527258"},{"type":"Feature","properties":{"@id":"way/1193527259","footway":"sidewalk","highway":"footway","lit":"yes","smoothness":"good","surface":"asphalt","id":"way/1193527259"},"geometry":{"type":"LineString","coordinates":[[2.3718251,48.8852608],[2.3718211,48.8852638]]},"id":"way/1193527259"},{"type":"Feature","properties":{"@id":"way/1193527260","footway":"sidewalk","highway":"footway","id":"way/1193527260"},"geometry":{"type":"LineString","coordinates":[[2.371031,48.8857026],[2.371054,48.8856898],[2.3717277,48.8853386],[2.3717334,48.8853342],[2.371746,48.8853253]]},"id":"way/1193527260"},{"type":"Feature","properties":{"@id":"way/1193527261","footway":"sidewalk","highway":"footway","lit":"yes","smoothness":"good","surface":"asphalt","id":"way/1193527261"},"geometry":{"type":"LineString","coordinates":[[2.3717277,48.8853386],[2.3717419,48.8853467]]},"id":"way/1193527261"},{"type":"Feature","properties":{"@id":"way/1193527262","crossing":"uncontrolled","crossing:markings":"yes","footway":"crossing","highway":"footway","lit":"yes","smoothness":"good","surface":"asphalt","id":"way/1193527262"},"geometry":{"type":"LineString","coordinates":[[2.3718023,48.8853832],[2.3717775,48.8853682],[2.3717419,48.8853467]]},"id":"way/1193527262"},{"type":"Feature","properties":{"@id":"way/1193527263","crossing":"uncontrolled","crossing:markings":"yes","footway":"crossing","highway":"footway","lit":"yes","smoothness":"good","surface":"asphalt","id":"way/1193527263"},"geometry":{"type":"LineString","coordinates":[[2.3719297,48.8853175],[2.3719196,48.8853271],[2.3718943,48.8853512],[2.3718736,48.8853712]]},"id":"way/1193527263"},{"type":"Feature","properties":{"@id":"way/1193527264","footway":"sidewalk","highway":"footway","lit":"yes","smoothness":"good","surface":"asphalt","id":"way/1193527264"},"geometry":{"type":"LineString","coordinates":[[2.3744044,48.8867115],[2.3743964,48.8867079],[2.3743461,48.8866438],[2.3731787,48.8860494],[2.3718379,48.8854028],[2.371818,48.8853927],[2.3718023,48.8853832]]},"id":"way/1193527264"},{"type":"Feature","properties":{"@id":"way/1193527265","footway":"sidewalk","highway":"footway","lit":"yes","smoothness":"excellent","surface":"asphalt","id":"way/1193527265"},"geometry":{"type":"LineString","coordinates":[[2.3718379,48.8854028],[2.3718736,48.8853712]]},"id":"way/1193527265"},{"type":"Feature","properties":{"@id":"way/1193527266","footway":"sidewalk","highway":"footway","lit":"yes","surface":"sett","id":"way/1193527266"},"geometry":{"type":"LineString","coordinates":[[2.371976,48.8853022],[2.3719548,48.8852921],[2.3718719,48.8852733]]},"id":"way/1193527266"},{"type":"Feature","properties":{"@id":"way/1193527267","footway":"sidewalk","highway":"footway","lit":"yes","surface":"paving_stones","id":"way/1193527267"},"geometry":{"type":"LineString","coordinates":[[2.3719548,48.8852921],[2.3719297,48.8853175]]},"id":"way/1193527267"},{"type":"Feature","properties":{"@id":"way/1279320927","footway":"sidewalk","highway":"footway","lit":"yes","smoothness":"good","surface":"asphalt","id":"way/1279320927"},"geometry":{"type":"LineString","coordinates":[[2.3717334,48.8853342],[2.370826,48.8848794]]},"id":"way/1279320927"},{"type":"Feature","properties":{"@id":"way/1279320928","footway":"sidewalk","highway":"footway","lit":"yes","smoothness":"good","surface":"asphalt","id":"way/1279320928"},"geometry":{"type":"LineString","coordinates":[[2.3710994,48.8857682],[2.3711412,48.8857374],[2.371818,48.8853927]]},"id":"way/1279320928"},{"type":"Feature","properties":{"@id":"node/2535330393","highway":"street_lamp","id":"node/2535330393"},"geometry":{"type":"Point","coordinates":[2.3726041,48.885434]},"id":"node/2535330393"},{"type":"Feature","properties":{"@id":"node/2535849890","brand":"La Halle","brand:wikidata":"Q100728296","name":"La Halle","ref:FR:SIRET":"88362887702040","shop":"clothes","source":"survey 2013","id":"node/2535849890"},"geometry":{"type":"Point","coordinates":[2.3715516,48.885341]},"id":"node/2535849890"},{"type":"Feature","properties":{"@id":"node/2537724102","genus":"Tilia","natural":"tree","source":"Bing","species":"Tilia × euchlora","id":"node/2537724102"},"geometry":{"type":"Point","coordinates":[2.3723611,48.8853062]},"id":"node/2537724102"},{"type":"Feature","properties":{"@id":"node/2537724111","genus":"Tilia","natural":"tree","source":"Bing","species":"Tilia × euchlora","id":"node/2537724111"},"geometry":{"type":"Point","coordinates":[2.3722095,48.8852295]},"id":"node/2537724111"},{"type":"Feature","properties":{"@id":"node/2537724136","genus":"Populus","natural":"tree","source":"Bing","species":"Populus x canadensis","id":"node/2537724136"},"geometry":{"type":"Point","coordinates":[2.3724292,48.8854774]},"id":"node/2537724136"},{"type":"Feature","properties":{"@id":"node/2537724145","genus":"Tilia","natural":"tree","source":"Bing","species":"Tilia × euchlora","id":"node/2537724145"},"geometry":{"type":"Point","coordinates":[2.3722877,48.8852693]},"id":"node/2537724145"},{"type":"Feature","properties":{"@id":"node/2537724159","genus":"Populus","natural":"tree","source":"Bing","species":"Populus x canadensis","id":"node/2537724159"},"geometry":{"type":"Point","coordinates":[2.3723628,48.8854398]},"id":"node/2537724159"},{"type":"Feature","properties":{"@id":"node/11194354837","amenity":"restaurant","check_date":"2026-01-18","contact:housenumber":"12","contact:street":"Quai de la Seine","cuisine":"italian","internet_access":"wlan","name":"Gina","opening_hours":"09:00-21:00","phone":"+33 1 40 37 02 81","website":"https://gina-con-amore.fr/","website:menu":"https://lor.paris/q/gina-paris","wheelchair":"yes","id":"node/11194354837"},"geometry":{"type":"Point","coordinates":[2.3717124,48.8851344]},"id":"node/11194354837"},{"type":"Feature","properties":{"@id":"node/12021738717","highway":"street_lamp","source":"Bing","id":"node/12021738717"},"geometry":{"type":"Point","coordinates":[2.3714459,48.8851664]},"id":"node/12021738717"},{"type":"Feature","properties":{"@id":"node/12021738718","highway":"street_lamp","source":"Bing","id":"node/12021738718"},"geometry":{"type":"Point","coordinates":[2.3716633,48.8852732]},"id":"node/12021738718"},{"type":"Feature","properties":{"@id":"node/12021738719","highway":"street_lamp","source":"Bing","id":"node/12021738719"},"geometry":{"type":"Point","coordinates":[2.3718415,48.8854068]},"id":"node/12021738719"},{"type":"Feature","properties":{"@id":"node/12021738723","highway":"street_lamp","source":"Bing","id":"node/12021738723"},"geometry":{"type":"Point","coordinates":[2.3722402,48.8854547]},"id":"node/12021738723"},{"type":"Feature","properties":{"@id":"node/12021738724","highway":"street_lamp","source":"Bing","id":"node/12021738724"},"geometry":{"type":"Point","coordinates":[2.3720129,48.8853417]},"id":"node/12021738724"},{"type":"Feature","properties":{"@id":"node/12021738770","highway":"street_lamp","id":"node/12021738770"},"geometry":{"type":"Point","coordinates":[2.3723812,48.8853239]},"id":"node/12021738770"},{"type":"Feature","properties":{"@id":"node/12021738771","highway":"street_lamp","id":"node/12021738771"},"geometry":{"type":"Point","coordinates":[2.3721162,48.8851921]},"id":"node/12021738771"},{"type":"Feature","properties":{"@id":"node/12543612330","amenity":"waste_basket","id":"node/12543612330"},"geometry":{"type":"Point","coordinates":[2.3718571,48.8854115]},"id":"node/12543612330"},{"type":"Feature","properties":{"@id":"node/12623827913","amenity":"waste_basket","waste":"trash","id":"node/12623827913"},"geometry":{"type":"Point","coordinates":[2.3722721,48.8854674]},"id":"node/12623827913"},{"type":"Feature","properties":{"@id":"node/12688378684","genus":"Populus","natural":"tree","species":"Populus x canadensis","id":"node/12688378684"},"geometry":{"type":"Point","coordinates":[2.3719747,48.8853208]},"id":"node/12688378684"},{"type":"Feature","properties":{"@id":"node/12688378685","genus":"Populus","natural":"tree","species":"Populus x canadensis","id":"node/12688378685"},"geometry":{"type":"Point","coordinates":[2.3720136,48.8852688]},"id":"node/12688378685"},{"type":"Feature","properties":{"@id":"node/12688378686","genus":"Populus","natural":"tree","species":"Populus x canadensis","id":"node/12688378686"},"geometry":{"type":"Point","coordinates":[2.3721048,48.8853125]},"id":"node/12688378686"},{"type":"Feature","properties":{"@id":"node/12688378687","genus":"Populus","natural":"tree","species":"Populus x canadensis","id":"node/12688378687"},"geometry":{"type":"Point","coordinates":[2.3720626,48.8853614]},"id":"node/12688378687"},{"type":"Feature","properties":{"@id":"node/12688378688","genus":"Tilia","natural":"tree","species":"Tilia × euchlora","id":"node/12688378688"},"geometry":{"type":"Point","coordinates":[2.3721417,48.8852768]},"id":"node/12688378688"},{"type":"Feature","properties":{"@id":"node/12688378689","genus":"Tilia","natural":"tree","species":"Tilia × euchlora","id":"node/12688378689"},"geometry":{"type":"Point","coordinates":[2.372242,48.8853091]},"id":"node/12688378689"},{"type":"Feature","properties":{"@id":"node/12688378690","genus":"Tilia","natural":"tree","species":"Tilia × euchlora","id":"node/12688378690"},"geometry":{"type":"Point","coordinates":[2.3723177,48.8853512]},"id":"node/12688378690"},{"type":"Feature","properties":{"@id":"node/12688378691","genus":"Populus","natural":"tree","species":"Populus x canadensis","id":"node/12688378691"},"geometry":{"type":"Point","coordinates":[2.3722601,48.8853946]},"id":"node/12688378691"},{"type":"Feature","properties":{"@id":"node/12688378692","genus":"Populus","natural":"tree","species":"Populus x canadensis","id":"node/12688378692"},"geometry":{"type":"Point","coordinates":[2.3721957,48.8854354]},"id":"node/12688378692"},{"type":"Feature","properties":{"@id":"node/12688378693","genus":"Populus","natural":"tree","species":"Populus x canadensis","id":"node/12688378693"},"geometry":{"type":"Point","coordinates":[2.3721303,48.8854058]},"id":"node/12688378693"},{"type":"Feature","properties":{"@id":"node/12688378694","genus":"Populus","natural":"tree","species":"Populus x canadensis","id":"node/12688378694"},"geometry":{"type":"Point","coordinates":[2.3721766,48.8853613]},"id":"node/12688378694"},{"type":"Feature","properties":{"@id":"node/12688378695","genus":"Tilia","natural":"tree","species":"Tilia × euchlora","id":"node/12688378695"},"geometry":{"type":"Point","coordinates":[2.3722078,48.8853379]},"id":"node/12688378695"},{"type":"Feature","properties":{"@id":"node/12688407711","genus":"Ligustrum","leaf_type":"broadleaved","natural":"tree","species":"Ligustrum lucidum","id":"node/12688407711"},"geometry":{"type":"Point","coordinates":[2.3718965,48.8854501]},"id":"node/12688407711"},{"type":"Feature","properties":{"@id":"node/12688419015","genus":"Populus","natural":"tree","species":"Populus x canadensis","id":"node/12688419015"},"geometry":{"type":"Point","coordinates":[2.3723124,48.8854906]},"id":"node/12688419015"},{"type":"Feature","properties":{"@id":"node/12841608325","amenity":"waste_basket","id":"node/12841608325"},"geometry":{"type":"Point","coordinates":[2.3716884,48.8852837]},"id":"node/12841608325"}]}