{"type":"FeatureCollection","features":[{"type":"Feature","properties":{"@id":"way/501229013","building":"yes","source":"cadastre-dgi-fr source : Direction Générale des Impôts - Cadastre. Mise à jour : 2016","id":"way/501229013"},"geometry":{"type":"Polygon","coordinates":[[[2.3766328,48.8859783],[2.3765758,48.8859508],[2.3766933,48.8858455],[2.3767504,48.8858734],[2.3766328,48.8859783]]]},"id":"way/501229013"},{"type":"Feature","properties":{"@id":"way/501229014","building":"roof","layer":"1","source":"cadastre-dgi-fr source : Direction Générale des Impôts - Cadastre. Mise à jour : 2016","id":"way/501229014"},"geometry":{"type":"Polygon","coordinates":[[[2.3766933,48.8858455],[2.3767081,48.8858322],[2.3767656,48.8858598],[2.3767504,48.8858734],[2.3766933,48.8858455]]]},"id":"way/501229014"},{"type":"Feature","properties":{"@id":"way/501229016","building":"roof","layer":"1","source":"cadastre-dgi-fr source : Direction Générale des Impôts - Cadastre. Mise à jour : 2016","id":"way/501229016"},"geometry":{"type":"Polygon","coordinates":[[[2.3766328,48.8859783],[2.3766201,48.8859897],[2.3765633,48.8859621],[2.3765758,48.8859508],[2.3766328,48.8859783]]]},"id":"way/501229016"},{"type":"Feature","properties":{"@id":"way/21805322","bicycle":"dismount","bridge":"yes","foot":"yes","highway":"footway","layer":"1","lit":"yes","name":"Passerelle de la Moselle","name:etymology:wikidata":"Q1667","surface":"concrete","wikidata":"Q3368303","wikipedia":"fr:Passerelle de la Moselle","id":"way/21805322"},"geometry":{"type":"LineString","coordinates":[[2.3755165,48.8857931],[2.3746678,48.8865338]]},"id":"way/21805322"},{"type":"Feature","properties":{"@id":"way/27530461","highway":"footway","lit":"yes","name":"Promenade Éric Tabarly","name:etymology:wikidata":"Q288394","smoothness":"good","surface":"paving_stones","id":"way/27530461"},"geometry":{"type":"LineString","coordinates":[[2.3797896,48.8879331],[2.3789681,48.887552],[2.3788422,48.887664],[2.3786631,48.8875757],[2.3762585,48.8863812],[2.3754969,48.8860029]]},"id":"way/27530461"},{"type":"Feature","properties":{"@id":"way/43184565","bicycle":"yes","cycleway":"crossing","cycleway:surface":"asphalt","foot":"yes","footway:surface":"asphalt","highway":"cycleway","lit":"yes","segregated":"yes","surface":"asphalt","id":"way/43184565"},"geometry":{"type":"LineString","coordinates":[[2.3755398,48.8857647],[2.3755687,48.8857408]]},"id":"way/43184565"},{"type":"Feature","properties":{"@id":"way/51311515","bicycle":"designated","cycleway":"sidewalk","cycleway:surface":"asphalt","foot":"no","footway:surface":"paving_stones","highway":"cycleway","lit":"yes","name":"Quai de la Loire","name:etymology:wikidata":"Q1469","surface":"asphalt","width":"2","id":"way/51311515"},"geometry":{"type":"LineString","coordinates":[[2.3710746,48.8835508],[2.3728463,48.8844281],[2.3736196,48.8848102],[2.3741554,48.8850777],[2.3754107,48.8856978],[2.3754212,48.885703],[2.3755398,48.8857647],[2.3756512,48.8858176],[2.3764206,48.8862048],[2.3770312,48.8865103],[2.3771069,48.8865491],[2.3790269,48.8874996],[2.3798364,48.8879003],[2.3798525,48.8879083]]},"id":"way/51311515"},{"type":"Feature","properties":{"@id":"way/211415518","highway":"footway","lit":"yes","name":"Promenade Éric Tabarly","name:etymology:wikidata":"Q288394","surface":"paving_stones","id":"way/211415518"},"geometry":{"type":"LineString","coordinates":[[2.3754969,48.8860029],[2.3752152,48.885864]]},"id":"way/211415518"},{"type":"Feature","properties":{"@id":"way/228993606","foot":"yes","highway":"footway","lit":"yes","smoothness":"good","surface":"compacted","id":"way/228993606"},"geometry":{"type":"LineString","coordinates":[[2.375376,48.8857271],[2.3752152,48.885864]]},"id":"way/228993606"},{"type":"Feature","properties":{"@id":"way/228993608","foot":"yes","highway":"footway","lit":"yes","smoothness":"intermediate","surface":"compacted","id":"way/228993608"},"geometry":{"type":"LineString","coordinates":[[2.3755981,48.8858365],[2.3756513,48.885864],[2.3754969,48.8860029]]},"id":"way/228993608"},{"type":"Feature","properties":{"@id":"way/538547909","bicycle:backward":"use_sidepath","cycleway:both":"separate","highway":"residential","lit":"yes","maxspeed":"30","name":"Quai de la Loire","name:etymology:wikidata":"Q1469","oneway":"yes","parking:both":"no","sidewalk:both":"separate","smoothness":"intermediate","surface":"sett","id":"way/538547909"},"geometry":{"type":"LineString","coordinates":[[2.3770622,48.8864799],[2.3765201,48.886213],[2.3764525,48.8861794],[2.3755687,48.8857408]]},"id":"way/538547909"},{"type":"Feature","properties":{"@id":"way/538547912","bicycle:backward":"use_sidepath","cycleway:both":"separate","highway":"residential","lit":"yes","maxspeed":"30","name":"Quai de la Loire","name:etymology:wikidata":"Q1469","oneway":"yes","parking:left":"lane","parking:left:orientation":"parallel","parking:right":"no","sidewalk:both":"separate","smoothness":"intermediate","surface":"sett","id":"way/538547912"},"geometry":{"type":"LineString","coordinates":[[2.3755687,48.8857408],[2.3754368,48.8856753],[2.3741846,48.8850539],[2.3741067,48.8850152],[2.3736498,48.8847864],[2.3733937,48.8846592],[2.3728752,48.8844016],[2.372441,48.8841853],[2.3711395,48.8835368],[2.3707764,48.8831209],[2.3707597,48.8831018],[2.3706762,48.8829946],[2.3706644,48.8829771],[2.3706225,48.8829209]]},"id":"way/538547912"},{"type":"Feature","properties":{"@id":"way/1171519316","cycleway:both":"no","highway":"residential","lit":"yes","maxspeed":"30","name":"Rue de la Moselle","name:etymology:wikidata":"Q1667","oneway":"yes","oneway:bicycle":"no","parking:left":"no","parking:right":"lane","parking:right:orientation":"parallel","sidewalk:both":"separate","smoothness":"good","surface":"asphalt","id":"way/1171519316"},"geometry":{"type":"LineString","coordinates":[[2.3761545,48.8852403],[2.3760932,48.8852791],[2.3756524,48.8856671],[2.3755687,48.8857408]]},"id":"way/1171519316"},{"type":"Feature","properties":{"@id":"way/1193515363","footway":"sidewalk","highway":"footway","smoothness":"good","surface":"paving_stones","id":"way/1193515363"},"geometry":{"type":"LineString","coordinates":[[2.375376,48.8857271],[2.3741191,48.8851074]]},"id":"way/1193515363"},{"type":"Feature","properties":{"@id":"way/1193515364","crossing":"uncontrolled","crossing:markings":"yes","footway":"crossing","highway":"footway","lit":"yes","smoothness":"excellent","surface":"asphalt","id":"way/1193515364"},"geometry":{"type":"LineString","coordinates":[[2.3753974,48.8857091],[2.3754107,48.8856978],[2.3754287,48.8856823]]},"id":"way/1193515364"},{"type":"Feature","properties":{"@id":"way/1193515365","footway":"sidewalk","highway":"footway","smoothness":"good","surface":"asphalt","id":"way/1193515365"},"geometry":{"type":"LineString","coordinates":[[2.3754322,48.8857536],[2.375376,48.8857271]]},"id":"way/1193515365"},{"type":"Feature","properties":{"@id":"way/1193515366","footway":"sidewalk","highway":"footway","smoothness":"good","surface":"asphalt","id":"way/1193515366"},"geometry":{"type":"LineString","coordinates":[[2.3762782,48.8863228],[2.3763068,48.8863375],[2.3762585,48.8863812]]},"id":"way/1193515366"},{"type":"Feature","properties":{"@id":"way/1193515368","footway":"sidewalk","highway":"footway","surface":"concrete","id":"way/1193515368"},"geometry":{"type":"LineString","coordinates":[[2.3763419,48.8862194],[2.3763208,48.8862101],[2.3762266,48.8862961],[2.3762437,48.8863049]]},"id":"way/1193515368"},{"type":"Feature","properties":{"@id":"way/1193515370","footway":"sidewalk","highway":"footway","id":"way/1193515370"},"geometry":{"type":"LineString","coordinates":[[2.3764097,48.8862135],[2.3763782,48.8862381],[2.3763731,48.8862355]]},"id":"way/1193515370"},{"type":"Feature","properties":{"@id":"way/1193515371","footway":"sidewalk","highway":"footway","smoothness":"excellent","surface":"paving_stones","id":"way/1193515371"},"geometry":{"type":"LineString","coordinates":[[2.3770722,48.8865794],[2.3769166,48.8865033],[2.3769026,48.8864668],[2.376867,48.8864504],[2.3767953,48.8864442],[2.3763782,48.8862381]]},"id":"way/1193515371"},{"type":"Feature","properties":{"@id":"way/1193515408","footway":"sidewalk","highway":"footway","lit":"yes","smoothness":"good","surface":"asphalt","id":"way/1193515408"},"geometry":{"type":"LineString","coordinates":[[2.3764905,48.8861477],[2.3765568,48.8861803],[2.3770283,48.886411]]},"id":"way/1193515408"},{"type":"Feature","properties":{"@id":"way/1193515409","footway":"sidewalk","highway":"footway","smoothness":"good","surface":"asphalt","id":"way/1193515409"},"geometry":{"type":"LineString","coordinates":[[2.3757006,48.8856904],[2.3756784,48.8857103],[2.3756875,48.8857549],[2.3764905,48.8861477]]},"id":"way/1193515409"},{"type":"Feature","properties":{"@id":"way/1193515411","footway":"sidewalk","highway":"footway","smoothness":"good","surface":"asphalt","id":"way/1193515411"},"geometry":{"type":"LineString","coordinates":[[2.3757006,48.8856904],[2.3756684,48.8856746]]},"id":"way/1193515411"},{"type":"Feature","properties":{"@id":"way/1193515412","footway":"sidewalk","highway":"footway","surface":"asphalt","id":"way/1193515412"},"geometry":{"type":"LineString","coordinates":[[2.3761277,48.8852978],[2.3760915,48.8853494],[2.3757006,48.8856904]]},"id":"way/1193515412"},{"type":"Feature","properties":{"@id":"way/1193515441","footway":"sidewalk","highway":"footway","smoothness":"excellent","surface":"asphalt","id":"way/1193515441"},"geometry":{"type":"LineString","coordinates":[[2.3755219,48.8856021],[2.3754729,48.8856444]]},"id":"way/1193515441"},{"type":"Feature","properties":{"@id":"way/1193515442","footway":"sidewalk","highway":"footway","smoothness":"good","surface":"asphalt","id":"way/1193515442"},"geometry":{"type":"LineString","coordinates":[[2.3756084,48.8856449],[2.3756258,48.8856545]]},"id":"way/1193515442"},{"type":"Feature","properties":{"@id":"way/1193515443","footway":"sidewalk","highway":"footway","smoothness":"good","surface":"asphalt","id":"way/1193515443"},"geometry":{"type":"LineString","coordinates":[[2.3737329,48.884718],[2.3741997,48.8849406],[2.3742761,48.8849801],[2.3755219,48.8856021],[2.3756084,48.8856449],[2.3760509,48.8852568]]},"id":"way/1193515443"},{"type":"Feature","properties":{"@id":"way/1193527324","crossing":"uncontrolled","crossing:markings":"yes","footway":"crossing","highway":"footway","lit":"yes","smoothness":"intermediate","surface":"sett","id":"way/1193527324"},"geometry":{"type":"LineString","coordinates":[[2.3754729,48.8856444],[2.3754368,48.8856753],[2.3754287,48.8856823]]},"id":"way/1193527324"},{"type":"Feature","properties":{"@id":"way/1193527325","crossing":"uncontrolled","crossing:markings":"yes","footway":"crossing","highway":"footway","lit":"yes","smoothness":"good","surface":"asphalt","id":"way/1193527325"},"geometry":{"type":"LineString","coordinates":[[2.3756258,48.8856545],[2.3756524,48.8856671],[2.3756684,48.8856746]]},"id":"way/1193527325"},{"type":"Feature","properties":{"@id":"way/1193527326","crossing":"uncontrolled","crossing:markings":"yes","footway":"crossing","highway":"footway","lit":"yes","smoothness":"intermediate","surface":"sett","id":"way/1193527326"},"geometry":{"type":"LineString","coordinates":[[2.3764704,48.8861651],[2.3764525,48.8861794],[2.3764206,48.8862048],[2.3764097,48.8862135]]},"id":"way/1193527326"},{"type":"Feature","properties":{"@id":"way/1221535150","footway":"sidewalk","highway":"footway","surface":"compacted","id":"way/1221535150"},"geometry":{"type":"LineString","coordinates":[[2.375376,48.8857271],[2.3753974,48.8857091]]},"id":"way/1221535150"},{"type":"Feature","properties":{"@id":"way/1221535167","footway":"sidewalk","highway":"footway","smoothness":"intermediate","surface":"asphalt","id":"way/1221535167"},"geometry":{"type":"LineString","coordinates":[[2.3764905,48.8861477],[2.3764704,48.8861651]]},"id":"way/1221535167"},{"type":"Feature","properties":{"@id":"node/627857438","addr:city":"Paris","addr:housenumber":"46bis","addr:postcode":"75019","addr:street":"Quai de la Loire","branch":"Canal Bio","brand":"Biocoop","brand:wikidata":"Q2904039","bulk_purchase":"yes","check_date":"2024-11-07","email":"info@canal-bio.fr","name":"Biocoop Canal Bio","opening_hours":"Mo 12:00-20:00; Tu-Sa 10:00-20:00; Su off","organic":"only","payment:cash":"yes","payment:credit_cards":"yes","payment:debit_cards":"yes","phone":"+33 1 42 06 44 44","shop":"supermarket","website":"https://www.biocoop-canalbio.fr/","wheelchair":"yes","id":"node/627857438"},"geometry":{"type":"Point","coordinates":[2.3755636,48.8855549]},"id":"node/627857438"},{"type":"Feature","properties":{"@id":"node/2851303457","genus":"Populus","natural":"tree","source":"opendata.paris.fr","id":"node/2851303457"},"geometry":{"type":"Point","coordinates":[2.3764545,48.8862451]},"id":"node/2851303457"},{"type":"Feature","properties":{"@id":"node/2851303462","genus":"Populus","natural":"tree","source":"opendata.paris.fr","id":"node/2851303462"},"geometry":{"type":"Point","coordinates":[2.3765275,48.8862821]},"id":"node/2851303462"},{"type":"Feature","properties":{"@id":"node/2851303463","genus":"Cercis","natural":"tree","source":"opendata.paris.fr","id":"node/2851303463"},"geometry":{"type":"Point","coordinates":[2.3764065,48.8862861]},"id":"node/2851303463"},{"type":"Feature","properties":{"@id":"node/2851303465","genus":"Tilia","natural":"tree","source":"opendata.paris.fr","id":"node/2851303465"},"geometry":{"type":"Point","coordinates":[2.3761575,48.8862991]},"id":"node/2851303465"},{"type":"Feature","properties":{"@id":"node/2851303469","genus":"Populus","natural":"tree","source":"opendata.paris.fr","id":"node/2851303469"},"geometry":{"type":"Point","coordinates":[2.3766005,48.8863181]},"id":"node/2851303469"},{"type":"Feature","properties":{"@id":"node/2851303471","genus":"Tilia","natural":"tree","source":"opendata.paris.fr","id":"node/2851303471"},"geometry":{"type":"Point","coordinates":[2.3763555,48.8863311]},"id":"node/2851303471"},{"type":"Feature","properties":{"@id":"node/2851303473","genus":"Tilia","natural":"tree","source":"opendata.paris.fr","id":"node/2851303473"},"geometry":{"type":"Point","coordinates":[2.3762325,48.8863371]},"id":"node/2851303473"},{"type":"Feature","properties":{"@id":"node/2851303479","genus":"Populus","natural":"tree","source":"opendata.paris.fr","id":"node/2851303479"},"geometry":{"type":"Point","coordinates":[2.3766765,48.8863561]},"id":"node/2851303479"},{"type":"Feature","properties":{"@id":"node/2851303480","genus":"Tilia","natural":"tree","source":"opendata.paris.fr","id":"node/2851303480"},"geometry":{"type":"Point","coordinates":[2.3764285,48.8863671]},"id":"node/2851303480"},{"type":"Feature","properties":{"@id":"node/2851303482","genus":"Tilia","natural":"tree","source":"opendata.paris.fr","id":"node/2851303482"},"geometry":{"type":"Point","coordinates":[2.3763075,48.8863751]},"id":"node/2851303482"},{"type":"Feature","properties":{"@id":"node/2851305217","genus":"Liriodendron","natural":"tree","source":"opendata.paris.fr","id":"node/2851305217"},"geometry":{"type":"Point","coordinates":[2.3753654,48.8855676]},"id":"node/2851305217"},{"type":"Feature","properties":{"@id":"node/2851305223","genus":"Liriodendron","natural":"tree","source":"opendata.paris.fr","id":"node/2851305223"},"geometry":{"type":"Point","coordinates":[2.3754504,48.8856096]},"id":"node/2851305223"},{"type":"Feature","properties":{"@id":"node/2851305229","genus":"Liriodendron","natural":"tree","source":"opendata.paris.fr","id":"node/2851305229"},"geometry":{"type":"Point","coordinates":[2.3755384,48.8856536]},"id":"node/2851305229"},{"type":"Feature","properties":{"@id":"node/2851305246","genus":"Populus","natural":"tree","source":"opendata.paris.fr","id":"node/2851305246"},"geometry":{"type":"Point","coordinates":[2.3757425,48.8857541]},"id":"node/2851305246"},{"type":"Feature","properties":{"@id":"node/2851305252","genus":"Populus","natural":"tree","source":"opendata.paris.fr","id":"node/2851305252"},"geometry":{"type":"Point","coordinates":[2.3754424,48.8857816]},"id":"node/2851305252"},{"type":"Feature","properties":{"@id":"node/2851305253","genus":"Populus","natural":"tree","source":"opendata.paris.fr","id":"node/2851305253"},"geometry":{"type":"Point","coordinates":[2.3757995,48.8857821]},"id":"node/2851305253"},{"type":"Feature","properties":{"@id":"node/2851305254","genus":"Populus","natural":"tree","source":"opendata.paris.fr","id":"node/2851305254"},"geometry":{"type":"Point","coordinates":[2.3753914,48.8857896]},"id":"node/2851305254"},{"type":"Feature","properties":{"@id":"node/2851305256","genus":"Populus","natural":"tree","source":"opendata.paris.fr","id":"node/2851305256"},"geometry":{"type":"Point","coordinates":[2.3757455,48.8857931]},"id":"node/2851305256"},{"type":"Feature","properties":{"@id":"node/2851305261","genus":"Populus","natural":"tree","source":"opendata.paris.fr","id":"node/2851305261"},"geometry":{"type":"Point","coordinates":[2.3758155,48.8858271]},"id":"node/2851305261"},{"type":"Feature","properties":{"@id":"node/2851305262","genus":"Populus","natural":"tree","source":"opendata.paris.fr","id":"node/2851305262"},"geometry":{"type":"Point","coordinates":[2.3758895,48.8858271]},"id":"node/2851305262"},{"type":"Feature","properties":{"@id":"node/2851305270","genus":"Platanus","natural":"tree","source":"opendata.paris.fr","id":"node/2851305270"},"geometry":{"type":"Point","coordinates":[2.3755625,48.8858751]},"id":"node/2851305270"},{"type":"Feature","properties":{"@id":"node/2851305271","genus":"Populus","natural":"tree","source":"opendata.paris.fr","id":"node/2851305271"},"geometry":{"type":"Point","coordinates":[2.3757105,48.8858751]},"id":"node/2851305271"},{"type":"Feature","properties":{"@id":"node/2851305272","genus":"Populus","natural":"tree","source":"opendata.paris.fr","id":"node/2851305272"},"geometry":{"type":"Point","coordinates":[2.3759445,48.8858911]},"id":"node/2851305272"},{"type":"Feature","properties":{"@id":"node/2851305275","genus":"Populus","natural":"tree","source":"opendata.paris.fr","id":"node/2851305275"},"geometry":{"type":"Point","coordinates":[2.3757805,48.8859101]},"id":"node/2851305275"},{"type":"Feature","properties":{"@id":"node/2851305276","genus":"Populus","natural":"tree","source":"opendata.paris.fr","id":"node/2851305276"},"geometry":{"type":"Point","coordinates":[2.3760125,48.8859251]},"id":"node/2851305276"},{"type":"Feature","properties":{"@id":"node/2851305277","genus":"Populus","natural":"tree","source":"opendata.paris.fr","id":"node/2851305277"},"geometry":{"type":"Point","coordinates":[2.3760855,48.8859251]},"id":"node/2851305277"},{"type":"Feature","properties":{"@id":"node/2851305285","genus":"Populus","natural":"tree","source":"opendata.paris.fr","id":"node/2851305285"},"geometry":{"type":"Point","coordinates":[2.3761905,48.8859771]},"id":"node/2851305285"},{"type":"Feature","properties":{"@id":"node/2851305290","genus":"Tilia","natural":"tree","source":"opendata.paris.fr","id":"node/2851305290"},"geometry":{"type":"Point","coordinates":[2.3755585,48.8860001]},"id":"node/2851305290"},{"type":"Feature","properties":{"@id":"node/2851305293","genus":"Populus","natural":"tree","source":"opendata.paris.fr","id":"node/2851305293"},"geometry":{"type":"Point","coordinates":[2.3761955,48.8860161]},"id":"node/2851305293"},{"type":"Feature","properties":{"@id":"node/2851305296","genus":"Populus","natural":"tree","source":"opendata.paris.fr","id":"node/2851305296"},"geometry":{"type":"Point","coordinates":[2.3760065,48.8860221]},"id":"node/2851305296"},{"type":"Feature","properties":{"@id":"node/2851305300","genus":"Tilia","natural":"tree","source":"opendata.paris.fr","id":"node/2851305300"},"geometry":{"type":"Point","coordinates":[2.3756355,48.8860401]},"id":"node/2851305300"},{"type":"Feature","properties":{"@id":"node/2851305303","genus":"Populus","natural":"tree","source":"opendata.paris.fr","id":"node/2851305303"},"geometry":{"type":"Point","coordinates":[2.3762635,48.8860501]},"id":"node/2851305303"},{"type":"Feature","properties":{"@id":"node/2851305305","genus":"Populus","natural":"tree","source":"opendata.paris.fr","id":"node/2851305305"},"geometry":{"type":"Point","coordinates":[2.3760805,48.8860591]},"id":"node/2851305305"},{"type":"Feature","properties":{"@id":"node/2851305309","genus":"Platanus","natural":"tree","source":"opendata.paris.fr","id":"node/2851305309"},"geometry":{"type":"Point","coordinates":[2.3759645,48.8860731]},"id":"node/2851305309"},{"type":"Feature","properties":{"@id":"node/2851305310","genus":"Populus","natural":"tree","source":"opendata.paris.fr","id":"node/2851305310"},"geometry":{"type":"Point","coordinates":[2.3764035,48.8860821]},"id":"node/2851305310"},{"type":"Feature","properties":{"@id":"node/2851305315","genus":"Cercis","natural":"tree","source":"opendata.paris.fr","id":"node/2851305315"},"geometry":{"type":"Point","coordinates":[2.3760175,48.8861001]},"id":"node/2851305315"},{"type":"Feature","properties":{"@id":"node/2851305319","genus":"Cercis","natural":"tree","source":"opendata.paris.fr","id":"node/2851305319"},"geometry":{"type":"Point","coordinates":[2.3759245,48.8861101]},"id":"node/2851305319"},{"type":"Feature","properties":{"@id":"node/2851305321","genus":"Populus","natural":"tree","source":"opendata.paris.fr","id":"node/2851305321"},"geometry":{"type":"Point","coordinates":[2.3764705,48.8861161]},"id":"node/2851305321"},{"type":"Feature","properties":{"@id":"node/2851305323","genus":"Populus","natural":"tree","source":"opendata.paris.fr","id":"node/2851305323"},"geometry":{"type":"Point","coordinates":[2.3764095,48.8861221]},"id":"node/2851305323"},{"type":"Feature","properties":{"@id":"node/2851305329","genus":"Cercis","natural":"tree","source":"opendata.paris.fr","id":"node/2851305329"},"geometry":{"type":"Point","coordinates":[2.3759775,48.8861351]},"id":"node/2851305329"},{"type":"Feature","properties":{"@id":"node/2851305332","genus":"Tilia","natural":"tree","source":"opendata.paris.fr","id":"node/2851305332"},"geometry":{"type":"Point","coordinates":[2.3758585,48.8861511]},"id":"node/2851305332"},{"type":"Feature","properties":{"@id":"node/2851305334","genus":"Populus","natural":"tree","source":"opendata.paris.fr","id":"node/2851305334"},"geometry":{"type":"Point","coordinates":[2.3763065,48.8861721]},"id":"node/2851305334"},{"type":"Feature","properties":{"@id":"node/2851305335","genus":"Populus","natural":"tree","source":"opendata.paris.fr","id":"node/2851305335"},"geometry":{"type":"Point","coordinates":[2.3765095,48.8861731]},"id":"node/2851305335"},{"type":"Feature","properties":{"@id":"node/2851305336","genus":"Platanus","natural":"tree","source":"opendata.paris.fr","id":"node/2851305336"},"geometry":{"type":"Point","coordinates":[2.3765905,48.8861761]},"id":"node/2851305336"},{"type":"Feature","properties":{"@id":"node/2851305338","genus":"Tilia","natural":"tree","source":"opendata.paris.fr","id":"node/2851305338"},"geometry":{"type":"Point","coordinates":[2.3759335,48.8861891]},"id":"node/2851305338"},{"type":"Feature","properties":{"@id":"node/2851305340","genus":"Populus","natural":"tree","source":"opendata.paris.fr","id":"node/2851305340"},"geometry":{"type":"Point","coordinates":[2.3763765,48.8862071]},"id":"node/2851305340"},{"type":"Feature","properties":{"@id":"node/2851305342","genus":"Platanus","natural":"tree","source":"opendata.paris.fr","id":"node/2851305342"},"geometry":{"type":"Point","coordinates":[2.3766645,48.8862131]},"id":"node/2851305342"},{"type":"Feature","properties":{"@id":"node/9924436013","amenity":"bench","backrest":"yes","material":"wood","id":"node/9924436013"},"geometry":{"type":"Point","coordinates":[2.3758044,48.8859622]},"id":"node/9924436013"},{"type":"Feature","properties":{"@id":"node/12021738865","highway":"street_lamp","id":"node/12021738865"},"geometry":{"type":"Point","coordinates":[2.3755265,48.885977]},"id":"node/12021738865"},{"type":"Feature","properties":{"@id":"node/12021738866","highway":"street_lamp","id":"node/12021738866"},"geometry":{"type":"Point","coordinates":[2.3757428,48.8860964]},"id":"node/12021738866"},{"type":"Feature","properties":{"@id":"node/12021738867","highway":"street_lamp","id":"node/12021738867"},"geometry":{"type":"Point","coordinates":[2.3760472,48.8862441]},"id":"node/12021738867"},{"type":"Feature","properties":{"@id":"node/12021738868","highway":"street_lamp","id":"node/12021738868"},"geometry":{"type":"Point","coordinates":[2.3762693,48.8863558]},"id":"node/12021738868"},{"type":"Feature","properties":{"@id":"node/12543567873","amenity":"bench","backrest":"yes","material":"wood","id":"node/12543567873"},"geometry":{"type":"Point","coordinates":[2.3760841,48.8859628]},"id":"node/12543567873"},{"type":"Feature","properties":{"@id":"node/12543571847","amenity":"bench","backrest":"yes","material":"wood","id":"node/12543571847"},"geometry":{"type":"Point","coordinates":[2.3762334,48.8860363]},"id":"node/12543571847"},{"type":"Feature","properties":{"@id":"node/12543585597","amenity":"bench","backrest":"yes","material":"wood","id":"node/12543585597"},"geometry":{"type":"Point","coordinates":[2.3763014,48.8860675]},"id":"node/12543585597"},{"type":"Feature","properties":{"@id":"node/12543593496","amenity":"bench","backrest":"yes","material":"wood","id":"node/12543593496"},"geometry":{"type":"Point","coordinates":[2.3761417,48.8859935]},"id":"node/12543593496"},{"type":"Feature","properties":{"@id":"node/12543593770","amenity":"bench","backrest":"yes","material":"wood","id":"node/12543593770"},"geometry":{"type":"Point","coordinates":[2.3759858,48.8859202]},"id":"node/12543593770"},{"type":"Feature","properties":{"@id":"node/12543594068","amenity":"bench","backrest":"yes","material":"wood","id":"node/12543594068"},"geometry":{"type":"Point","coordinates":[2.3760261,48.8859368]},"id":"node/12543594068"},{"type":"Feature","properties":{"@id":"node/12543614520","amenity":"bench","backrest":"yes","material":"wood","id":"node/12543614520"},"geometry":{"type":"Point","coordinates":[2.3758452,48.8858524]},"id":"node/12543614520"},{"type":"Feature","properties":{"@id":"node/12543615031","amenity":"bench","backrest":"yes","material":"wood","id":"node/12543615031"},"geometry":{"type":"Point","coordinates":[2.3758934,48.8858707]},"id":"node/12543615031"},{"type":"Feature","properties":{"@id":"node/12603945148","amenity":"bench","backrest":"yes","id":"node/12603945148"},"geometry":{"type":"Point","coordinates":[2.3760758,48.8860921]},"id":"node/12603945148"},{"type":"Feature","properties":{"@id":"node/12603947486","amenity":"bench","backrest":"yes","id":"node/12603947486"},"geometry":{"type":"Point","coordinates":[2.3762051,48.8861547]},"id":"node/12603947486"},{"type":"Feature","properties":{"@id":"node/12603950444","amenity":"bench","backrest":"yes","id":"node/12603950444"},"geometry":{"type":"Point","coordinates":[2.3758397,48.8859765]},"id":"node/12603950444"},{"type":"Feature","properties":{"@id":"node/12603951673","amenity":"bench","backrest":"yes","id":"node/12603951673"},"geometry":{"type":"Point","coordinates":[2.3759374,48.8860129]},"id":"node/12603951673"},{"type":"Feature","properties":{"@id":"node/12603951674","amenity":"bench","backrest":"yes","id":"node/12603951674"},"geometry":{"type":"Point","coordinates":[2.3761636,48.8861329]},"id":"node/12603951674"},{"type":"Feature","properties":{"@id":"node/12603959687","amenity":"bench","backrest":"yes","id":"node/12603959687"},"geometry":{"type":"Point","coordinates":[2.376116,48.8861073]},"id":"node/12603959687"},{"type":"Feature","properties":{"@id":"node/12603964056","amenity":"waste_basket","id":"node/12603964056"},"geometry":{"type":"Point","coordinates":[2.3756079,48.8858244]},"id":"node/12603964056"},{"type":"Feature","properties":{"@id":"node/12603976513","amenity":"waste_basket","id":"node/12603976513"},"geometry":{"type":"Point","coordinates":[2.3757161,48.8860971]},"id":"node/12603976513"},{"type":"Feature","properties":{"@id":"node/12603978402","amenity":"bench","backrest":"yes","id":"node/12603978402"},"geometry":{"type":"Point","coordinates":[2.3759011,48.8859974]},"id":"node/12603978402"}]}