{"type":"FeatureCollection","features":[{"type":"Feature","properties":{"@id":"way/64039077","architect":"F. Amigues","building":"yes","building:levels":"7","source":"cadastre-dgi-fr source : Direction Générale des Impôts - Cadastre. Mise à jour : 2010","start_date":"1891","id":"way/64039077"},"geometry":{"type":"Polygon","coordinates":[[[2.3722586,48.8865021],[2.3722831,48.8864911],[2.372296,48.8865038],[2.3721331,48.886574],[2.3720846,48.8865344],[2.372062,48.8865159],[2.3721337,48.8864782],[2.3720867,48.8864405],[2.3721468,48.8864121],[2.3722586,48.8865021]]]},"id":"way/64039077"},{"type":"Feature","properties":{"@id":"way/64040281","building":"yes","building:levels":"15","layer":"1","source":"cadastre-dgi-fr source : Direction Générale des Impôts - Cadastre. Mise à jour : 2010","id":"way/64040281"},"geometry":{"type":"Polygon","coordinates":[[[2.3715859,48.8871458],[2.3717512,48.8870952],[2.3717777,48.8871308],[2.3717898,48.8871273],[2.3718035,48.8871466],[2.3718127,48.8871595],[2.3717693,48.8871727],[2.3717752,48.8871817],[2.3716729,48.887213],[2.3716661,48.887204],[2.3716228,48.8872176],[2.3716121,48.8872028],[2.3715996,48.8871854],[2.3716115,48.8871814],[2.3715859,48.8871458]]]},"id":"way/64040281"},{"type":"Feature","properties":{"@id":"way/74864079","highway":"footway","lit":"yes","name":"Allées Jacques Brel","name:etymology:wikidata":"Q1666","surface":"asphalt","id":"way/74864079"},"geometry":{"type":"LineString","coordinates":[[2.3708011,48.8857927],[2.3708958,48.8858703],[2.3709606,48.8859233],[2.3716565,48.8864935],[2.3726048,48.8872759],[2.3732928,48.8878482],[2.3738463,48.8883087],[2.3739069,48.8882789]]},"id":"way/74864079"},{"type":"Feature","properties":{"@id":"way/124082229","access":"private","highway":"footway","tunnel":"building_passage","id":"way/124082229"},"geometry":{"type":"LineString","coordinates":[[2.3725717,48.8868901],[2.3728085,48.886792]]},"id":"way/124082229"},{"type":"Feature","properties":{"@id":"way/653575616","bicycle:lanes":"yes|designated","busway:right":"lane","cycleway:left":"separate","cycleway:right":"share_busway","dual_carriageway":"yes","highway":"primary","lanes":"2","lit":"yes","maxspeed":"30","name":"Avenue de Flandre","name:etymology:wikidata":"Q157070","oneway":"yes","psv:lanes":"yes|designated","sidewalk:both":"separate","smoothness":"good","surface":"asphalt","id":"way/653575616"},"geometry":{"type":"LineString","coordinates":[[2.3738691,48.8884648],[2.3737549,48.8883578],[2.3735759,48.8882212],[2.3731819,48.8879074],[2.3731364,48.887871],[2.3730198,48.8877785],[2.372735,48.887544],[2.3725292,48.8873747],[2.3724846,48.887338],[2.3721333,48.8870478],[2.3715939,48.8865832],[2.3715539,48.8865488],[2.3710389,48.886131],[2.3709925,48.8860947],[2.3708286,48.8859579],[2.3707879,48.8859239],[2.3706416,48.8858084],[2.3705098,48.885708],[2.369887,48.8852036],[2.369216,48.8846725],[2.3691285,48.8845989]]},"id":"way/653575616"},{"type":"Feature","properties":{"@id":"way/653575617","bicycle:lanes":"yes|designated","busway:right":"lane","cycleway:left":"separate","cycleway:right":"share_busway","dual_carriageway":"yes","highway":"primary","lanes":"2","lit":"yes","maxspeed":"30","name":"Avenue de Flandre","name:etymology:wikidata":"Q157070","oneway":"yes","psv:lanes":"yes|designated","sidewalk:both":"separate","surface":"asphalt","id":"way/653575617"},"geometry":{"type":"LineString","coordinates":[[2.369196,48.884378],[2.369336,48.884488],[2.3695439,48.8846404],[2.3700949,48.8850906],[2.3707152,48.885599],[2.3708431,48.8857016],[2.3709501,48.8857877],[2.3710564,48.8858732],[2.3712135,48.8860005],[2.3716945,48.8863939],[2.3717371,48.8864287],[2.3724165,48.8869777],[2.3725257,48.8870627],[2.3726671,48.887179],[2.372717,48.8872201],[2.3728698,48.8873428],[2.3733593,48.8877565],[2.3734027,48.8877917],[2.3735183,48.8878856],[2.3739705,48.8882666]]},"id":"way/653575617"},{"type":"Feature","properties":{"@id":"way/744744226","cycleway":"on_street","foot":"no","highway":"cycleway","lit":"yes","name":"Avenue de Flandre","name:etymology:wikidata":"Q157070","oneway":"yes","source":"Observations personnelles","surface":"asphalt","id":"way/744744226"},"geometry":{"type":"LineString","coordinates":[[2.3814641,48.8944376],[2.3814462,48.8943459],[2.3814043,48.8943075],[2.3813899,48.8942964],[2.3800172,48.8932319],[2.3798984,48.8931443],[2.3797781,48.893049],[2.3791037,48.8925261],[2.3789449,48.892403],[2.3787816,48.8922789],[2.3775213,48.8913112],[2.3773992,48.8912156],[2.3772882,48.8911323],[2.3768654,48.8908023],[2.376708,48.8906795],[2.3765757,48.8905772],[2.376554,48.8905603],[2.3764895,48.8905121],[2.3764322,48.8904659],[2.3754103,48.889652],[2.3748301,48.8891897],[2.3740798,48.8885918],[2.3740768,48.8885893],[2.3740238,48.8885409],[2.3739178,48.888447],[2.3737893,48.8883387],[2.3732353,48.8878824],[2.3731875,48.887843],[2.3725389,48.8873099],[2.3725375,48.8873089],[2.3715908,48.8865301],[2.3710781,48.8861087],[2.3708287,48.8859036],[2.370679,48.8857883],[2.3705507,48.8856863],[2.3699252,48.8851828],[2.3691714,48.884576],[2.369165,48.8845719],[2.3689748,48.8844707]]},"id":"way/744744226"},{"type":"Feature","properties":{"@id":"way/757091422","cycleway":"on_street","foot":"no","highway":"cycleway","lit":"yes","name":"Avenue de Flandre","name:etymology:wikidata":"Q157070","oneway":"yes","smoothness":"good","source":"Observations personnelles","surface":"asphalt","width":"1.5","id":"way/757091422"},"geometry":{"type":"LineString","coordinates":[[2.3690298,48.8842113],[2.3690356,48.8842912],[2.3691542,48.8843955],[2.3692977,48.8845085],[2.3700521,48.8851139],[2.3706788,48.8856183],[2.3708045,48.8857217],[2.3710197,48.8858924],[2.3716959,48.886448],[2.3726652,48.8872446],[2.3733175,48.8877802],[2.3733585,48.887814],[2.3739196,48.8882764],[2.3740666,48.8883927],[2.3742178,48.8885132],[2.3742208,48.8885156],[2.3749298,48.8890822],[2.375548,48.8895762],[2.376673,48.8904751],[2.3766878,48.8904868],[2.3768149,48.8905868],[2.3769861,48.8907181],[2.3769973,48.8907268],[2.3774113,48.8910597],[2.3775216,48.891148],[2.3776526,48.8912393],[2.37891,48.8922066],[2.3790698,48.8923365],[2.3792332,48.8924547],[2.3799072,48.8929747],[2.3800245,48.8930705],[2.3801456,48.8931594],[2.381514,48.8942283],[2.3815309,48.8942415],[2.3815897,48.8942855],[2.3817076,48.8943154]]},"id":"way/757091422"},{"type":"Feature","properties":{"@id":"way/1192455991","footway":"sidewalk","highway":"footway","id":"way/1192455991"},"geometry":{"type":"LineString","coordinates":[[2.3727881,48.8871811],[2.3727572,48.8871149],[2.372624,48.8870086],[2.3718377,48.8863814]]},"id":"way/1192455991"},{"type":"Feature","properties":{"@id":"way/1192456000","footway":"sidewalk","highway":"footway","lit":"yes","id":"way/1192456000"},"geometry":{"type":"LineString","coordinates":[[2.3714391,48.8866071],[2.370939,48.886183],[2.3706992,48.885968],[2.3707425,48.8859464]]},"id":"way/1192456000"},{"type":"Feature","properties":{"@id":"way/1192456001","footway":"sidewalk","highway":"footway","id":"way/1192456001"},"geometry":{"type":"LineString","coordinates":[[2.3724026,48.8873804],[2.3720263,48.887079],[2.3714391,48.8866071],[2.3715066,48.8865729]]},"id":"way/1192456001"},{"type":"Feature","properties":{"@id":"way/1193527240","footway":"sidewalk","highway":"footway","lit":"yes","surface":"paving_stones","id":"way/1193527240"},"geometry":{"type":"LineString","coordinates":[[2.3725486,48.8873049],[2.3726048,48.8872759],[2.3726545,48.8872502]]},"id":"way/1193527240"},{"type":"Feature","properties":{"@id":"way/1193527243","footway":"sidewalk","highway":"footway","lit":"yes","id":"way/1193527243"},"geometry":{"type":"LineString","coordinates":[[2.3716012,48.8865248],[2.3716565,48.8864935],[2.3716855,48.8864529]]},"id":"way/1193527243"},{"type":"Feature","properties":{"@id":"way/1193527244","crossing":"traffic_signals","crossing:markings":"zebra","crossing:signals":"yes","footway":"crossing","highway":"footway","lit":"yes","traffic_signals:sound":"yes","id":"way/1193527244"},"geometry":{"type":"LineString","coordinates":[[2.3716012,48.8865248],[2.3715908,48.8865301],[2.3715539,48.8865488],[2.3715066,48.8865729]]},"id":"way/1193527244"},{"type":"Feature","properties":{"@id":"way/1193527245","crossing":"traffic_signals","crossing:markings":"zebra","crossing:signals":"yes","footway":"crossing","highway":"footway","lit":"yes","traffic_signals:sound":"yes","id":"way/1193527245"},"geometry":{"type":"LineString","coordinates":[[2.3717864,48.8864056],[2.3717371,48.8864287],[2.3716959,48.886448],[2.3716855,48.8864529]]},"id":"way/1193527245"},{"type":"Feature","properties":{"@id":"way/1225657433","footway":"sidewalk","highway":"footway","id":"way/1225657433"},"geometry":{"type":"LineString","coordinates":[[2.3718377,48.8863814],[2.3717864,48.8864056]]},"id":"way/1225657433"},{"type":"Feature","properties":{"@id":"node/6095586793","addr:city":"Paris","addr:housenumber":"34","addr:postcode":"75019","addr:street":"Avenue de Flandre","name":"Moincherparfum","shop":"cosmetics","id":"node/6095586793"},"geometry":{"type":"Point","coordinates":[2.3719861,48.8864112]},"id":"node/6095586793"},{"type":"Feature","properties":{"@id":"node/6095586794","addr:city":"Paris","addr:housenumber":"40","addr:postcode":"75019","addr:street":"Avenue de Flandre","check_date":"2026-02-17","female":"yes","name":"O’Carré Beauté","opening_hours":"Mo-Su 10:00-20:00","ref:FR:SIRET":"98466420100014","shop":"hairdresser","id":"node/6095586794"},"geometry":{"type":"Point","coordinates":[2.3724286,48.8867701]},"id":"node/6095586794"},{"type":"Feature","properties":{"@id":"node/6095596490","addr:full":"34 Avenue de Flandre 75019 Paris","check_date":"2026-02-17","name":"Isoptic Flandre","opening_hours":"Mo-Th 10:00-19:00; Fr 10:00-15:00","shop":"optician","id":"node/6095596490"},"geometry":{"type":"Point","coordinates":[2.3720638,48.8864711]},"id":"node/6095596490"},{"type":"Feature","properties":{"@id":"node/6095596491","addr:city":"Paris","addr:housenumber":"36","addr:postcode":"75019","addr:street":"Avenue de Flandre","name":"La Caverne","shop":"variety_store","id":"node/6095596491"},"geometry":{"type":"Point","coordinates":[2.3721403,48.8865382]},"id":"node/6095596491"},{"type":"Feature","properties":{"@id":"node/6095596492","addr:city":"Paris","addr:housenumber":"38","addr:postcode":"75019","addr:street":"Avenue de Flandre","check_date":"2026-02-17","name":"Nina Bazar","shop":"variety_store","id":"node/6095596492"},"geometry":{"type":"Point","coordinates":[2.3722596,48.8866369]},"id":"node/6095596492"},{"type":"Feature","properties":{"@id":"node/6095596493","addr:city":"Paris","addr:housenumber":"40","addr:postcode":"75019","addr:street":"Avenue de Flandre","brand":"E. Leclerc","brand:wikidata":"Q1273376","check_date":"2026-02-17","name":"E. Leclerc Relais","shop":"outpost","website":"https://www.leclercdrive.fr/","id":"node/6095596493"},"geometry":{"type":"Point","coordinates":[2.3723401,48.8866978]},"id":"node/6095596493"},{"type":"Feature","properties":{"@id":"node/6095596988","addr:city":"Paris","addr:housenumber":"38","addr:postcode":"75019","addr:street":"Avenue de Flandre","name":"Khalsa Textile","ref:FR:SIRET":"49895626700013","shop":"clothes","id":"node/6095596988"},"geometry":{"type":"Point","coordinates":[2.3721939,48.8865858]},"id":"node/6095596988"},{"type":"Feature","properties":{"@id":"node/6095596989","addr:city":"Paris","addr:housenumber":"42","addr:postcode":"75019","addr:street":"Avenue de Flandre","check_date":"2026-02-17","name":"Royal Tattoo","shop":"tattoo","id":"node/6095596989"},"geometry":{"type":"Point","coordinates":[2.3725077,48.8868239]},"id":"node/6095596989"},{"type":"Feature","properties":{"@id":"node/12021738595","highway":"street_lamp","id":"node/12021738595"},"geometry":{"type":"Point","coordinates":[2.3725715,48.8871959]},"id":"node/12021738595"},{"type":"Feature","properties":{"@id":"node/12021738596","highway":"street_lamp","id":"node/12021738596"},"geometry":{"type":"Point","coordinates":[2.3724901,48.8872405]},"id":"node/12021738596"},{"type":"Feature","properties":{"@id":"node/12021738597","highway":"street_lamp","id":"node/12021738597"},"geometry":{"type":"Point","coordinates":[2.3724326,48.887085]},"id":"node/12021738597"},{"type":"Feature","properties":{"@id":"node/12021738598","highway":"street_lamp","id":"node/12021738598"},"geometry":{"type":"Point","coordinates":[2.3723547,48.8871261]},"id":"node/12021738598"},{"type":"Feature","properties":{"@id":"node/12021738599","highway":"street_lamp","id":"node/12021738599"},"geometry":{"type":"Point","coordinates":[2.3722321,48.8870264]},"id":"node/12021738599"},{"type":"Feature","properties":{"@id":"node/12021738600","highway":"street_lamp","id":"node/12021738600"},"geometry":{"type":"Point","coordinates":[2.3723099,48.8869834]},"id":"node/12021738600"},{"type":"Feature","properties":{"@id":"node/12021738601","amenity":"bench","backrest":"yes","material":"wood","id":"node/12021738601"},"geometry":{"type":"Point","coordinates":[2.3721812,48.8869875]},"id":"node/12021738601"},{"type":"Feature","properties":{"@id":"node/12021738602","highway":"street_lamp","id":"node/12021738602"},"geometry":{"type":"Point","coordinates":[2.37199,48.8868269]},"id":"node/12021738602"},{"type":"Feature","properties":{"@id":"node/12021738603","highway":"street_lamp","id":"node/12021738603"},"geometry":{"type":"Point","coordinates":[2.3720685,48.8867846]},"id":"node/12021738603"},{"type":"Feature","properties":{"@id":"node/12021738604","highway":"street_lamp","id":"node/12021738604"},"geometry":{"type":"Point","coordinates":[2.3719325,48.8866727]},"id":"node/12021738604"},{"type":"Feature","properties":{"@id":"node/12021738605","highway":"street_lamp","id":"node/12021738605"},"geometry":{"type":"Point","coordinates":[2.371852,48.8867129]},"id":"node/12021738605"},{"type":"Feature","properties":{"@id":"node/12021738606","highway":"street_lamp","id":"node/12021738606"},"geometry":{"type":"Point","coordinates":[2.371806,48.8865673]},"id":"node/12021738606"},{"type":"Feature","properties":{"@id":"node/12021738607","highway":"street_lamp","id":"node/12021738607"},"geometry":{"type":"Point","coordinates":[2.3717273,48.8866101]},"id":"node/12021738607"},{"type":"Feature","properties":{"@id":"node/12021738622","highway":"street_lamp","id":"node/12021738622"},"geometry":{"type":"Point","coordinates":[2.3714695,48.8863971]},"id":"node/12021738622"},{"type":"Feature","properties":{"@id":"node/12021738623","highway":"street_lamp","id":"node/12021738623"},"geometry":{"type":"Point","coordinates":[2.3714859,48.8867069]},"id":"node/12021738623"},{"type":"Feature","properties":{"@id":"node/12021738624","highway":"street_lamp","id":"node/12021738624"},"geometry":{"type":"Point","coordinates":[2.37137,48.8866106]},"id":"node/12021738624"},{"type":"Feature","properties":{"@id":"node/12021738625","highway":"street_lamp","id":"node/12021738625"},"geometry":{"type":"Point","coordinates":[2.3721918,48.8868852]},"id":"node/12021738625"},{"type":"Feature","properties":{"@id":"node/12021738626","highway":"street_lamp","id":"node/12021738626"},"geometry":{"type":"Point","coordinates":[2.3721126,48.8869256]},"id":"node/12021738626"},{"type":"Feature","properties":{"@id":"node/12021738627","highway":"street_lamp","id":"node/12021738627"},"geometry":{"type":"Point","coordinates":[2.3719751,48.8870004]},"id":"node/12021738627"},{"type":"Feature","properties":{"@id":"node/12749460570","highway":"street_lamp","id":"node/12749460570"},"geometry":{"type":"Point","coordinates":[2.3721044,48.8866312]},"id":"node/12749460570"},{"type":"Feature","properties":{"@id":"node/12749460571","highway":"street_lamp","id":"node/12749460571"},"geometry":{"type":"Point","coordinates":[2.3719167,48.8864749]},"id":"node/12749460571"},{"type":"Feature","properties":{"@id":"node/12749460572","highway":"street_lamp","id":"node/12749460572"},"geometry":{"type":"Point","coordinates":[2.3723012,48.886793]},"id":"node/12749460572"},{"type":"Feature","properties":{"@id":"node/12749460573","highway":"street_lamp","id":"node/12749460573"},"geometry":{"type":"Point","coordinates":[2.3724964,48.8869529]},"id":"node/12749460573"}]}