{"type":"FeatureCollection","features":[{"type":"Feature","properties":{"@id":"way/63971270","building":"apartments","building:levels":"11","source":"cadastre-dgi-fr source : Direction Générale des Impôts - Cadastre. Mise à jour : 2010","id":"way/63971270"},"geometry":{"type":"Polygon","coordinates":[[[2.3812699,48.8884934],[2.3813691,48.8885422],[2.3814098,48.8885062],[2.3814645,48.8885331],[2.3814235,48.8885692],[2.3814345,48.8885746],[2.3811382,48.8888342],[2.3810094,48.8887704],[2.3810358,48.8887475],[2.381001,48.8887302],[2.3812699,48.8884934]]]},"id":"way/63971270"},{"type":"Feature","properties":{"@id":"way/63971337","building":"yes","building:levels":"1","source":"cadastre-dgi-fr source : Direction Générale des Impôts - Cadastre. Mise à jour : 2010","id":"way/63971337"},"geometry":{"type":"Polygon","coordinates":[[[2.3819419,48.8889189],[2.3820019,48.8888665],[2.3820263,48.8888794],[2.3820058,48.8888978],[2.3820485,48.8889194],[2.3820112,48.8889527],[2.3819419,48.8889189]]]},"id":"way/63971337"},{"type":"Feature","properties":{"@id":"way/63971390","building":"yes","building:levels":"5","source":"cadastre-dgi-fr source : Direction Générale des Impôts - Cadastre. Mise à jour : 2010","id":"way/63971390"},"geometry":{"type":"Polygon","coordinates":[[[2.3816757,48.8883907],[2.3814392,48.8882887],[2.3814349,48.8882866],[2.38149,48.8882324],[2.3814953,48.8882272],[2.381663,48.8883001],[2.3816798,48.8882813],[2.3816013,48.888249],[2.3816091,48.8882399],[2.381709,48.8882795],[2.3817607,48.8883],[2.3816757,48.8883907]]]},"id":"way/63971390"},{"type":"Feature","properties":{"@id":"way/63971486","building":"apartments","building:levels":"6","source":"cadastre-dgi-fr source : Direction Générale des Impôts - Cadastre. Mise à jour : 2010","id":"way/63971486"},"geometry":{"type":"Polygon","coordinates":[[[2.3816701,48.8887164],[2.381472,48.8886181],[2.3815717,48.8885271],[2.3817726,48.888627],[2.3816701,48.8887164]]]},"id":"way/63971486"},{"type":"Feature","properties":{"@id":"way/22690184","cycleway:left":"track","cycleway:left:oneway":"-1","cycleway:right":"no","highway":"residential","lit":"yes","maxspeed":"30","name":"Rue Evette","name:etymology:wikidata":"Q291404","oneway":"yes","oneway:bicycle":"no","sidewalk:both":"separate","surface":"sett","id":"way/22690184"},"geometry":{"type":"LineString","coordinates":[[2.3813374,48.8883195],[2.3812947,48.8883571],[2.3811312,48.8885012],[2.3808795,48.8887231],[2.3808282,48.8887682]]},"id":"way/22690184"},{"type":"Feature","properties":{"@id":"way/22690209","cycleway:both":"no","highway":"residential","lit":"yes","maxspeed":"30","name":"Rue de Thionville","name:etymology:wikidata":"Q22640","oneway":"yes","oneway:bicycle":"no","sidewalk:both":"separate","surface":"asphalt","id":"way/22690209"},"geometry":{"type":"LineString","coordinates":[[2.3836975,48.8893598],[2.3835066,48.8892688],[2.3817676,48.8884945],[2.3816842,48.8884573],[2.3816155,48.8884298],[2.3813374,48.8883195],[2.3812202,48.8882581],[2.3809707,48.8880623],[2.3803749,48.8876121],[2.3803214,48.8875716]]},"id":"way/22690209"},{"type":"Feature","properties":{"@id":"way/22690214","highway":"residential","maxspeed":"30","name":"Passage de Thionville","name:etymology:wikidata":"Q22640","oneway":"yes","oneway:bicycle":"no","sidewalk:both":"separate","surface":"asphalt","id":"way/22690214"},"geometry":{"type":"LineString","coordinates":[[2.3823888,48.8876693],[2.3823605,48.8877169],[2.381736,48.8883996],[2.3816842,48.8884573]]},"id":"way/22690214"},{"type":"Feature","properties":{"@id":"way/64609502","cycleway:both":"no","highway":"residential","lit":"yes","maxspeed":"30","name":"Rue de Colmar","name:etymology:wikidata":"Q130994","oneway":"yes","oneway:bicycle":"no","sidewalk:both":"separate","surface":"asphalt","id":"way/64609502"},"geometry":{"type":"LineString","coordinates":[[2.3804879,48.8881857],[2.3810681,48.8884703],[2.3811312,48.8885012]]},"id":"way/64609502"},{"type":"Feature","properties":{"@id":"way/1193515319","footway":"sidewalk","highway":"footway","surface":"asphalt","id":"way/1193515319"},"geometry":{"type":"LineString","coordinates":[[2.3809342,48.8887529],[2.3814945,48.8890245],[2.3817413,48.889151],[2.3822247,48.8893931],[2.3825855,48.8895871]]},"id":"way/1193515319"},{"type":"Feature","properties":{"@id":"way/1193515320","footway":"sidewalk","highway":"footway","lit":"yes","surface":"asphalt","id":"way/1193515320"},"geometry":{"type":"LineString","coordinates":[[2.3813436,48.8883792],[2.3809597,48.8887158],[2.3809342,48.8887529]]},"id":"way/1193515320"},{"type":"Feature","properties":{"@id":"way/1193515324","footway":"sidewalk","highway":"footway","surface":"asphalt","id":"way/1193515324"},"geometry":{"type":"LineString","coordinates":[[2.381809,48.8884566],[2.383131,48.8890293],[2.3833613,48.8891351],[2.3835773,48.8892411],[2.3836902,48.8892553],[2.383714,48.8892674]]},"id":"way/1193515324"},{"type":"Feature","properties":{"@id":"way/1193515326","footway":"sidewalk","highway":"footway","surface":"asphalt","id":"way/1193515326"},"geometry":{"type":"LineString","coordinates":[[2.3824044,48.8877337],[2.3817771,48.8884171],[2.381809,48.8884566],[2.3817895,48.8884742]]},"id":"way/1193515326"},{"type":"Feature","properties":{"@id":"way/1193515329","footway":"sidewalk","highway":"footway","lit":"yes","surface":"asphalt","id":"way/1193515329"},"geometry":{"type":"LineString","coordinates":[[2.3810392,48.888049],[2.3810627,48.8880692],[2.3812644,48.8882222],[2.3816561,48.8883898]]},"id":"way/1193515329"},{"type":"Feature","properties":{"@id":"way/1193515377","footway":"sidewalk","highway":"footway","lit":"yes","smoothness":"good","surface":"asphalt","id":"way/1193515377"},"geometry":{"type":"LineString","coordinates":[[2.3810415,48.8884943],[2.3804641,48.8882062],[2.3799945,48.8879727]]},"id":"way/1193515377"},{"type":"Feature","properties":{"@id":"way/1193515378","footway":"sidewalk","highway":"footway","lit":"yes","surface":"asphalt","id":"way/1193515378"},"geometry":{"type":"LineString","coordinates":[[2.380832,48.8886988],[2.3810382,48.8885239],[2.3810415,48.8884943],[2.3810476,48.8884874]]},"id":"way/1193515378"},{"type":"Feature","properties":{"@id":"way/1193515380","footway":"sidewalk","highway":"footway","lit":"yes","surface":"asphalt","id":"way/1193515380"},"geometry":{"type":"LineString","coordinates":[[2.3797641,48.8881765],[2.3802373,48.8884016],[2.3807847,48.888677],[2.380832,48.8886988],[2.3808419,48.8887039]]},"id":"way/1193515380"},{"type":"Feature","properties":{"@id":"way/1193515385","footway":"sidewalk","highway":"footway","lit":"yes","surface":"asphalt","id":"way/1193515385"},"geometry":{"type":"LineString","coordinates":[[2.3812443,48.8883343],[2.381235,48.888353],[2.3811451,48.8884281],[2.381108,48.8884366],[2.381103,48.8884411]]},"id":"way/1193515385"},{"type":"Feature","properties":{"@id":"way/1193515386","footway":"sidewalk","highway":"footway","lit":"yes","surface":"asphalt","id":"way/1193515386"},"geometry":{"type":"LineString","coordinates":[[2.3811921,48.8882805],[2.381234,48.8883141],[2.3812443,48.8883343]]},"id":"way/1193515386"},{"type":"Feature","properties":{"@id":"way/1193515387","footway":"sidewalk","highway":"footway","lit":"yes","smoothness":"good","surface":"asphalt","id":"way/1193515387"},"geometry":{"type":"LineString","coordinates":[[2.3803449,48.8876374],[2.3811921,48.8882805]]},"id":"way/1193515387"},{"type":"Feature","properties":{"@id":"way/1193515391","footway":"sidewalk","highway":"footway","lit":"yes","smoothness":"good","surface":"asphalt","id":"way/1193515391"},"geometry":{"type":"LineString","coordinates":[[2.381108,48.8884366],[2.3800586,48.8879145],[2.3800488,48.8878703],[2.3800429,48.8878665]]},"id":"way/1193515391"},{"type":"Feature","properties":{"@id":"way/1193527343","crossing":"uncontrolled","crossing:markings":"zebra","crossing:signals":"no","footway":"crossing","highway":"footway","lit":"yes","surface":"sett","id":"way/1193527343"},"geometry":{"type":"LineString","coordinates":[[2.3808419,48.8887039],[2.3808795,48.8887231],[2.3809232,48.8887458]]},"id":"way/1193527343"},{"type":"Feature","properties":{"@id":"way/1193527344","crossing":"uncontrolled","crossing:markings":"yes","footway":"crossing","highway":"footway","lit":"yes","surface":"asphalt","id":"way/1193527344"},"geometry":{"type":"LineString","coordinates":[[2.381103,48.8884411],[2.3810681,48.8884703],[2.3810476,48.8884874]]},"id":"way/1193527344"},{"type":"Feature","properties":{"@id":"way/1193527345","crossing":"uncontrolled","crossing:markings":"yes","footway":"crossing","highway":"footway","surface":"asphalt","id":"way/1193527345"},"geometry":{"type":"LineString","coordinates":[[2.3817895,48.8884742],[2.3817676,48.8884945],[2.38175,48.8885108]]},"id":"way/1193527345"},{"type":"Feature","properties":{"@id":"way/1193527346","crossing":"uncontrolled","crossing:markings":"yes","footway":"crossing","highway":"footway","surface":"asphalt","id":"way/1193527346"},"geometry":{"type":"LineString","coordinates":[[2.381701,48.8883862],[2.381736,48.8883996],[2.3817667,48.8884114]]},"id":"way/1193527346"},{"type":"Feature","properties":{"@id":"way/1193527347","crossing":"uncontrolled","crossing:markings":"yes","footway":"crossing","highway":"footway","surface":"asphalt","id":"way/1193527347"},"geometry":{"type":"LineString","coordinates":[[2.3816507,48.888396],[2.3816155,48.8884298],[2.3816004,48.8884442]]},"id":"way/1193527347"},{"type":"Feature","properties":{"@id":"way/1193527348","crossing":"uncontrolled","crossing:markings":"yes","footway":"crossing","highway":"footway","lit":"yes","surface":"asphalt","id":"way/1193527348"},"geometry":{"type":"LineString","coordinates":[[2.3812538,48.8883389],[2.3812947,48.8883571],[2.3813409,48.8883777]]},"id":"way/1193527348"},{"type":"Feature","properties":{"@id":"way/1193527349","crossing":"uncontrolled","crossing:markings":"yes","footway":"crossing","highway":"footway","lit":"yes","surface":"asphalt","id":"way/1193527349"},"geometry":{"type":"LineString","coordinates":[[2.3812578,48.888228],[2.3812202,48.8882581],[2.3811991,48.8882749]]},"id":"way/1193527349"},{"type":"Feature","properties":{"@id":"way/1193706432","footway":"sidewalk","highway":"footway","surface":"asphalt","id":"way/1193706432"},"geometry":{"type":"LineString","coordinates":[[2.3823236,48.8877026],[2.3816936,48.8883829],[2.3816776,48.8883981],[2.3816561,48.8883898],[2.3816507,48.888396]]},"id":"way/1193706432"},{"type":"Feature","properties":{"@id":"way/1225657611","footway":"sidewalk","highway":"footway","lit":"yes","surface":"asphalt","id":"way/1225657611"},"geometry":{"type":"LineString","coordinates":[[2.3809342,48.8887529],[2.3809232,48.8887458]]},"id":"way/1225657611"},{"type":"Feature","properties":{"@id":"way/1225657616","footway":"sidewalk","highway":"footway","surface":"asphalt","id":"way/1225657616"},"geometry":{"type":"LineString","coordinates":[[2.3816004,48.8884442],[2.3815924,48.8884513],[2.3817429,48.8885172],[2.38175,48.8885108]]},"id":"way/1225657616"},{"type":"Feature","properties":{"@id":"way/1225657618","footway":"sidewalk","highway":"footway","surface":"asphalt","id":"way/1225657618"},"geometry":{"type":"LineString","coordinates":[[2.3834599,48.8892885],[2.3833459,48.8892196],[2.3830187,48.8890686],[2.3817429,48.8885172]]},"id":"way/1225657618"},{"type":"Feature","properties":{"@id":"way/1225657633","footway":"sidewalk","highway":"footway","lit":"yes","surface":"asphalt","id":"way/1225657633"},"geometry":{"type":"LineString","coordinates":[[2.3812443,48.8883343],[2.3812538,48.8883389]]},"id":"way/1225657633"},{"type":"Feature","properties":{"@id":"way/1225657634","footway":"sidewalk","highway":"footway","lit":"yes","surface":"asphalt","id":"way/1225657634"},"geometry":{"type":"LineString","coordinates":[[2.3811921,48.8882805],[2.3811991,48.8882749]]},"id":"way/1225657634"},{"type":"Feature","properties":{"@id":"way/1225657640","footway":"sidewalk","highway":"footway","lit":"yes","smoothness":"good","surface":"asphalt","id":"way/1225657640"},"geometry":{"type":"LineString","coordinates":[[2.3812644,48.8882222],[2.3812578,48.888228]]},"id":"way/1225657640"},{"type":"Feature","properties":{"@id":"way/1225657642","footway":"sidewalk","highway":"footway","surface":"asphalt","id":"way/1225657642"},"geometry":{"type":"LineString","coordinates":[[2.3816936,48.8883829],[2.381701,48.8883862]]},"id":"way/1225657642"},{"type":"Feature","properties":{"@id":"way/1239515824","footway":"sidewalk","highway":"footway","surface":"asphalt","id":"way/1239515824"},"geometry":{"type":"LineString","coordinates":[[2.3817771,48.8884171],[2.3817667,48.8884114]]},"id":"way/1239515824"},{"type":"Feature","properties":{"@id":"way/1297514146","footway":"sidewalk","highway":"footway","lit":"yes","surface":"asphalt","id":"way/1297514146"},"geometry":{"type":"LineString","coordinates":[[2.3815924,48.8884513],[2.3814419,48.8883852],[2.3813436,48.8883792],[2.3813409,48.8883777]]},"id":"way/1297514146"},{"type":"Feature","properties":{"@id":"node/12021738906","highway":"street_lamp","id":"node/12021738906"},"geometry":{"type":"Point","coordinates":[2.3813838,48.8883963]},"id":"node/12021738906"},{"type":"Feature","properties":{"@id":"node/12021738907","highway":"street_lamp","id":"node/12021738907"},"geometry":{"type":"Point","coordinates":[2.3815593,48.8884423]},"id":"node/12021738907"},{"type":"Feature","properties":{"@id":"node/12021738908","highway":"street_lamp","id":"node/12021738908"},"geometry":{"type":"Point","coordinates":[2.3817385,48.8885184]},"id":"node/12021738908"},{"type":"Feature","properties":{"@id":"node/12021738909","highway":"street_lamp","id":"node/12021738909"},"geometry":{"type":"Point","coordinates":[2.381922,48.8885981]},"id":"node/12021738909"},{"type":"Feature","properties":{"@id":"node/12021738910","highway":"street_lamp","id":"node/12021738910"},"geometry":{"type":"Point","coordinates":[2.3821274,48.8886874]},"id":"node/12021738910"},{"type":"Feature","properties":{"@id":"node/12021739170","highway":"street_lamp","id":"node/12021739170"},"geometry":{"type":"Point","coordinates":[2.3808837,48.8888756]},"id":"node/12021739170"},{"type":"Feature","properties":{"@id":"node/12021739171","highway":"street_lamp","id":"node/12021739171"},"geometry":{"type":"Point","coordinates":[2.3810987,48.8889853]},"id":"node/12021739171"},{"type":"Feature","properties":{"@id":"node/12688469661","genus":"Platanus","leaf_type":"broadleaved","natural":"tree","species":"Platanus × hispanica","id":"node/12688469661"},"geometry":{"type":"Point","coordinates":[2.3809819,48.8888087]},"id":"node/12688469661"},{"type":"Feature","properties":{"@id":"node/12688469662","genus":"Platanus","leaf_type":"broadleaved","natural":"tree","species":"Platanus × hispanica","id":"node/12688469662"},"geometry":{"type":"Point","coordinates":[2.3810637,48.888851]},"id":"node/12688469662"},{"type":"Feature","properties":{"@id":"node/12688469663","genus":"Platanus","leaf_type":"broadleaved","natural":"tree","species":"Platanus × hispanica","id":"node/12688469663"},"geometry":{"type":"Point","coordinates":[2.3811576,48.8888956]},"id":"node/12688469663"},{"type":"Feature","properties":{"@id":"node/12688469664","genus":"Platanus","leaf_type":"broadleaved","natural":"tree","species":"Platanus × hispanica","id":"node/12688469664"},"geometry":{"type":"Point","coordinates":[2.3812387,48.8889308]},"id":"node/12688469664"},{"type":"Feature","properties":{"@id":"node/12688469677","genus":"Platanus","leaf_type":"broadleaved","natural":"tree","species":"Platanus × hispanica","id":"node/12688469677"},"geometry":{"type":"Point","coordinates":[2.3814781,48.8890556]},"id":"node/12688469677"},{"type":"Feature","properties":{"@id":"node/12706728183","genus":"Pyrus","leaf_type":"broadleaved","natural":"tree","species":"Pyrus calleryana","id":"node/12706728183"},"geometry":{"type":"Point","coordinates":[2.3818594,48.8883547]},"id":"node/12706728183"},{"type":"Feature","properties":{"@id":"node/12706728184","genus":"Pyrus","leaf_type":"broadleaved","natural":"tree","species":"Pyrus calleryana","id":"node/12706728184"},"geometry":{"type":"Point","coordinates":[2.381914,48.8882904]},"id":"node/12706728184"},{"type":"Feature","properties":{"@id":"node/12706728185","genus":"Pyrus","leaf_type":"broadleaved","natural":"tree","species":"Pyrus calleryana","id":"node/12706728185"},"geometry":{"type":"Point","coordinates":[2.381975,48.8882273]},"id":"node/12706728185"},{"type":"Feature","properties":{"@id":"node/12841587214","amenity":"waste_basket","id":"node/12841587214"},"geometry":{"type":"Point","coordinates":[2.3808992,48.8887484]},"id":"node/12841587214"}]}