{"type":"FeatureCollection","features":[{"type":"Feature","properties":{"@id":"way/63971441","building":"roof","layer":"1","source":"cadastre-dgi-fr source : Direction Générale des Impôts - Cadastre. Mise à jour : 2010","id":"way/63971441"},"geometry":{"type":"Polygon","coordinates":[[[2.3848283,48.8898374],[2.3848063,48.8898273],[2.3848069,48.8897969],[2.3848081,48.8897343],[2.3848959,48.8897356],[2.3848283,48.8898374]]]},"id":"way/63971441"},{"type":"Feature","properties":{"@id":"way/377054372","amenity":"student_accommodation","building":"dormitory","name":"Résidence universitaire Thionville","operator":"CROUS de Paris","source":"cadastre-dgi-fr source : Direction Générale des Finances Publiques - Cadastre. Mise à jour : 2015","source:name":"survey","website":"https://www.crous-paris.fr/logement/residence-thionville-2/","id":"way/377054372"},"geometry":{"type":"Polygon","coordinates":[[[2.3838784,48.8892521],[2.3839379,48.8891419],[2.3839432,48.889132],[2.3841176,48.889174],[2.3841585,48.8891839],[2.3840842,48.8893169],[2.384106,48.8893279],[2.3841192,48.8893168],[2.3841617,48.8893375],[2.3841702,48.8893301],[2.3844559,48.889468],[2.384442,48.8894794],[2.3845243,48.8895196],[2.3845238,48.8896774],[2.3844987,48.8896783],[2.3843764,48.8896194],[2.3841771,48.8895232],[2.3839739,48.8894253],[2.3838873,48.8893836],[2.3838784,48.8892521]]]},"id":"way/377054372"},{"type":"Feature","properties":{"@id":"way/395820829","building":"yes","building:levels":"2","source":"cadastre-dgi-fr source : Direction Générale des Finances Publiques - Cadastre. Mise à jour : 2015","start_date":"2016","id":"way/395820829"},"geometry":{"type":"Polygon","coordinates":[[[2.383692,48.8899902],[2.3837256,48.8898859],[2.3839492,48.8899953],[2.3838589,48.8900738],[2.383692,48.8899902]]]},"id":"way/395820829"},{"type":"Feature","properties":{"@id":"way/395820830","building":"yes","building:levels":"8","name":"Canal Square","source":"cadastre-dgi-fr source : Direction Générale des Finances Publiques - Cadastre. Mise à jour : 2015","start_date":"2016","id":"way/395820830"},"geometry":{"type":"Polygon","coordinates":[[[2.3838601,48.8901834],[2.3838938,48.8901559],[2.3840799,48.8899896],[2.3837443,48.8898278],[2.3837813,48.8897131],[2.3838219,48.8895874],[2.3838747,48.8895706],[2.3839203,48.8895561],[2.3841426,48.8896632],[2.384508,48.8898393],[2.3841651,48.8901471],[2.3843721,48.89025],[2.3842345,48.8903695],[2.3838922,48.8901994],[2.3838601,48.8901834]]]},"id":"way/395820830"},{"type":"Feature","properties":{"@id":"way/1456769253","area":"yes","area:highway":"footway","footway":"sidewalk","highway":"footway","highway:area":"footway","lit":"yes","smoothness":"good","surface":"asphalt","id":"way/1456769253"},"geometry":{"type":"Polygon","coordinates":[[[2.3836464,48.8901335],[2.3836362,48.8901144],[2.3836212,48.8901082],[2.3837931,48.8895752],[2.3838019,48.8895615],[2.3838139,48.8895483],[2.3838307,48.8895377],[2.3838602,48.8895271],[2.3838934,48.8895221],[2.3838947,48.8895275],[2.3839203,48.8895561],[2.3838219,48.8895874],[2.3837813,48.8897131],[2.3837443,48.8898278],[2.3837386,48.8898454],[2.3837345,48.8898583],[2.3837256,48.8898859],[2.383692,48.8899902],[2.3836691,48.8900631],[2.3836647,48.8900772],[2.3836464,48.8901335]]]},"id":"way/1456769253"},{"type":"Feature","properties":{"@id":"way/22690209","cycleway:both":"no","highway":"residential","lit":"yes","maxspeed":"30","name":"Rue de Thionville","name:etymology:wikidata":"Q22640","oneway":"yes","oneway:bicycle":"no","sidewalk:both":"separate","surface":"asphalt","id":"way/22690209"},"geometry":{"type":"LineString","coordinates":[[2.3836975,48.8893598],[2.3835066,48.8892688],[2.3817676,48.8884945],[2.3816842,48.8884573],[2.3816155,48.8884298],[2.3813374,48.8883195],[2.3812202,48.8882581],[2.3809707,48.8880623],[2.3803749,48.8876121],[2.3803214,48.8875716]]},"id":"way/22690209"},{"type":"Feature","properties":{"@id":"way/22690216","cycleway:both":"no","highway":"residential","lit":"yes","maxspeed":"30","name":"Rue de la Meurthe","name:etymology:wikidata":"Q1160441","oneway":"yes","oneway:bicycle":"no","sidewalk:both":"separate","smoothness":"good","surface":"asphalt","id":"way/22690216"},"geometry":{"type":"LineString","coordinates":[[2.3825957,48.889659],[2.3826688,48.8896312],[2.3834446,48.8893596],[2.3836975,48.8893598]]},"id":"way/22690216"},{"type":"Feature","properties":{"@id":"way/22690228","cycleway:both":"no","highway":"residential","lit":"yes","maxheight":"3.5","maxspeed":"30","name":"Rue de Thionville","name:etymology:wikidata":"Q22640","oneway":"yes","oneway:bicycle":"no","sidewalk:both":"separate","surface":"asphalt","id":"way/22690228"},"geometry":{"type":"LineString","coordinates":[[2.3850963,48.890028],[2.3850415,48.8899867],[2.3846244,48.8897981],[2.3839645,48.8894832]]},"id":"way/22690228"},{"type":"Feature","properties":{"@id":"way/22690248","highway":"residential","lanes":"2","lit":"yes","maxspeed":"30","name":"Rue de l'Ourcq","name:etymology:wikidata":"Q945377","oneway":"no","sidewalk":"separate","smoothness":"good","surface":"asphalt","id":"way/22690248"},"geometry":{"type":"LineString","coordinates":[[2.3848173,48.8866197],[2.3847916,48.8867237],[2.3847529,48.8868805],[2.3847452,48.8869116],[2.3846746,48.8871972],[2.3846563,48.8872775],[2.3846493,48.8873088],[2.384642,48.8873412],[2.3846282,48.8873924],[2.3845113,48.887878],[2.3844013,48.8880875],[2.3843447,48.8881965],[2.3843007,48.8882844],[2.3837529,48.8892863],[2.3836975,48.8893598]]},"id":"way/22690248"},{"type":"Feature","properties":{"@id":"way/24868187","highway":"residential","lit":"yes","maxspeed":"30","name":"Rue de l'Ourcq","name:etymology:wikidata":"Q945377","oneway":"no","sidewalk:both":"separate","smoothness":"good","surface":"asphalt","id":"way/24868187"},"geometry":{"type":"LineString","coordinates":[[2.383156,48.8898296],[2.3832729,48.8897274],[2.3835831,48.8894582],[2.3836975,48.8893598]]},"id":"way/24868187"},{"type":"Feature","properties":{"@id":"way/72072074","cycleway:both":"no","highway":"residential","lit":"yes","maxspeed":"30","name":"Rue de la Marne","name:etymology:wikidata":"Q41983","oneway":"yes","oneway:bicycle":"no","sidewalk:both":"separate","surface":"asphalt","id":"way/72072074"},"geometry":{"type":"LineString","coordinates":[[2.3836975,48.8893598],[2.3837523,48.889462],[2.3837837,48.8895192],[2.3835691,48.8900828],[2.3835566,48.8901324]]},"id":"way/72072074"},{"type":"Feature","properties":{"@id":"way/74866978","cycleway:both":"no","highway":"residential","lit":"yes","maxspeed":"30","name":"Rue de Thionville","name:etymology:wikidata":"Q22640","oneway":"yes","sidewalk:both":"separate","surface":"asphalt","id":"way/74866978"},"geometry":{"type":"LineString","coordinates":[[2.3839645,48.8894832],[2.3838826,48.8894995],[2.3837837,48.8895192]]},"id":"way/74866978"},{"type":"Feature","properties":{"@id":"way/769435140","cycleway:both":"no","highway":"residential","lit":"yes","maxspeed":"30","name":"Rue de Thionville","name:etymology:wikidata":"Q22640","oneway":"yes","oneway:bicycle":"no","sidewalk:both":"separate","surface":"asphalt","id":"way/769435140"},"geometry":{"type":"LineString","coordinates":[[2.3839645,48.8894832],[2.3838263,48.8894173],[2.3836975,48.8893598]]},"id":"way/769435140"},{"type":"Feature","properties":{"@id":"way/878389180","foot":"designated","highway":"footway","lit":"no","motor_vehicle":"no","opening_hours":"Mo-Su 09:00-17:45","surface":"compacted","id":"way/878389180"},"geometry":{"type":"LineString","coordinates":[[2.3848054,48.887525],[2.3847836,48.8876976],[2.384763,48.8879103],[2.3847249,48.8896775]]},"id":"way/878389180"},{"type":"Feature","properties":{"@id":"way/878389181","foot":"designated","highway":"footway","incline":"down","lit":"no","motor_vehicle":"no","surface":"compacted","id":"way/878389181"},"geometry":{"type":"LineString","coordinates":[[2.3847249,48.8896775],[2.3846,48.8897096]]},"id":"way/878389181"},{"type":"Feature","properties":{"@id":"way/1193515324","footway":"sidewalk","highway":"footway","surface":"asphalt","id":"way/1193515324"},"geometry":{"type":"LineString","coordinates":[[2.381809,48.8884566],[2.383131,48.8890293],[2.3833613,48.8891351],[2.3835773,48.8892411],[2.3836902,48.8892553],[2.383714,48.8892674]]},"id":"way/1193515324"},{"type":"Feature","properties":{"@id":"way/1193560454","footway":"sidewalk","highway":"footway","surface":"asphalt","id":"way/1193560454"},"geometry":{"type":"LineString","coordinates":[[2.3846575,48.8897684],[2.384675,48.8897951],[2.3847943,48.8898489],[2.3848238,48.8898467],[2.3850243,48.8899424],[2.3850675,48.8899528]]},"id":"way/1193560454"},{"type":"Feature","properties":{"@id":"way/1193560455","highway":"footway","lit":"no","surface":"asphalt","id":"way/1193560455"},"geometry":{"type":"LineString","coordinates":[[2.3845814,48.889727],[2.3846,48.8897096]]},"id":"way/1193560455"},{"type":"Feature","properties":{"@id":"way/1193560456","footway":"sidewalk","highway":"footway","lit":"yes","smoothness":"excellent","surface":"asphalt","id":"way/1193560456"},"geometry":{"type":"LineString","coordinates":[[2.3838177,48.8893199],[2.3844228,48.8882141],[2.3843886,48.8882053]]},"id":"way/1193560456"},{"type":"Feature","properties":{"@id":"way/1193560464","footway":"sidewalk","highway":"footway","surface":"asphalt","id":"way/1193560464"},"geometry":{"type":"LineString","coordinates":[[2.3838947,48.8895275],[2.3838112,48.8895813],[2.3836362,48.8901144]]},"id":"way/1193560464"},{"type":"Feature","properties":{"@id":"way/1193560465","footway":"sidewalk","highway":"footway","lit":"yes","surface":"asphalt","id":"way/1193560465"},"geometry":{"type":"LineString","coordinates":[[2.3849891,48.8900573],[2.3848104,48.8899671],[2.3848057,48.8899076],[2.3846783,48.8898459],[2.3845965,48.8898644],[2.3845609,48.8898487],[2.3842438,48.8896946],[2.3838947,48.8895275],[2.3838934,48.8895221]]},"id":"way/1193560465"},{"type":"Feature","properties":{"@id":"way/1193560470","footway":"sidewalk","highway":"footway","surface":"asphalt","id":"way/1193560470"},"geometry":{"type":"LineString","coordinates":[[2.3835185,48.8900579],[2.3837086,48.8894738]]},"id":"way/1193560470"},{"type":"Feature","properties":{"@id":"way/1193570187","crossing":"uncontrolled","crossing:markings":"yes","footway":"crossing","highway":"footway","lit":"yes","id":"way/1193570187"},"geometry":{"type":"LineString","coordinates":[[2.3846401,48.8897841],[2.3846244,48.8897981],[2.3845757,48.8898373]]},"id":"way/1193570187"},{"type":"Feature","properties":{"@id":"way/1193570188","footway":"sidewalk","highway":"footway","surface":"asphalt","id":"way/1193570188"},"geometry":{"type":"LineString","coordinates":[[2.3838066,48.8894412],[2.3838746,48.8894828]]},"id":"way/1193570188"},{"type":"Feature","properties":{"@id":"way/1193570189","footway":"sidewalk","highway":"footway","surface":"asphalt","id":"way/1193570189"},"geometry":{"type":"LineString","coordinates":[[2.3837898,48.8894526],[2.3838066,48.8894412],[2.3838166,48.8894279]]},"id":"way/1193570189"},{"type":"Feature","properties":{"@id":"way/1193570190","crossing":"uncontrolled","crossing:markings":"yes","footway":"crossing","highway":"footway","lit":"yes","surface":"asphalt","id":"way/1193570190"},"geometry":{"type":"LineString","coordinates":[[2.3838934,48.8895221],[2.3838826,48.8894995],[2.3838746,48.8894828]]},"id":"way/1193570190"},{"type":"Feature","properties":{"@id":"way/1193570191","crossing":"uncontrolled","crossing:markings":"yes","footway":"crossing","highway":"footway","lit":"yes","surface":"asphalt","id":"way/1193570191"},"geometry":{"type":"LineString","coordinates":[[2.3838428,48.8893992],[2.3838263,48.8894173],[2.3838166,48.8894279]]},"id":"way/1193570191"},{"type":"Feature","properties":{"@id":"way/1193570192","crossing":"uncontrolled","crossing:markings":"yes","footway":"crossing","highway":"footway","lit":"yes","surface":"asphalt","id":"way/1193570192"},"geometry":{"type":"LineString","coordinates":[[2.3837194,48.8894702],[2.3837523,48.889462],[2.3837898,48.8894526]]},"id":"way/1193570192"},{"type":"Feature","properties":{"@id":"way/1193570193","crossing":"traffic_signals","crossing:markings":"yes","footway":"crossing","highway":"footway","lit":"yes","smoothness":"excellent","surface":"asphalt","traffic_signals:sound":"yes","id":"way/1193570193"},"geometry":{"type":"LineString","coordinates":[[2.383542,48.8894382],[2.3835695,48.8894516],[2.3835831,48.8894582],[2.3836215,48.8894769]]},"id":"way/1193570193"},{"type":"Feature","properties":{"@id":"way/1193706418","crossing":"traffic_signals","crossing:markings":"yes","footway":"crossing","highway":"footway","lit":"yes","smoothness":"good","surface":"asphalt","traffic_signals:sound":"yes","id":"way/1193706418"},"geometry":{"type":"LineString","coordinates":[[2.383714,48.8892674],[2.3837529,48.8892863],[2.3837654,48.8892924],[2.3837931,48.8893058]]},"id":"way/1193706418"},{"type":"Feature","properties":{"@id":"way/1193706429","footway":"sidewalk","highway":"footway","lit":"yes","smoothness":"good","surface":"asphalt","id":"way/1193706429"},"geometry":{"type":"LineString","coordinates":[[2.3842143,48.8882718],[2.3841988,48.8883014],[2.3841854,48.8883494],[2.3836902,48.8892553]]},"id":"way/1193706429"},{"type":"Feature","properties":{"@id":"way/1221418371","footway":"sidewalk","highway":"footway","id":"way/1221418371"},"geometry":{"type":"LineString","coordinates":[[2.3846401,48.8897841],[2.3846575,48.8897684]]},"id":"way/1221418371"},{"type":"Feature","properties":{"@id":"way/1221418372","footway":"sidewalk","highway":"footway","lit":"yes","smoothness":"good","surface":"asphalt","id":"way/1221418372"},"geometry":{"type":"LineString","coordinates":[[2.3838619,48.8893811],[2.3838428,48.8893992]]},"id":"way/1221418372"},{"type":"Feature","properties":{"@id":"way/1221418373","footway":"sidewalk","highway":"footway","lit":"yes","surface":"asphalt","id":"way/1221418373"},"geometry":{"type":"LineString","coordinates":[[2.3846575,48.8897684],[2.3845814,48.889727],[2.3838619,48.8893811],[2.3838019,48.8893516],[2.3838177,48.8893199],[2.3837931,48.8893058]]},"id":"way/1221418373"},{"type":"Feature","properties":{"@id":"way/1221418374","footway":"sidewalk","highway":"footway","lit":"yes","smoothness":"excellent","surface":"asphalt","id":"way/1221418374"},"geometry":{"type":"LineString","coordinates":[[2.3835773,48.8892411],[2.3835464,48.8892537]]},"id":"way/1221418374"},{"type":"Feature","properties":{"@id":"way/1225657601","footway":"sidewalk","highway":"footway","id":"way/1225657601"},"geometry":{"type":"LineString","coordinates":[[2.3845609,48.8898487],[2.3845757,48.8898373]]},"id":"way/1225657601"},{"type":"Feature","properties":{"@id":"way/1225657604","footway":"sidewalk","highway":"footway","lit":"yes","smoothness":"good","surface":"asphalt","id":"way/1225657604"},"geometry":{"type":"LineString","coordinates":[[2.3836346,48.8894826],[2.3836215,48.8894769]]},"id":"way/1225657604"},{"type":"Feature","properties":{"@id":"way/1225657605","footway":"sidewalk","highway":"footway","surface":"asphalt","id":"way/1225657605"},"geometry":{"type":"LineString","coordinates":[[2.3832133,48.889853],[2.3836346,48.8894826],[2.3837086,48.8894738],[2.3837194,48.8894702]]},"id":"way/1225657605"},{"type":"Feature","properties":{"@id":"node/3298286535","addr:city":"Paris","amenity":"pharmacy","check_date":"2025-10-24","check_date:opening_hours":"2025-06-23","dispensing":"yes","healthcare":"pharmacy","name":"Pharmacie de l'Aquarius","opening_hours":"Mo-Fr 09:00-13:00,14:00-20:00; Sa 09:00-13:00,14:00-19:00","ref:FR:FINESS":"750035305","source":"survey","source:ref:FR:FINESS":"data.gouv.fr:Ministère des Affaires sociales, de la Santé et des Droits des Femmes - 12/2015","type:FR:FINESS":"620","id":"node/3298286535"},"geometry":{"type":"Point","coordinates":[2.3835643,48.8891098]},"id":"node/3298286535"},{"type":"Feature","properties":{"@id":"node/4809561629","branch":"Paris Ourcq","brand":"Auchan Supermarché","brand:wikidata":"Q105857776","check_date":"2025-10-24","check_date:opening_hours":"2025-07-09","name":"Auchan Supermarché","opening_hours":"Mo-Sa 08:30-22:00; Su 08:30-12:30,13:00-20:30","ref:FR:SIRET":"41040901503968","shop":"supermarket","id":"node/4809561629"},"geometry":{"type":"Point","coordinates":[2.3838981,48.8896293]},"id":"node/4809561629"},{"type":"Feature","properties":{"@id":"node/5684369391","addr:housenumber":"22-bis","addr:postcode":"75019","addr:street":"Rue de l'Ourcq","amenity":"restaurant","check_date":"2025-10-24","cuisine":"crepe;pancake;savory_pancakes","diet:vegetarian":"yes","indoor_seating":"yes","name":"La Cantine Bretonne","opening_hours":"Mo-Su 08:00-01:00","outdoor_seating":"yes","payment:cash":"yes","payment:credit_cards":"yes","payment:debit_cards":"yes","phone":"+33142008609","ref:FR:SIRET":"85144894400013","website":"https://lacantinebretonne.com","wheelchair":"yes","id":"node/5684369391"},"geometry":{"type":"Point","coordinates":[2.3839366,48.8893349]},"id":"node/5684369391"},{"type":"Feature","properties":{"@id":"node/12021738918","highway":"street_lamp","id":"node/12021738918"},"geometry":{"type":"Point","coordinates":[2.3837906,48.8893524]},"id":"node/12021738918"},{"type":"Feature","properties":{"@id":"node/12021738919","highway":"street_lamp","id":"node/12021738919"},"geometry":{"type":"Point","coordinates":[2.3836529,48.8894853]},"id":"node/12021738919"},{"type":"Feature","properties":{"@id":"node/12021738920","highway":"street_lamp","id":"node/12021738920"},"geometry":{"type":"Point","coordinates":[2.383823,48.889557]},"id":"node/12021738920"},{"type":"Feature","properties":{"@id":"node/12021738921","highway":"street_lamp","id":"node/12021738921"},"geometry":{"type":"Point","coordinates":[2.3840304,48.8895844]},"id":"node/12021738921"},{"type":"Feature","properties":{"@id":"node/12021738922","highway":"street_lamp","id":"node/12021738922"},"geometry":{"type":"Point","coordinates":[2.3842212,48.8896761]},"id":"node/12021738922"},{"type":"Feature","properties":{"@id":"node/12021738923","highway":"street_lamp","id":"node/12021738923"},"geometry":{"type":"Point","coordinates":[2.3844392,48.8897813]},"id":"node/12021738923"},{"type":"Feature","properties":{"@id":"node/12021738924","highway":"street_lamp","id":"node/12021738924"},"geometry":{"type":"Point","coordinates":[2.3848149,48.8899803]},"id":"node/12021738924"}]}