{"type":"FeatureCollection","features":[{"type":"Feature","properties":{"@id":"way/245795911","leaf_type":"broadleaved","natural":"tree_row","id":"way/245795911"},"geometry":{"type":"LineString","coordinates":[[2.3902089,48.8924251],[2.391239,48.8925828],[2.3930118,48.8928543],[2.392982,48.8924355],[2.3929671,48.8922265],[2.3928879,48.8911148],[2.3928023,48.8897323]]},"id":"way/245795911"},{"type":"Feature","properties":{"@id":"way/549161893","highway":"footway","lit":"yes","name":"Allée de la Philharmonie","smoothness":"good","surface":"paving_stones","id":"way/549161893"},"geometry":{"type":"LineString","coordinates":[[2.3938909,48.8908193],[2.3937046,48.8905523],[2.3935463,48.8903251],[2.393431,48.890288],[2.3933616,48.8902616],[2.3933284,48.8902342],[2.3933076,48.8901972],[2.3933009,48.8901619],[2.3933196,48.8901117],[2.3933612,48.8900244],[2.3931308,48.8896488],[2.3928248,48.8893945]]},"id":"way/549161893"},{"type":"Feature","properties":{"@id":"way/996089292","bicycle":"yes","highway":"footway","lit":"yes","name":"Allée du Zénith","smoothness":"good","surface":"asphalt","id":"way/996089292"},"geometry":{"type":"LineString","coordinates":[[2.3929464,48.891152],[2.3929103,48.8905676],[2.3928591,48.8898985],[2.3928248,48.8893945]]},"id":"way/996089292"},{"type":"Feature","properties":{"@id":"way/1226939224","footway":"link","highway":"footway","id":"way/1226939224"},"geometry":{"type":"LineString","coordinates":[[2.3928248,48.8893945],[2.3917168,48.8891874]]},"id":"way/1226939224"},{"type":"Feature","properties":{"@id":"way/1422464155","bicycle":"yes","highway":"footway","lit":"yes","name":"Allée du Zénith","smoothness":"intermediate","surface":"sett","id":"way/1422464155"},"geometry":{"type":"LineString","coordinates":[[2.3928248,48.8893945],[2.3928709,48.889052]]},"id":"way/1422464155"},{"type":"Feature","properties":{"@id":"node/409011154","addr:housenumber":"213","addr:street":"Avenue Jean Jaurès","amenity":"cafe","check_date:opening_hours":"2022-02-25","cuisine":"french","indoor_seating":"yes","level":"0","name":"Café de la Musique","opening_hours":"Mo-Th 12:00-01:00; Fr-Sa 12:00-02:00; Su 12:00-20:00","outdoor_seating":"no","phone":"+33 1 89 89 12 34","smoking":"no","website":"https://www.cafedelamusique.fr/","wheelchair":"limited","id":"node/409011154"},"geometry":{"type":"Point","coordinates":[2.3931104,48.889198]},"id":"node/409011154"},{"type":"Feature","properties":{"@id":"node/11210573135","amenity":"waste_basket","source":"survey 2023","id":"node/11210573135"},"geometry":{"type":"Point","coordinates":[2.3928003,48.8895231]},"id":"node/11210573135"},{"type":"Feature","properties":{"@id":"node/11210573136","amenity":"waste_basket","source":"survey 2023","id":"node/11210573136"},"geometry":{"type":"Point","coordinates":[2.3928,48.8895183]},"id":"node/11210573136"},{"type":"Feature","properties":{"@id":"node/11210573137","amenity":"waste_basket","source":"survey 2023","id":"node/11210573137"},"geometry":{"type":"Point","coordinates":[2.3927997,48.8895143]},"id":"node/11210573137"}]}