{"type":"FeatureCollection","features":[{"type":"Feature","properties":{"@id":"way/64038450","building":"yes","source":"cadastre-dgi-fr source : Direction Générale des Impôts - Cadastre. Mise à jour : 2010","id":"way/64038450"},"geometry":{"type":"Polygon","coordinates":[[[2.3758148,48.8891854],[2.375697,48.889244],[2.3756329,48.8891961],[2.3756193,48.8892034],[2.3756543,48.8892291],[2.3756033,48.8892546],[2.3756313,48.8892754],[2.375507,48.8893363],[2.3754751,48.8893111],[2.3754204,48.889268],[2.3754,48.8892519],[2.3757148,48.8891087],[2.3757412,48.8891287],[2.3757505,48.8891248],[2.3757599,48.8891336],[2.3757525,48.8891378],[2.3758148,48.8891854]]]},"id":"way/64038450"},{"type":"Feature","properties":{"@id":"way/64038568","building":"yes","building:levels":"7","source":"cadastre-dgi-fr source : Direction Générale des Impôts - Cadastre. Mise à jour : 2010","id":"way/64038568"},"geometry":{"type":"Polygon","coordinates":[[[2.3761727,48.889679],[2.3760525,48.8897371],[2.3760123,48.8897334],[2.3759515,48.8896862],[2.375878,48.889629],[2.3759922,48.8895692],[2.376071,48.8896307],[2.3761003,48.8896171],[2.3761727,48.889679]]]},"id":"way/64038568"},{"type":"Feature","properties":{"@id":"way/64040374","building":"yes","building:levels":"4","source":"cadastre-dgi-fr source : Direction Générale des Impôts - Cadastre. Mise à jour : 2010","id":"way/64040374"},"geometry":{"type":"Polygon","coordinates":[[[2.375907,48.889141],[2.375857,48.889165],[2.3757883,48.8890955],[2.3757568,48.8891118],[2.3757407,48.8890964],[2.3758305,48.8890621],[2.375907,48.889141]]]},"id":"way/64040374"},{"type":"Feature","properties":{"@id":"way/64040760","building":"yes","source":"cadastre-dgi-fr source : Direction Générale des Impôts - Cadastre. Mise à jour : 2010","id":"way/64040760"},"geometry":{"type":"Polygon","coordinates":[[[2.3766943,48.8894275],[2.3764239,48.8895579],[2.3763544,48.8894944],[2.3764749,48.8894351],[2.3764624,48.8894242],[2.3764788,48.8894167],[2.3764903,48.889428],[2.3765759,48.8893856],[2.3764976,48.8893144],[2.3764287,48.8893481],[2.3764348,48.8893529],[2.3763955,48.8893722],[2.3763904,48.8893669],[2.3762751,48.8894226],[2.3762034,48.8893575],[2.3762767,48.8893212],[2.376259,48.8893057],[2.3762872,48.8892922],[2.3762771,48.8892839],[2.376295,48.8892748],[2.376258,48.889242],[2.37629,48.889228],[2.3763284,48.8892604],[2.3764236,48.8892136],[2.376388,48.889183],[2.376412,48.889172],[2.3766943,48.8894275]]]},"id":"way/64040760"},{"type":"Feature","properties":{"@id":"way/19423391","cycleway:both":"no","highway":"residential","lanes":"1","lit":"yes","maxspeed":"30","name":"Rue Duvergier","name:etymology:wikidata":"Q3164060","oneway":"yes","oneway:bicycle":"no","sidewalk":"separate","source:maxspeed":"BMO arrêté n°2014P0207","surface":"asphalt","zone:maxspeed":"FR:30","id":"way/19423391"},"geometry":{"type":"LineString","coordinates":[[2.378472,48.8886191],[2.3783753,48.8886713],[2.3781717,48.8887772],[2.3780383,48.8888517],[2.3779782,48.8888853],[2.3760555,48.8897904],[2.3759602,48.8898349]]},"id":"way/19423391"},{"type":"Feature","properties":{"@id":"way/51336945","bicycle:lanes":"yes|designated","busway:right":"lane","cycleway:left":"separate","cycleway:right":"share_busway","dual_carriageway":"yes","highway":"primary","lanes":"2","lit":"yes","maxspeed":"30","name":"Avenue de Flandre","name:etymology:wikidata":"Q157070","oneway":"yes","psv:lanes":"yes|designated","sidewalk:both":"separate","surface":"asphalt","id":"way/51336945"},"geometry":{"type":"LineString","coordinates":[[2.3739705,48.8882666],[2.3741138,48.8883755],[2.3742597,48.8884955],[2.3744121,48.8886166],[2.3752622,48.8892881],[2.3755961,48.889548],[2.3759602,48.8898349],[2.3767353,48.8904606],[2.3767637,48.8904838],[2.3768534,48.8905562]]},"id":"way/51336945"},{"type":"Feature","properties":{"@id":"way/74864075","highway":"footway","name":"Allées Jacques Brel","name:etymology:wikidata":"Q1666","id":"way/74864075"},"geometry":{"type":"LineString","coordinates":[[2.3742066,48.8885229],[2.3741397,48.8885594],[2.374095,48.8885838],[2.3749517,48.8892564],[2.3750375,48.8892758],[2.3754759,48.8896218],[2.3764996,48.8904295],[2.3766193,48.8905246],[2.3766795,48.8904914]]},"id":"way/74864075"},{"type":"Feature","properties":{"@id":"way/191552316","bicycle:lanes":"yes|designated","busway:right":"lane","cycleway:left":"separate","cycleway:right":"share_busway","dual_carriageway":"yes","highway":"primary","lanes":"2","lit":"yes","maxspeed":"30","name":"Avenue de Flandre","name:etymology:wikidata":"Q157070","oneway":"yes","psv:lanes":"yes|designated","sidewalk:both":"separate","surface":"asphalt","id":"way/191552316"},"geometry":{"type":"LineString","coordinates":[[2.3765114,48.8905874],[2.3764425,48.8905385],[2.3764117,48.8905109],[2.3763852,48.8904913],[2.3762624,48.8903926],[2.3755936,48.8898576],[2.3753655,48.8896751],[2.3750089,48.8893899],[2.3740384,48.8886147],[2.3738691,48.8884648]]},"id":"way/191552316"},{"type":"Feature","properties":{"@id":"way/744744226","cycleway":"on_street","foot":"no","highway":"cycleway","lit":"yes","name":"Avenue de Flandre","name:etymology:wikidata":"Q157070","oneway":"yes","source":"Observations personnelles","surface":"asphalt","id":"way/744744226"},"geometry":{"type":"LineString","coordinates":[[2.3814641,48.8944376],[2.3814462,48.8943459],[2.3814043,48.8943075],[2.3813899,48.8942964],[2.3800172,48.8932319],[2.3798984,48.8931443],[2.3797781,48.893049],[2.3791037,48.8925261],[2.3789449,48.892403],[2.3787816,48.8922789],[2.3775213,48.8913112],[2.3773992,48.8912156],[2.3772882,48.8911323],[2.3768654,48.8908023],[2.376708,48.8906795],[2.3765757,48.8905772],[2.376554,48.8905603],[2.3764895,48.8905121],[2.3764322,48.8904659],[2.3754103,48.889652],[2.3748301,48.8891897],[2.3740798,48.8885918],[2.3740768,48.8885893],[2.3740238,48.8885409],[2.3739178,48.888447],[2.3737893,48.8883387],[2.3732353,48.8878824],[2.3731875,48.887843],[2.3725389,48.8873099],[2.3725375,48.8873089],[2.3715908,48.8865301],[2.3710781,48.8861087],[2.3708287,48.8859036],[2.370679,48.8857883],[2.3705507,48.8856863],[2.3699252,48.8851828],[2.3691714,48.884576],[2.369165,48.8845719],[2.3689748,48.8844707]]},"id":"way/744744226"},{"type":"Feature","properties":{"@id":"way/757091422","cycleway":"on_street","foot":"no","highway":"cycleway","lit":"yes","name":"Avenue de Flandre","name:etymology:wikidata":"Q157070","oneway":"yes","smoothness":"good","source":"Observations personnelles","surface":"asphalt","width":"1.5","id":"way/757091422"},"geometry":{"type":"LineString","coordinates":[[2.3690298,48.8842113],[2.3690356,48.8842912],[2.3691542,48.8843955],[2.3692977,48.8845085],[2.3700521,48.8851139],[2.3706788,48.8856183],[2.3708045,48.8857217],[2.3710197,48.8858924],[2.3716959,48.886448],[2.3726652,48.8872446],[2.3733175,48.8877802],[2.3733585,48.887814],[2.3739196,48.8882764],[2.3740666,48.8883927],[2.3742178,48.8885132],[2.3742208,48.8885156],[2.3749298,48.8890822],[2.375548,48.8895762],[2.376673,48.8904751],[2.3766878,48.8904868],[2.3768149,48.8905868],[2.3769861,48.8907181],[2.3769973,48.8907268],[2.3774113,48.8910597],[2.3775216,48.891148],[2.3776526,48.8912393],[2.37891,48.8922066],[2.3790698,48.8923365],[2.3792332,48.8924547],[2.3799072,48.8929747],[2.3800245,48.8930705],[2.3801456,48.8931594],[2.381514,48.8942283],[2.3815309,48.8942415],[2.3815897,48.8942855],[2.3817076,48.8943154]]},"id":"way/757091422"},{"type":"Feature","properties":{"@id":"way/1192426129","footway":"sidewalk","highway":"footway","id":"way/1192426129"},"geometry":{"type":"LineString","coordinates":[[2.3756748,48.8895073],[2.3753723,48.8892586]]},"id":"way/1192426129"},{"type":"Feature","properties":{"@id":"way/1192426130","footway":"sidewalk","highway":"footway","surface":"asphalt","id":"way/1192426130"},"geometry":{"type":"LineString","coordinates":[[2.3760335,48.8897612],[2.3759722,48.8897555],[2.3759316,48.8897145],[2.3756748,48.8895073]]},"id":"way/1192426130"},{"type":"Feature","properties":{"@id":"way/1192426131","footway":"sidewalk","highway":"footway","surface":"asphalt","id":"way/1192426131"},"geometry":{"type":"LineString","coordinates":[[2.3776636,48.8889764],[2.3760335,48.8897612]]},"id":"way/1192426131"},{"type":"Feature","properties":{"@id":"way/1192426132","footway":"sidewalk","highway":"footway","surface":"asphalt","id":"way/1192426132"},"geometry":{"type":"LineString","coordinates":[[2.3761033,48.8898309],[2.3761663,48.8897956],[2.3770615,48.8893618],[2.3776717,48.8890686],[2.3780056,48.8889103]]},"id":"way/1192426132"},{"type":"Feature","properties":{"@id":"way/1192426133","footway":"sidewalk","highway":"footway","surface":"asphalt","id":"way/1192426133"},"geometry":{"type":"LineString","coordinates":[[2.3767924,48.8904291],[2.376635,48.8902696],[2.3760986,48.8898639],[2.3761033,48.8898309]]},"id":"way/1192426133"},{"type":"Feature","properties":{"@id":"way/1192456015","footway":"sidewalk","highway":"footway","surface":"asphalt","id":"way/1192456015"},"geometry":{"type":"LineString","coordinates":[[2.3752879,48.8897198],[2.375517,48.8898995],[2.3760925,48.8903793],[2.3760818,48.8904155],[2.3760456,48.8904993],[2.3759946,48.890576],[2.3759463,48.8906086]]},"id":"way/1192456015"},{"type":"Feature","properties":{"@id":"way/1193527226","crossing":"uncontrolled","crossing:markings":"yes","footway":"crossing","highway":"footway","lit":"yes","surface":"asphalt","id":"way/1193527226"},"geometry":{"type":"LineString","coordinates":[[2.3760399,48.8897784],[2.3760555,48.8897904],[2.3760905,48.8898172]]},"id":"way/1193527226"},{"type":"Feature","properties":{"@id":"way/1193527227","footway":"sidewalk","highway":"footway","surface":"asphalt","id":"way/1193527227"},"geometry":{"type":"LineString","coordinates":[[2.37542,48.889647],[2.3754759,48.8896218],[2.375534,48.8895844]]},"id":"way/1193527227"},{"type":"Feature","properties":{"@id":"way/1193527228","crossing":"traffic_signals","crossing:markings":"zebra","crossing:signals":"yes","footway":"crossing","highway":"footway","lit":"yes","surface":"asphalt","id":"way/1193527228"},"geometry":{"type":"LineString","coordinates":[[2.3753268,48.8896951],[2.3753655,48.8896751],[2.3754103,48.889652],[2.37542,48.889647]]},"id":"way/1193527228"},{"type":"Feature","properties":{"@id":"way/1193527229","crossing":"traffic_signals","crossing:markings":"zebra","crossing:signals":"yes","footway":"crossing","highway":"footway","lit":"yes","id":"way/1193527229"},"geometry":{"type":"LineString","coordinates":[[2.3756265,48.8895302],[2.3755961,48.889548],[2.375548,48.8895762],[2.375534,48.8895844]]},"id":"way/1193527229"},{"type":"Feature","properties":{"@id":"way/1193527230","crossing":"uncontrolled","crossing:markings":"zebra","footway":"crossing","highway":"footway","id":"way/1193527230"},"geometry":{"type":"LineString","coordinates":[[2.3753382,48.8892279],[2.3753558,48.8892437],[2.3753723,48.8892586]]},"id":"way/1193527230"},{"type":"Feature","properties":{"@id":"way/1225657457","footway":"sidewalk","highway":"footway","id":"way/1225657457"},"geometry":{"type":"LineString","coordinates":[[2.3756748,48.8895073],[2.3756265,48.8895302]]},"id":"way/1225657457"},{"type":"Feature","properties":{"@id":"way/1225657458","footway":"sidewalk","highway":"footway","surface":"asphalt","id":"way/1225657458"},"geometry":{"type":"LineString","coordinates":[[2.3760335,48.8897612],[2.3760399,48.8897784]]},"id":"way/1225657458"},{"type":"Feature","properties":{"@id":"way/1225657460","footway":"sidewalk","highway":"footway","surface":"asphalt","id":"way/1225657460"},"geometry":{"type":"LineString","coordinates":[[2.3761033,48.8898309],[2.3760905,48.8898172]]},"id":"way/1225657460"},{"type":"Feature","properties":{"@id":"node/2826860411","amenity":"pub","name":"Le Marigny","ref:FR:SIRET":"79976756100019","shop":"tobacco","wheelchair":"yes","id":"node/2826860411"},"geometry":{"type":"Point","coordinates":[2.375488,48.8892745]},"id":"node/2826860411"},{"type":"Feature","properties":{"@id":"node/2851307079","genus":"Sophora","natural":"tree","source":"opendata.paris.fr","id":"node/2851307079"},"geometry":{"type":"Point","coordinates":[2.375369,48.889535]},"id":"node/2851307079"},{"type":"Feature","properties":{"@id":"node/2851307082","genus":"Sophora","natural":"tree","source":"opendata.paris.fr","id":"node/2851307082"},"geometry":{"type":"Point","coordinates":[2.375444,48.889557]},"id":"node/2851307082"},{"type":"Feature","properties":{"@id":"node/2851307086","genus":"Sophora","natural":"tree","source":"opendata.paris.fr","id":"node/2851307086"},"geometry":{"type":"Point","coordinates":[2.375372,48.889597]},"id":"node/2851307086"},{"type":"Feature","properties":{"@id":"node/2851307089","genus":"Sophora","natural":"tree","source":"opendata.paris.fr","id":"node/2851307089"},"geometry":{"type":"Point","coordinates":[2.375535,48.889627]},"id":"node/2851307089"},{"type":"Feature","properties":{"@id":"node/2851307096","genus":"Sophora","natural":"tree","source":"opendata.paris.fr","id":"node/2851307096"},"geometry":{"type":"Point","coordinates":[2.375463,48.889669]},"id":"node/2851307096"},{"type":"Feature","properties":{"@id":"node/2851307098","genus":"Sophora","natural":"tree","source":"opendata.paris.fr","id":"node/2851307098"},"geometry":{"type":"Point","coordinates":[2.375551,48.889679]},"id":"node/2851307098"},{"type":"Feature","properties":{"@id":"node/2851307501","genus":"Sophora","natural":"tree","source":"opendata.paris.fr","id":"node/2851307501"},"geometry":{"type":"Point","coordinates":[2.375627,48.8897]},"id":"node/2851307501"},{"type":"Feature","properties":{"@id":"node/2851307507","genus":"Sophora","natural":"tree","source":"opendata.paris.fr","id":"node/2851307507"},"geometry":{"type":"Point","coordinates":[2.375554,48.889742]},"id":"node/2851307507"},{"type":"Feature","properties":{"@id":"node/2851307510","genus":"Sophora","natural":"tree","source":"opendata.paris.fr","id":"node/2851307510"},"geometry":{"type":"Point","coordinates":[2.375641,48.889751]},"id":"node/2851307510"},{"type":"Feature","properties":{"@id":"node/2851307513","genus":"Sophora","natural":"tree","source":"opendata.paris.fr","id":"node/2851307513"},"geometry":{"type":"Point","coordinates":[2.375718,48.889772]},"id":"node/2851307513"},{"type":"Feature","properties":{"@id":"node/2851307517","genus":"Sophora","natural":"tree","source":"opendata.paris.fr","id":"node/2851307517"},"geometry":{"type":"Point","coordinates":[2.375647,48.889814]},"id":"node/2851307517"},{"type":"Feature","properties":{"@id":"node/2851307521","genus":"Sophora","natural":"tree","source":"opendata.paris.fr","id":"node/2851307521"},"geometry":{"type":"Point","coordinates":[2.375733,48.889822]},"id":"node/2851307521"},{"type":"Feature","properties":{"@id":"node/2851307522","genus":"Sophora","natural":"tree","source":"opendata.paris.fr","id":"node/2851307522"},"geometry":{"type":"Point","coordinates":[2.375809,48.889844]},"id":"node/2851307522"},{"type":"Feature","properties":{"@id":"node/2851307524","genus":"Sophora","natural":"tree","source":"opendata.paris.fr","id":"node/2851307524"},"geometry":{"type":"Point","coordinates":[2.375371,48.889847]},"id":"node/2851307524"},{"type":"Feature","properties":{"@id":"node/2851307528","genus":"Sophora","natural":"tree","source":"opendata.paris.fr","id":"node/2851307528"},"geometry":{"type":"Point","coordinates":[2.375735,48.889885]},"id":"node/2851307528"},{"type":"Feature","properties":{"@id":"node/2851307529","genus":"Sophora","natural":"tree","source":"opendata.paris.fr","id":"node/2851307529"},"geometry":{"type":"Point","coordinates":[2.375825,48.889894]},"id":"node/2851307529"},{"type":"Feature","properties":{"@id":"node/2851307532","genus":"Sophora","natural":"tree","source":"opendata.paris.fr","id":"node/2851307532"},"geometry":{"type":"Point","coordinates":[2.3759,48.889916]},"id":"node/2851307532"},{"type":"Feature","properties":{"@id":"node/2851307536","genus":"Sophora","natural":"tree","source":"opendata.paris.fr","id":"node/2851307536"},"geometry":{"type":"Point","coordinates":[2.375825,48.889955]},"id":"node/2851307536"},{"type":"Feature","properties":{"@id":"node/2851307540","genus":"Sophora","natural":"tree","source":"opendata.paris.fr","id":"node/2851307540"},"geometry":{"type":"Point","coordinates":[2.375929,48.889977]},"id":"node/2851307540"},{"type":"Feature","properties":{"@id":"node/6100652395","addr:city":"Paris","addr:housenumber":"72 bis","addr:postcode":"75019","addr:street":"Avenue de Flandre","brand":"Alain Afflelou","brand:wikidata":"Q2829511","brand:wikipedia":"fr:Alain Afflelou (entreprise)","name":"Alain Afflelou","opening_hours":"Mo-Fr 10:00-20:00; Su 10:00-13:00","ref:FR:SIRET":"75242646000024","shop":"optician","id":"node/6100652395"},"geometry":{"type":"Point","coordinates":[2.3753697,48.8891757]},"id":"node/6100652395"},{"type":"Feature","properties":{"@id":"node/6100662627","addr:city":"Paris","addr:housenumber":"84","addr:postcode":"75019","addr:street":"Avenue de Flandre","amenity":"restaurant","check_date":"2026-01-27","cuisine":"italian","name":"La Tour de Flandre","payment:cash":"yes","payment:credit_cards":"yes","payment:debit_cards":"yes","payment:visa":"yes","id":"node/6100662627"},"geometry":{"type":"Point","coordinates":[2.3760268,48.8897074]},"id":"node/6100662627"},{"type":"Feature","properties":{"@id":"node/6100665109","addr:city":"Paris","addr:housenumber":"84","addr:postcode":"75019","addr:street":"Avenue de Flandre","amenity":"restaurant","name":"Afrique kura","ref:FR:SIRET":"49236633100022","id":"node/6100665109"},"geometry":{"type":"Point","coordinates":[2.3759504,48.8896422]},"id":"node/6100665109"},{"type":"Feature","properties":{"@id":"node/6100665110","addr:city":"Paris","addr:housenumber":"82","addr:postcode":"75019","addr:street":"Avenue de Flandre","name":"Bijouterie Or Flandre","opening_hours":"Tu-Sa 10:15-18:30","ref:FR:SIRET":"79364914600016","shop":"jewelry","id":"node/6100665110"},"geometry":{"type":"Point","coordinates":[2.3758746,48.8895893]},"id":"node/6100665110"},{"type":"Feature","properties":{"@id":"node/6100665112","addr:city":"Paris","addr:housenumber":"78","addr:postcode":"75019","addr:street":"Avenue de Flandre","name":"Chez Osama","ref:FR:SIRET":"98134714900016","shop":"convenience","id":"node/6100665112"},"geometry":{"type":"Point","coordinates":[2.3756999,48.8894416]},"id":"node/6100665112"},{"type":"Feature","properties":{"@id":"node/6100665113","addr:city":"Paris","addr:housenumber":"78","addr:postcode":"75019","addr:street":"Avenue de Flandre","amenity":"restaurant","name":"Pasta cosi","ref:FR:SIRET":"91359401600010","id":"node/6100665113"},"geometry":{"type":"Point","coordinates":[2.3755799,48.8893567]},"id":"node/6100665113"},{"type":"Feature","properties":{"@id":"node/12021738540","highway":"street_lamp","id":"node/12021738540"},"geometry":{"type":"Point","coordinates":[2.3755652,48.8899238]},"id":"node/12021738540"}]}