{"type":"FeatureCollection","features":[{"type":"Feature","properties":{"@id":"way/63971649","amenity":"arts_centre","building":"yes","building:facade:material":"glass","building:material":"glass","check_date":"2026-01-23","height":"16","name":"Grande Halle de la Villette","roof:height":"10","roof:material":"metal","roof:shape":"gabled","source":"cadastre-dgi-fr source : Direction Générale des Impôts - Cadastre. Mise à jour : 2010","start_date":"1867","website":"https://www.villette.com/","wheelchair":"yes","wikidata":"Q2010697","wikipedia":"fr:Grande halle de la Villette","id":"way/63971649"},"geometry":{"type":"Polygon","coordinates":[[[2.3893726,48.8915613],[2.3909764,48.8901052],[2.3913075,48.8898046],[2.3916305,48.8899577],[2.3918023,48.8900402],[2.3919726,48.890122],[2.3922716,48.8902637],[2.3919418,48.8905631],[2.3903366,48.8920203],[2.3900263,48.8918733],[2.3896842,48.8917089],[2.3893726,48.8915613]]]},"id":"way/63971649"},{"type":"Feature","properties":{"@id":"way/281428295","highway":"footway","lit":"yes","source":"GPS","surface":"paving_stones","id":"way/281428295"},"geometry":{"type":"LineString","coordinates":[[2.3898903,48.8901097],[2.3900083,48.8900991],[2.390089,48.8901232],[2.3901427,48.8901738],[2.3902014,48.8902437],[2.3902331,48.890312],[2.3902686,48.8903513],[2.3903297,48.8903674],[2.3904092,48.8903824]]},"id":"way/281428295"},{"type":"Feature","properties":{"@id":"way/511785826","bicycle":"yes","covered":"yes","highway":"footway","lit":"yes","name":"Galerie de la Villette","smoothness":"good","surface":"paving_stones","id":"way/511785826"},"geometry":{"type":"LineString","coordinates":[[2.3917168,48.8891874],[2.3911434,48.8897062],[2.3908078,48.8900118],[2.3907682,48.8900479],[2.3904092,48.8903824]]},"id":"way/511785826"},{"type":"Feature","properties":{"@id":"way/1193579444","footway":"sidewalk","highway":"footway","lit":"yes","surface":"asphalt","id":"way/1193579444"},"geometry":{"type":"LineString","coordinates":[[2.3908078,48.8900118],[2.3894891,48.8893438],[2.3891844,48.8891911],[2.3886875,48.8889398]]},"id":"way/1193579444"},{"type":"Feature","properties":{"@id":"way/1429252837","bicycle":"yes","covered":"yes","highway":"footway","lit":"yes","name":"Galerie de la Villette","smoothness":"good","surface":"paving_stones","id":"way/1429252837"},"geometry":{"type":"LineString","coordinates":[[2.3904092,48.8903824],[2.3898205,48.8909401],[2.3895477,48.8911985],[2.3893874,48.8913489]]},"id":"way/1429252837"},{"type":"Feature","properties":{"@id":"node/5000373341","addr:city":"Paris","addr:housenumber":"211","addr:postcode":"75019","addr:street":"Avenue Jean Jaurès","amenity":"restaurant","contact:phone":"+33 9 82 25 91 81","contact:website":"https://www.lapetitehalle.com/","indoor_seating":"yes","name":"La Petite Halle","outdoor_seating":"no","smoking":"no","wheelchair":"yes","id":"node/5000373341"},"geometry":{"type":"Point","coordinates":[2.390848,48.8902779]},"id":"node/5000373341"}]}