{"type":"FeatureCollection","features":[{"type":"Feature","properties":{"@id":"way/64040442","building":"yes","building:levels":"9","source":"cadastre-dgi-fr source : Direction Générale des Impôts - Cadastre. Mise à jour : 2010","id":"way/64040442"},"geometry":{"type":"Polygon","coordinates":[[[2.3824721,48.8908076],[2.3824785,48.8908141],[2.3823786,48.8908655],[2.3823707,48.8908594],[2.382308,48.8908905],[2.3822329,48.8908258],[2.382295,48.8907951],[2.3822853,48.890786],[2.3823833,48.8907358],[2.3823955,48.8907447],[2.3824558,48.8907132],[2.382505,48.8907549],[2.3825315,48.8907775],[2.3824721,48.8908076]]]},"id":"way/64040442"},{"type":"Feature","properties":{"@id":"way/231936826","amenity":"childcare","building":"yes","building:levels":"4","name":"crèche municipale","operator":"Ville de Paris","operator:type":"public","id":"way/231936826"},"geometry":{"type":"Polygon","coordinates":[[[2.3822173,48.8905134],[2.3822441,48.8901378],[2.3822736,48.8901289],[2.3824176,48.8902008],[2.3825526,48.8902683],[2.3824565,48.8903495],[2.3822562,48.8905187],[2.3822173,48.8905134]]]},"id":"way/231936826"},{"type":"Feature","properties":{"@id":"way/19428649","bicycle:backward":"use_sidepath","cycleway:both":"separate","highway":"residential","lanes":"1","lit":"yes","maxheight":"3.5","maxspeed":"30","name":"Quai de l'Oise","name:etymology:wikidata":"Q200231","oneway":"yes","parking:left":"lane","parking:left:orientation":"parallel","parking:right":"no","sidewalk:both":"separate","surface":"asphalt","id":"way/19428649"},"geometry":{"type":"LineString","coordinates":[[2.3791114,48.8886473],[2.3791991,48.8885961],[2.379248,48.8885769],[2.3793165,48.8886089],[2.3796973,48.8887873],[2.3808186,48.8893436],[2.3809452,48.8894061],[2.381546,48.889702],[2.3818661,48.8898639],[2.3821434,48.8900038],[2.3821883,48.8900315],[2.3822139,48.8900473],[2.382899,48.8903893],[2.3830035,48.8904419],[2.3831484,48.890513],[2.3836545,48.8907661],[2.3837433,48.8908108],[2.3838773,48.8908791],[2.3845173,48.8911933]]},"id":"way/19428649"},{"type":"Feature","properties":{"@id":"way/19435006","highway":"residential","lit":"yes","maxspeed":"30","name":"Rue de l'Ourcq","name:etymology:wikidata":"Q945377","oneway":"no","sidewalk:both":"separate","surface":"asphalt","id":"way/19435006"},"geometry":{"type":"LineString","coordinates":[[2.3826186,48.8902999],[2.382308,48.8905694],[2.3822275,48.890644],[2.3821654,48.8906924],[2.3820212,48.8907871],[2.3810995,48.8912768],[2.379563,48.8920931],[2.3792278,48.8922695],[2.3791234,48.892308]]},"id":"way/19435006"},{"type":"Feature","properties":{"@id":"way/19435061","cycleway:left":"opposite:lane","highway":"residential","lanes":"1","maxspeed":"30","name":"Rue de l'Oise","name:etymology:wikidata":"Q200231","oneway":"yes","sidewalk:both":"separate","source:maxspeed":"BMO arrêté n°2014P0207","surface":"asphalt","zone:maxspeed":"FR:30","id":"way/19435061"},"geometry":{"type":"LineString","coordinates":[[2.3822139,48.8900473],[2.3821866,48.8900864],[2.3821687,48.8905863],[2.3822275,48.890644]]},"id":"way/19435061"},{"type":"Feature","properties":{"@id":"way/19435071","cycleway:both":"no","highway":"residential","lanes":"1","lit":"yes","maxspeed":"30","name":"Rue de l'Aisne","name:etymology:wikidata":"Q41962","oneway":"yes","oneway:bicycle":"no","sidewalk:both":"separate","source:maxspeed":"BMO arrêté n°2014P0207","surface":"asphalt","zone:maxspeed":"FR:30","id":"way/19435071"},"geometry":{"type":"LineString","coordinates":[[2.3822275,48.890644],[2.3823364,48.8906575],[2.3830219,48.8905392],[2.3831484,48.890513]]},"id":"way/19435071"},{"type":"Feature","properties":{"@id":"way/24868186","bridge":"yes","bridge:structure":"truss","highway":"residential","lanes":"2","layer":"1","lit":"yes","maxspeed":"30","maxweight:signed":"no","maxweightrating:signed":"no","name":"Pont de la Rue de l'Ourcq","name:etymology:wikidata":"Q945377","note":"maxweight=* déprécié, utilisez maxweightrating=* à la place (https://forum.openstreetmap.fr/t/proposition-d-edition-automatisee-migration-de-maxweight-en-maxweightrating-pour-la-france/35439/71)","oneway":"no","sidewalk":"separate","smoothness":"good","surface":"asphalt","id":"way/24868186"},"geometry":{"type":"LineString","coordinates":[[2.3826186,48.8902999],[2.383156,48.8898296]]},"id":"way/24868186"},{"type":"Feature","properties":{"@id":"way/43184562","cycleway":"crossing","highway":"cycleway","lit":"yes","surface":"asphalt","id":"way/43184562"},"geometry":{"type":"LineString","coordinates":[[2.3822434,48.8900159],[2.3822139,48.8900473]]},"id":"way/43184562"},{"type":"Feature","properties":{"@id":"way/43184563","cycleway":"crossing","highway":"cycleway","lit":"yes","surface":"asphalt","id":"way/43184563"},"geometry":{"type":"LineString","coordinates":[[2.3831745,48.8904866],[2.3831484,48.890513]]},"id":"way/43184563"},{"type":"Feature","properties":{"@id":"way/43184569","cycleway":"crossing","highway":"cycleway","lit":"yes","surface":"asphalt","width":"1.9","id":"way/43184569"},"geometry":{"type":"LineString","coordinates":[[2.3835489,48.8901738],[2.3835566,48.8901324]]},"id":"way/43184569"},{"type":"Feature","properties":{"@id":"way/72072074","cycleway:both":"no","highway":"residential","lit":"yes","maxspeed":"30","name":"Rue de la Marne","name:etymology:wikidata":"Q41983","oneway":"yes","oneway:bicycle":"no","sidewalk:both":"separate","surface":"asphalt","id":"way/72072074"},"geometry":{"type":"LineString","coordinates":[[2.3836975,48.8893598],[2.3837523,48.889462],[2.3837837,48.8895192],[2.3835691,48.8900828],[2.3835566,48.8901324]]},"id":"way/72072074"},{"type":"Feature","properties":{"@id":"way/74861070","highway":"footway","lit":"yes","surface":"sett","id":"way/74861070"},"geometry":{"type":"LineString","coordinates":[[2.3793754,48.8885574],[2.3808876,48.8892967],[2.3821965,48.8899576],[2.3830545,48.8903864],[2.3837959,48.8907546],[2.3844634,48.8910862],[2.3845009,48.8910939],[2.3848148,48.8912508],[2.3849331,48.8913144],[2.3853488,48.8915129],[2.3853971,48.891542],[2.3854387,48.8915874],[2.3854595,48.8916385],[2.3854588,48.8916808],[2.3853944,48.8918298],[2.3853891,48.8918616],[2.3853891,48.8918938],[2.3853971,48.8919251],[2.3855183,48.8921694],[2.385622,48.8923687],[2.3856908,48.8924806],[2.3857022,48.8925141],[2.3857047,48.8925542],[2.3857029,48.8925784],[2.3856881,48.8926217],[2.385318,48.893206]]},"id":"way/74861070"},{"type":"Feature","properties":{"@id":"way/205673647","footway":"sidewalk","highway":"footway","lit":"yes","smoothness":"good","surface":"sett","id":"way/205673647"},"geometry":{"type":"LineString","coordinates":[[2.3797108,48.8883007],[2.3806596,48.8887857],[2.3824749,48.8896948],[2.3833759,48.8901333],[2.3848774,48.8909014],[2.3860617,48.8914644],[2.3863468,48.8916079],[2.3864759,48.891605]]},"id":"way/205673647"},{"type":"Feature","properties":{"@id":"way/231265511","cycleway":"sidewalk","foot":"no","highway":"cycleway","lit":"yes","name":"Quai de la Marne","name:etymology:wikidata":"Q41983","oneway":"no","smoothness":"good","source:width":"ARCore","surface":"asphalt","width":"2.5","id":"way/231265511"},"geometry":{"type":"LineString","coordinates":[[2.3860568,48.8914208],[2.3858096,48.8912978],[2.3849261,48.890858],[2.3848213,48.8908072],[2.3835489,48.8901738],[2.3834047,48.8901019],[2.3825492,48.8896788],[2.3825109,48.8896598],[2.3807728,48.8887954],[2.3806947,48.888756],[2.3797124,48.8882692],[2.379678,48.8882518],[2.3796279,48.88818]]},"id":"way/231265511"},{"type":"Feature","properties":{"@id":"way/268662321","bicycle:backward":"use_sidepath","cycleway":"separate","highway":"residential","lit":"yes","maxspeed":"30","name":"Quai de la Marne","name:etymology:wikidata":"Q41983","oneway":"yes","sidewalk":"separate","smoothness":"intermediate","surface":"sett","id":"way/268662321"},"geometry":{"type":"LineString","coordinates":[[2.3835566,48.8901324],[2.3845883,48.8906489]]},"id":"way/268662321"},{"type":"Feature","properties":{"@id":"way/714583369","cycleway":"sidewalk","foot":"no","highway":"cycleway","incline":"0%","lit":"yes","name":"Quai de l'Oise","name:etymology:wikidata":"Q200231","oneway":"no","surface":"asphalt","width":"2.2","id":"way/714583369"},"geometry":{"type":"LineString","coordinates":[[2.3822031,48.8899881],[2.3822434,48.8900159],[2.3822779,48.8900401],[2.3830311,48.8904142],[2.3831745,48.8904866],[2.3837713,48.8907819],[2.3839071,48.8908494],[2.3849039,48.8913434],[2.3850189,48.8914008],[2.3852917,48.8915371],[2.3853544,48.8915825],[2.3853774,48.8916386],[2.3853764,48.8916893],[2.3853394,48.8918002],[2.3853218,48.8918861],[2.3853202,48.8919952],[2.3853427,48.8921008],[2.3854,48.8922053],[2.3854741,48.8923171]]},"id":"way/714583369"},{"type":"Feature","properties":{"@id":"way/1193527298","crossing":"uncontrolled","crossing:markings":"yes","footway":"crossing","highway":"footway","surface":"asphalt","id":"way/1193527298"},"geometry":{"type":"LineString","coordinates":[[2.3821416,48.8906064],[2.3821687,48.8905863],[2.3822039,48.8905601]]},"id":"way/1193527298"},{"type":"Feature","properties":{"@id":"way/1193527299","crossing":"uncontrolled","crossing:markings":"yes","footway":"crossing","highway":"footway","surface":"asphalt","id":"way/1193527299"},"geometry":{"type":"LineString","coordinates":[[2.3821201,48.890673],[2.3821654,48.8906924],[2.3822106,48.8907118]]},"id":"way/1193527299"},{"type":"Feature","properties":{"@id":"way/1193527301","crossing":"uncontrolled","crossing:markings":"yes","footway":"crossing","highway":"footway","surface":"asphalt","id":"way/1193527301"},"geometry":{"type":"LineString","coordinates":[[2.3821557,48.8900698],[2.3821866,48.8900864],[2.3822298,48.8901095]]},"id":"way/1193527301"},{"type":"Feature","properties":{"@id":"way/1193560470","footway":"sidewalk","highway":"footway","surface":"asphalt","id":"way/1193560470"},"geometry":{"type":"LineString","coordinates":[[2.3835185,48.8900579],[2.3837086,48.8894738]]},"id":"way/1193560470"},{"type":"Feature","properties":{"@id":"way/1193560614","footway":"sidewalk","highway":"footway","surface":"asphalt","id":"way/1193560614"},"geometry":{"type":"LineString","coordinates":[[2.3823756,48.8905989],[2.3823823,48.8905879],[2.3824346,48.8905323],[2.3826735,48.8903262]]},"id":"way/1193560614"},{"type":"Feature","properties":{"@id":"way/1193560615","footway":"sidewalk","highway":"footway","surface":"asphalt","id":"way/1193560615"},"geometry":{"type":"LineString","coordinates":[[2.3823776,48.8906179],[2.3823722,48.8906112],[2.3823716,48.8906042],[2.3823756,48.8905989]]},"id":"way/1193560615"},{"type":"Feature","properties":{"@id":"way/1193560616","footway":"sidewalk","highway":"footway","surface":"asphalt","id":"way/1193560616"},"geometry":{"type":"LineString","coordinates":[[2.3829892,48.8905116],[2.3829556,48.8905173],[2.3829174,48.8905191],[2.3824024,48.8906218],[2.3823863,48.8906201],[2.3823776,48.8906179]]},"id":"way/1193560616"},{"type":"Feature","properties":{"@id":"way/1193560617","footway":"sidewalk","highway":"footway","surface":"asphalt","id":"way/1193560617"},"geometry":{"type":"LineString","coordinates":[[2.3829824,48.8904618],[2.3829985,48.8904781],[2.3830012,48.8904962],[2.3829892,48.8905116]]},"id":"way/1193560617"},{"type":"Feature","properties":{"@id":"way/1193560619","footway":"sidewalk","highway":"footway","surface":"asphalt","id":"way/1193560619"},"geometry":{"type":"LineString","coordinates":[[2.3822388,48.8901236],[2.3822596,48.8901179],[2.3822971,48.8901236],[2.3824742,48.8902114],[2.3825734,48.8902577],[2.3829824,48.8904618]]},"id":"way/1193560619"},{"type":"Feature","properties":{"@id":"way/1193560620","footway":"sidewalk","highway":"footway","surface":"asphalt","id":"way/1193560620"},"geometry":{"type":"LineString","coordinates":[[2.3822234,48.8905416],[2.3822113,48.8905354],[2.3822019,48.8905178],[2.38222,48.8902343],[2.3822281,48.8901342],[2.3822388,48.8901236]]},"id":"way/1193560620"},{"type":"Feature","properties":{"@id":"way/1193560621","footway":"sidewalk","highway":"footway","surface":"asphalt","id":"way/1193560621"},"geometry":{"type":"LineString","coordinates":[[2.3822502,48.8905398],[2.3822341,48.8905433],[2.3822234,48.8905416]]},"id":"way/1193560621"},{"type":"Feature","properties":{"@id":"way/1193560622","footway":"sidewalk","highway":"footway","surface":"asphalt","id":"way/1193560622"},"geometry":{"type":"LineString","coordinates":[[2.3823072,48.8904979],[2.3822502,48.8905398]]},"id":"way/1193560622"},{"type":"Feature","properties":{"@id":"way/1193560623","footway":"sidewalk","highway":"footway","surface":"asphalt","id":"way/1193560623"},"geometry":{"type":"LineString","coordinates":[[2.3830636,48.8905808],[2.3828282,48.8906245],[2.3824594,48.8907012]]},"id":"way/1193560623"},{"type":"Feature","properties":{"@id":"way/1193560624","footway":"sidewalk","highway":"footway","surface":"asphalt","id":"way/1193560624"},"geometry":{"type":"LineString","coordinates":[[2.3836986,48.8908581],[2.3836463,48.8908445],[2.3831521,48.8905905],[2.3831011,48.8905782],[2.3830636,48.8905808]]},"id":"way/1193560624"},{"type":"Feature","properties":{"@id":"way/1193560632","footway":"sidewalk","highway":"footway","lit":"yes","surface":"asphalt","id":"way/1193560632"},"geometry":{"type":"LineString","coordinates":[[2.3822375,48.8907373],[2.3821557,48.8907656],[2.3820276,48.8908348],[2.3817875,48.8909657],[2.3817835,48.8910036],[2.3814127,48.8911954],[2.3813429,48.8911972],[2.3811401,48.8913052],[2.379275,48.8922985]]},"id":"way/1193560632"},{"type":"Feature","properties":{"@id":"way/1193560633","footway":"sidewalk","highway":"footway","surface":"asphalt","id":"way/1193560633"},"geometry":{"type":"LineString","coordinates":[[2.3823038,48.8907241],[2.3822375,48.8907373]]},"id":"way/1193560633"},{"type":"Feature","properties":{"@id":"way/1193560634","footway":"sidewalk","highway":"footway","surface":"asphalt","id":"way/1193560634"},"geometry":{"type":"LineString","coordinates":[[2.3824594,48.8907012],[2.3823273,48.8907206],[2.3823038,48.8907241]]},"id":"way/1193560634"},{"type":"Feature","properties":{"@id":"way/1193570184","footway":"sidewalk","highway":"footway","lit":"yes","surface":"sett","id":"way/1193570184"},"geometry":{"type":"LineString","coordinates":[[2.3833759,48.8901333],[2.3833952,48.8901126]]},"id":"way/1193570184"},{"type":"Feature","properties":{"@id":"way/1193570185","crossing":"uncontrolled","crossing:markings":"zebra","crossing:signals":"no","footway":"crossing","highway":"footway","lit":"yes","surface":"sett","id":"way/1193570185"},"geometry":{"type":"LineString","coordinates":[[2.3834431,48.8900588],[2.3834353,48.8900676],[2.383417,48.8900881],[2.3834047,48.8901019],[2.3833952,48.8901126]]},"id":"way/1193570185"},{"type":"Feature","properties":{"@id":"way/1193570186","crossing":"uncontrolled","crossing:markings":"zebra","crossing:signals":"no","footway":"crossing","highway":"footway","lit":"yes","surface":"asphalt","id":"way/1193570186"},"geometry":{"type":"LineString","coordinates":[[2.3836212,48.8901082],[2.3835691,48.8900828],[2.3835256,48.8900615]]},"id":"way/1193570186"},{"type":"Feature","properties":{"@id":"way/1193792724","crossing":"uncontrolled","crossing:markings":"yes","footway":"crossing","highway":"footway","lit":"yes","surface":"asphalt","id":"way/1193792724"},"geometry":{"type":"LineString","coordinates":[[2.3829898,48.8904556],[2.3830035,48.8904419],[2.3830311,48.8904142],[2.3830406,48.8904048]]},"id":"way/1193792724"},{"type":"Feature","properties":{"@id":"way/1193792725","highway":"footway","lit":"yes","surface":"asphalt","id":"way/1193792725"},"geometry":{"type":"LineString","coordinates":[[2.3830545,48.8903864],[2.3830406,48.8904048]]},"id":"way/1193792725"},{"type":"Feature","properties":{"@id":"way/1193792726","crossing":"uncontrolled","crossing:markings":"yes","footway":"crossing","highway":"footway","lit":"yes","surface":"asphalt","id":"way/1193792726"},"geometry":{"type":"LineString","coordinates":[[2.3830052,48.8905275],[2.3830219,48.8905392],[2.3830455,48.8905557]]},"id":"way/1193792726"},{"type":"Feature","properties":{"@id":"way/1193792727","crossing":"uncontrolled","crossing:markings":"yes","footway":"crossing","highway":"footway","lit":"yes","surface":"asphalt","id":"way/1193792727"},"geometry":{"type":"LineString","coordinates":[[2.3823588,48.8906386],[2.3823364,48.8906575],[2.3823012,48.8906871]]},"id":"way/1193792727"},{"type":"Feature","properties":{"@id":"way/1193792728","crossing":"uncontrolled","crossing:markings":"yes","footway":"crossing","highway":"footway","surface":"asphalt","id":"way/1193792728"},"geometry":{"type":"LineString","coordinates":[[2.3822663,48.8905522],[2.382308,48.8905694],[2.3823528,48.8905879]]},"id":"way/1193792728"},{"type":"Feature","properties":{"@id":"way/1225657273","bridge":"yes","footway":"sidewalk","highway":"footway","layer":"1","surface":"asphalt","id":"way/1225657273"},"geometry":{"type":"LineString","coordinates":[[2.3831003,48.8898068],[2.3825663,48.8902749]]},"id":"way/1225657273"},{"type":"Feature","properties":{"@id":"way/1225657274","bridge":"yes","footway":"sidewalk","highway":"footway","layer":"1","surface":"asphalt","id":"way/1225657274"},"geometry":{"type":"LineString","coordinates":[[2.3826735,48.8903262],[2.3832133,48.889853]]},"id":"way/1225657274"},{"type":"Feature","properties":{"@id":"way/1225657277","footway":"sidewalk","highway":"footway","surface":"asphalt","id":"way/1225657277"},"geometry":{"type":"LineString","coordinates":[[2.3825663,48.8902749],[2.3823072,48.8904979]]},"id":"way/1225657277"},{"type":"Feature","properties":{"@id":"way/1225657506","footway":"sidewalk","highway":"footway","surface":"asphalt","id":"way/1225657506"},"geometry":{"type":"LineString","coordinates":[[2.3822388,48.8901236],[2.3822298,48.8901095]]},"id":"way/1225657506"},{"type":"Feature","properties":{"@id":"way/1225657507","footway":"sidewalk","highway":"footway","surface":"asphalt","id":"way/1225657507"},"geometry":{"type":"LineString","coordinates":[[2.3822234,48.8905416],[2.3822039,48.8905601]]},"id":"way/1225657507"},{"type":"Feature","properties":{"@id":"way/1225657508","footway":"sidewalk","highway":"footway","surface":"asphalt","id":"way/1225657508"},"geometry":{"type":"LineString","coordinates":[[2.3822502,48.8905398],[2.3822663,48.8905522]]},"id":"way/1225657508"},{"type":"Feature","properties":{"@id":"way/1225657509","footway":"sidewalk","highway":"footway","surface":"asphalt","id":"way/1225657509"},"geometry":{"type":"LineString","coordinates":[[2.3829824,48.8904618],[2.3829898,48.8904556]]},"id":"way/1225657509"},{"type":"Feature","properties":{"@id":"way/1225657510","footway":"sidewalk","highway":"footway","surface":"asphalt","id":"way/1225657510"},"geometry":{"type":"LineString","coordinates":[[2.3829892,48.8905116],[2.3830052,48.8905275]]},"id":"way/1225657510"},{"type":"Feature","properties":{"@id":"way/1225657511","footway":"sidewalk","highway":"footway","surface":"asphalt","id":"way/1225657511"},"geometry":{"type":"LineString","coordinates":[[2.3823776,48.8906179],[2.3823588,48.8906386]]},"id":"way/1225657511"},{"type":"Feature","properties":{"@id":"way/1225657512","footway":"sidewalk","highway":"footway","surface":"asphalt","id":"way/1225657512"},"geometry":{"type":"LineString","coordinates":[[2.3823756,48.8905989],[2.3823528,48.8905879]]},"id":"way/1225657512"},{"type":"Feature","properties":{"@id":"way/1225657513","footway":"sidewalk","highway":"footway","surface":"asphalt","id":"way/1225657513"},"geometry":{"type":"LineString","coordinates":[[2.3823038,48.8907241],[2.3823012,48.8906871]]},"id":"way/1225657513"},{"type":"Feature","properties":{"@id":"way/1225657514","footway":"sidewalk","highway":"footway","surface":"asphalt","id":"way/1225657514"},"geometry":{"type":"LineString","coordinates":[[2.3822375,48.8907373],[2.3822106,48.8907118]]},"id":"way/1225657514"},{"type":"Feature","properties":{"@id":"way/1225657523","footway":"sidewalk","highway":"footway","surface":"asphalt","id":"way/1225657523"},"geometry":{"type":"LineString","coordinates":[[2.3830636,48.8905808],[2.3830455,48.8905557]]},"id":"way/1225657523"},{"type":"Feature","properties":{"@id":"way/1225657607","footway":"sidewalk","highway":"footway","lit":"yes","surface":"asphalt","id":"way/1225657607"},"geometry":{"type":"LineString","coordinates":[[2.3834555,48.8900443],[2.3834431,48.8900588]]},"id":"way/1225657607"},{"type":"Feature","properties":{"@id":"way/1225657608","footway":"sidewalk","highway":"footway","lit":"yes","surface":"asphalt","id":"way/1225657608"},"geometry":{"type":"LineString","coordinates":[[2.3835256,48.8900615],[2.3835185,48.8900579],[2.3834555,48.8900443],[2.3827361,48.8896962],[2.3827249,48.8896618],[2.3827159,48.8896569]]},"id":"way/1225657608"},{"type":"Feature","properties":{"@id":"way/1262837955","highway":"residential","lit":"yes","maxheight":"3.5","maxspeed":"30","name":"Quai de la Marne","name:etymology:wikidata":"Q41983","oneway":"yes","sidewalk":"separate","smoothness":"intermediate","surface":"sett","id":"way/1262837955"},"geometry":{"type":"LineString","coordinates":[[2.3831322,48.8899196],[2.3834353,48.8900676],[2.3835566,48.8901324]]},"id":"way/1262837955"},{"type":"Feature","properties":{"@id":"node/7368652154","amenity":"bicycle_rental","bicycle_rental":"docking_station","brand":"Vélib' Métropole","brand:wikidata":"Q1120762","brand:wikipedia":"fr:Vélib' Métropole","capacity":"30","name":"Quai de l'Oise - Aisne","network":"Vélib' Métropole","network:wikidata":"Q1120762","network:wikipedia":"fr:Vélib' Métropole","operator":"Smovengo","operator:type":"private","operator:wikidata":"Q47008427","operator:wikipedia":"fr:Smovengo","ref":"19128","source":"Autolib Velib Métropole - 04/2019","wikidata":"Q86254959","id":"node/7368652154"},"geometry":{"type":"Point","coordinates":[2.3833627,48.8906609]},"id":"node/7368652154"},{"type":"Feature","properties":{"@id":"node/7659450753","amenity":"cafe","changing_table":"no","check_date":"2026-01-10","contact:facebook":"Kaffee-bar-19-1519957718261175","cuisine":"coffee_shop","diet:vegetarian":"yes","internet_access":"wlan","internet_access:fee":"customers","level":"0","name":"Kaffee Bar 19","name:fr":"Kaffebar 19","opening_hours":"Mo-Fr 08:30-17:00; Sa,Su 09:30-18:00","outdoor_seating":"yes","ref:FR:SIRET":"80494672100011","smoking":"outside","takeaway":"yes","toilets":"yes","toilets:access":"customers","toilets:wheelchair":"no","wheelchair":"no","id":"node/7659450753"},"geometry":{"type":"Point","coordinates":[2.38243,48.8905861]},"id":"node/7659450753"},{"type":"Feature","properties":{"@id":"node/10205035027","genus":"Cornus","leaf_type":"broadleaved","natural":"tree","species":"Cornus mas","id":"node/10205035027"},"geometry":{"type":"Point","coordinates":[2.38342,48.889996]},"id":"node/10205035027"},{"type":"Feature","properties":{"@id":"node/10883917832","genus":"Celtis","leaf_type":"broadleaved","natural":"tree","species":"Celtis australis","id":"node/10883917832"},"geometry":{"type":"Point","coordinates":[2.3832108,48.890606]},"id":"node/10883917832"},{"type":"Feature","properties":{"@id":"node/10883917833","genus":"Celtis","leaf_type":"broadleaved","natural":"tree","species":"Celtis australis","id":"node/10883917833"},"geometry":{"type":"Point","coordinates":[2.3833161,48.8906602]},"id":"node/10883917833"},{"type":"Feature","properties":{"@id":"node/10883917834","genus":"Celtis","leaf_type":"broadleaved","natural":"tree","species":"Celtis australis","id":"node/10883917834"},"geometry":{"type":"Point","coordinates":[2.383406,48.8907021]},"id":"node/10883917834"},{"type":"Feature","properties":{"@id":"node/10883917835","genus":"Celtis","leaf_type":"broadleaved","natural":"tree","species":"Celtis australis","id":"node/10883917835"},"geometry":{"type":"Point","coordinates":[2.3835079,48.8907541]},"id":"node/10883917835"},{"type":"Feature","properties":{"@id":"node/10883917837","genus":"Pyrus","leaf_type":"broadleaved","natural":"tree","species":"Pyrus calleryana","id":"node/10883917837"},"geometry":{"type":"Point","coordinates":[2.382259,48.8907074]},"id":"node/10883917837"},{"type":"Feature","properties":{"@id":"node/12021739179","highway":"street_lamp","id":"node/12021739179"},"geometry":{"type":"Point","coordinates":[2.3825358,48.8901238]},"id":"node/12021739179"},{"type":"Feature","properties":{"@id":"node/12021739180","highway":"street_lamp","id":"node/12021739180"},"geometry":{"type":"Point","coordinates":[2.382323,48.8900185]},"id":"node/12021739180"},{"type":"Feature","properties":{"@id":"node/12987090842","addr:housenumber":"15","addr:street":"Quai de l'Oise","check_date":"2025-07-08","check_date:service:bicycle:pump":"2025-07-08","check_date:service:bicycle:retail":"2025-07-08","email":"hello.fr@ridezoomo.com","name":"Zoomo","opening_hours":"Mo-Fr 11:00-17:00; Sa-Su off","service:bicycle:pump":"no","service:bicycle:retail":"no","shop":"bicycle","website":"https://ridezoomo.com","id":"node/12987090842"},"geometry":{"type":"Point","coordinates":[2.3832039,48.8906705]},"id":"node/12987090842"},{"type":"Feature","properties":{"@id":"node/13008659844","addr:housenumber":"26","addr:street":"Rue de l'Ourcq","check_date":"2025-07-18","name":"PS Bazar Multimédia","shop":"copyshop","id":"node/13008659844"},"geometry":{"type":"Point","coordinates":[2.3825481,48.890465]},"id":"node/13008659844"}]}