{"type":"FeatureCollection","features":[{"type":"Feature","properties":{"@id":"way/64038125","building":"yes","source":"cadastre-dgi-fr source : Direction Générale des Impôts - Cadastre. Mise à jour : 2010","id":"way/64038125"},"geometry":{"type":"Polygon","coordinates":[[[2.3780831,48.8911702],[2.3780641,48.8911894],[2.3780444,48.8911999],[2.3779441,48.8911128],[2.3780235,48.8910711],[2.3780521,48.8910929],[2.3781148,48.8911455],[2.3780831,48.8911702]]]},"id":"way/64038125"},{"type":"Feature","properties":{"@id":"way/64038532","building":"yes","building:levels":"6","source":"cadastre-dgi-fr source : Direction Générale des Impôts - Cadastre. Mise à jour : 2010","id":"way/64038532"},"geometry":{"type":"Polygon","coordinates":[[[2.3780815,48.8912758],[2.3780162,48.8913128],[2.3780016,48.8913012],[2.3779417,48.8912536],[2.3780444,48.8911999],[2.3781025,48.891249],[2.3781146,48.8912592],[2.3780815,48.8912758]]]},"id":"way/64038532"},{"type":"Feature","properties":{"@id":"way/64039009","building":"apartments","source":"cadastre-dgi-fr source : Direction Générale des Impôts - Cadastre. Mise à jour : 2010","id":"way/64039009"},"geometry":{"type":"Polygon","coordinates":[[[2.3767412,48.8910104],[2.3766581,48.8910509],[2.3765387,48.8909957],[2.3765985,48.8909407],[2.3766869,48.8908594],[2.3768754,48.8910095],[2.3771191,48.8912037],[2.3770719,48.8912336],[2.3770529,48.8912456],[2.3770402,48.8912536],[2.3767412,48.8910104]]]},"id":"way/64039009"},{"type":"Feature","properties":{"@id":"way/64040444","building":"yes","building:levels":"6","source":"cadastre-dgi-fr source : Direction Générale des Impôts - Cadastre. Mise à jour : 2010","id":"way/64040444"},"geometry":{"type":"Polygon","coordinates":[[[2.3780444,48.8911999],[2.3779417,48.8912536],[2.377765,48.8911142],[2.377769,48.8910888],[2.37787,48.8910371],[2.3779937,48.8909739],[2.3780758,48.8910435],[2.3781025,48.8910665],[2.3780521,48.8910929],[2.3780235,48.8910711],[2.3779441,48.8911128],[2.3780444,48.8911999]]]},"id":"way/64040444"},{"type":"Feature","properties":{"@id":"way/4039126","cycleway:right":"separate","dual_carriageway":"yes","highway":"primary","lanes":"2","lit":"yes","maxspeed":"30","name":"Avenue de Flandre","name:etymology:wikidata":"Q157070","oneway":"yes","parking:both":"street_side","sidewalk:both":"separate","surface":"asphalt","id":"way/4039126"},"geometry":{"type":"LineString","coordinates":[[2.3788995,48.8924272],[2.3787405,48.8923021],[2.3783067,48.8919699],[2.3782097,48.8918956],[2.3780388,48.8917647],[2.3777507,48.891544],[2.3775225,48.8913692],[2.3774778,48.891335],[2.3773557,48.8912396]]},"id":"way/4039126"},{"type":"Feature","properties":{"@id":"way/19428577","cycleway:both":"no","highway":"residential","lanes":"1","lit":"yes","maxspeed":"30","name":"Rue de Joinville","name:etymology:wikidata":"Q454337","oneway":"yes","oneway:bicycle":"no","sidewalk:both":"separate","source:maxspeed":"BMO arrêté n°2014P0207","surface":"asphalt","zone:maxspeed":"FR:30","id":"way/19428577"},"geometry":{"type":"LineString","coordinates":[[2.3809452,48.8894061],[2.3808734,48.8894432],[2.3800571,48.8898591],[2.3799552,48.8899099],[2.3792263,48.8902801],[2.3791712,48.8903078],[2.3790762,48.8903557],[2.3781872,48.890804],[2.377674,48.8910684],[2.3776616,48.8910747],[2.3775718,48.8911228]]},"id":"way/19428577"},{"type":"Feature","properties":{"@id":"way/74864070","highway":"footway","lit":"yes","surface":"paving_stones","id":"way/74864070"},"geometry":{"type":"LineString","coordinates":[[2.3772882,48.8911323],[2.3773526,48.8910943],[2.3774113,48.8910597]]},"id":"way/74864070"},{"type":"Feature","properties":{"@id":"way/74864071","highway":"footway","lit":"yes","surface":"asphalt","id":"way/74864071"},"geometry":{"type":"LineString","coordinates":[[2.3769845,48.8907341],[2.3769318,48.8907643],[2.3773526,48.8910943]]},"id":"way/74864071"},{"type":"Feature","properties":{"@id":"way/74864173","cycleway:left":"opposite_lane","highway":"residential","lit":"yes","maxspeed":"30","name":"Rue de Joinville","name:etymology:wikidata":"Q454337","oneway":"yes","oneway:bicycle":"no","sidewalk":"both","surface":"asphalt","id":"way/74864173"},"geometry":{"type":"LineString","coordinates":[[2.3774918,48.8911644],[2.3774645,48.8911795],[2.3774289,48.8911992]]},"id":"way/74864173"},{"type":"Feature","properties":{"@id":"way/74864176","highway":"footway","lit":"yes","surface":"asphalt","id":"way/74864176"},"geometry":{"type":"LineString","coordinates":[[2.3775889,48.8912742],[2.378851,48.8922398],[2.3789423,48.8923143]]},"id":"way/74864176"},{"type":"Feature","properties":{"@id":"way/156620487","bicycle:lanes":"yes|designated","busway:right":"lane","cycleway:right":"share_busway","dual_carriageway":"yes","highway":"primary","lanes":"2","lit":"yes","maxspeed":"30","name":"Avenue de Flandre","name:etymology:wikidata":"Q157070","oneway":"yes","psv:lanes":"yes|designated","sidewalk:both":"separate","surface":"asphalt","id":"way/156620487"},"geometry":{"type":"LineString","coordinates":[[2.3768534,48.8905562],[2.3770364,48.8907045],[2.3774584,48.8910354],[2.3775718,48.8911228],[2.3776948,48.8912162],[2.3778066,48.8912992],[2.3778888,48.8913622],[2.3789557,48.8921809],[2.3791234,48.892308]]},"id":"way/156620487"},{"type":"Feature","properties":{"@id":"way/283020291","covered":"yes","highway":"footway","id":"way/283020291"},"geometry":{"type":"LineString","coordinates":[[2.3780016,48.8913012],[2.3780166,48.8912457]]},"id":"way/283020291"},{"type":"Feature","properties":{"@id":"way/509026857","highway":"footway","source":"Observations personnelles","id":"way/509026857"},"geometry":{"type":"LineString","coordinates":[[2.3776165,48.8916602],[2.3776876,48.8916251]]},"id":"way/509026857"},{"type":"Feature","properties":{"@id":"way/598332638","crossing":"traffic_signals","crossing:markings":"zebra","crossing:signals":"yes","footway":"crossing","highway":"footway","lit":"yes","surface":"asphalt","traffic_signals:sound":"yes","id":"way/598332638"},"geometry":{"type":"LineString","coordinates":[[2.3775015,48.8912077],[2.3774645,48.8911795],[2.3774406,48.8911613]]},"id":"way/598332638"},{"type":"Feature","properties":{"@id":"way/744744226","cycleway":"on_street","foot":"no","highway":"cycleway","lit":"yes","name":"Avenue de Flandre","name:etymology:wikidata":"Q157070","oneway":"yes","source":"Observations personnelles","surface":"asphalt","id":"way/744744226"},"geometry":{"type":"LineString","coordinates":[[2.3814641,48.8944376],[2.3814462,48.8943459],[2.3814043,48.8943075],[2.3813899,48.8942964],[2.3800172,48.8932319],[2.3798984,48.8931443],[2.3797781,48.893049],[2.3791037,48.8925261],[2.3789449,48.892403],[2.3787816,48.8922789],[2.3775213,48.8913112],[2.3773992,48.8912156],[2.3772882,48.8911323],[2.3768654,48.8908023],[2.376708,48.8906795],[2.3765757,48.8905772],[2.376554,48.8905603],[2.3764895,48.8905121],[2.3764322,48.8904659],[2.3754103,48.889652],[2.3748301,48.8891897],[2.3740798,48.8885918],[2.3740768,48.8885893],[2.3740238,48.8885409],[2.3739178,48.888447],[2.3737893,48.8883387],[2.3732353,48.8878824],[2.3731875,48.887843],[2.3725389,48.8873099],[2.3725375,48.8873089],[2.3715908,48.8865301],[2.3710781,48.8861087],[2.3708287,48.8859036],[2.370679,48.8857883],[2.3705507,48.8856863],[2.3699252,48.8851828],[2.3691714,48.884576],[2.369165,48.8845719],[2.3689748,48.8844707]]},"id":"way/744744226"},{"type":"Feature","properties":{"@id":"way/757091422","cycleway":"on_street","foot":"no","highway":"cycleway","lit":"yes","name":"Avenue de Flandre","name:etymology:wikidata":"Q157070","oneway":"yes","smoothness":"good","source":"Observations personnelles","surface":"asphalt","width":"1.5","id":"way/757091422"},"geometry":{"type":"LineString","coordinates":[[2.3690298,48.8842113],[2.3690356,48.8842912],[2.3691542,48.8843955],[2.3692977,48.8845085],[2.3700521,48.8851139],[2.3706788,48.8856183],[2.3708045,48.8857217],[2.3710197,48.8858924],[2.3716959,48.886448],[2.3726652,48.8872446],[2.3733175,48.8877802],[2.3733585,48.887814],[2.3739196,48.8882764],[2.3740666,48.8883927],[2.3742178,48.8885132],[2.3742208,48.8885156],[2.3749298,48.8890822],[2.375548,48.8895762],[2.376673,48.8904751],[2.3766878,48.8904868],[2.3768149,48.8905868],[2.3769861,48.8907181],[2.3769973,48.8907268],[2.3774113,48.8910597],[2.3775216,48.891148],[2.3776526,48.8912393],[2.37891,48.8922066],[2.3790698,48.8923365],[2.3792332,48.8924547],[2.3799072,48.8929747],[2.3800245,48.8930705],[2.3801456,48.8931594],[2.381514,48.8942283],[2.3815309,48.8942415],[2.3815897,48.8942855],[2.3817076,48.8943154]]},"id":"way/757091422"},{"type":"Feature","properties":{"@id":"way/951738554","cycleway:left":"separate","dual_carriageway":"yes","highway":"primary","lanes":"1","lit":"yes","maxspeed":"30","name":"Avenue de Flandre","name:etymology:wikidata":"Q157070","oneway":"yes","parking:lane":"both","sidewalk:both":"separate","surface":"asphalt","id":"way/951738554"},"geometry":{"type":"LineString","coordinates":[[2.3773557,48.8912396],[2.3772441,48.8911559],[2.3768404,48.8908467],[2.3768178,48.8908295],[2.3766683,48.8907149]]},"id":"way/951738554"},{"type":"Feature","properties":{"@id":"way/966792313","cycleway:both":"no","highway":"residential","lit":"yes","maxspeed":"30","name":"Rue de Joinville","name:etymology:wikidata":"Q454337","oneway":"yes","sidewalk":"both","surface":"asphalt","id":"way/966792313"},"geometry":{"type":"LineString","coordinates":[[2.3775718,48.8911228],[2.3775216,48.891148]]},"id":"way/966792313"},{"type":"Feature","properties":{"@id":"way/966792314","cycleway:left":"opposite_lane","highway":"residential","lit":"yes","maxspeed":"30","name":"Rue de Joinville","name:etymology:wikidata":"Q454337","oneway":"yes","oneway:bicycle":"no","sidewalk":"both","surface":"sett","id":"way/966792314"},"geometry":{"type":"LineString","coordinates":[[2.3775216,48.891148],[2.3774918,48.8911644]]},"id":"way/966792314"},{"type":"Feature","properties":{"@id":"way/966792315","cycleway:both":"no","highway":"residential","lit":"yes","maxspeed":"30","name":"Rue de Joinville","name:etymology:wikidata":"Q454337","oneway":"yes","sidewalk":"both","surface":"sett","id":"way/966792315"},"geometry":{"type":"LineString","coordinates":[[2.3774289,48.8911992],[2.3773992,48.8912156]]},"id":"way/966792315"},{"type":"Feature","properties":{"@id":"way/966792316","cycleway:left":"opposite_lane","highway":"residential","lit":"yes","maxspeed":"30","name":"Rue de Joinville","name:etymology:wikidata":"Q454337","oneway":"yes","oneway:bicycle":"no","sidewalk":"both","surface":"asphalt","id":"way/966792316"},"geometry":{"type":"LineString","coordinates":[[2.3773992,48.8912156],[2.3773557,48.8912396]]},"id":"way/966792316"},{"type":"Feature","properties":{"@id":"way/1192426144","footway":"sidewalk","highway":"footway","surface":"asphalt","id":"way/1192426144"},"geometry":{"type":"LineString","coordinates":[[2.3775235,48.8909992],[2.3774628,48.8909327],[2.3771054,48.890665]]},"id":"way/1192426144"},{"type":"Feature","properties":{"@id":"way/1192426145","footway":"sidewalk","highway":"footway","surface":"asphalt","id":"way/1192426145"},"geometry":{"type":"LineString","coordinates":[[2.3776281,48.8910305],[2.377555,48.8910217],[2.3775235,48.8909992]]},"id":"way/1192426145"},{"type":"Feature","properties":{"@id":"way/1192426146","footway":"sidewalk","highway":"footway","surface":"asphalt","id":"way/1192426146"},"geometry":{"type":"LineString","coordinates":[[2.3776764,48.8910133],[2.3776281,48.8910305]]},"id":"way/1192426146"},{"type":"Feature","properties":{"@id":"way/1192426148","footway":"sidewalk","highway":"footway","id":"way/1192426148"},"geometry":{"type":"LineString","coordinates":[[2.3771587,48.8912033],[2.3772997,48.891321],[2.377385,48.8913859]]},"id":"way/1192426148"},{"type":"Feature","properties":{"@id":"way/1192426149","footway":"sidewalk","highway":"footway","id":"way/1192426149"},"geometry":{"type":"LineString","coordinates":[[2.3767434,48.8908692],[2.3771587,48.8912033]]},"id":"way/1192426149"},{"type":"Feature","properties":{"@id":"way/1193515292","footway":"sidewalk","highway":"footway","surface":"asphalt","id":"way/1193515292"},"geometry":{"type":"LineString","coordinates":[[2.3792039,48.8903366],[2.3791101,48.8903846],[2.3784374,48.8907298],[2.3777132,48.8910971]]},"id":"way/1193515292"},{"type":"Feature","properties":{"@id":"way/1193560479","footway":"sidewalk","highway":"footway","surface":"asphalt","id":"way/1193560479"},"geometry":{"type":"LineString","coordinates":[[2.3781045,48.8907836],[2.3780998,48.8907947],[2.3780398,48.8908317],[2.3776764,48.8910133]]},"id":"way/1193560479"},{"type":"Feature","properties":{"@id":"way/1193560518","footway":"sidewalk","highway":"footway","id":"way/1193560518"},"geometry":{"type":"LineString","coordinates":[[2.3786705,48.8923415],[2.3783878,48.8921442],[2.3782051,48.8920254],[2.37811,48.8919515],[2.37794,48.8918194],[2.3776876,48.8916251],[2.3775174,48.8914898],[2.377385,48.8913859]]},"id":"way/1193560518"},{"type":"Feature","properties":{"@id":"way/1193560637","footway":"sidewalk","highway":"footway","surface":"asphalt","id":"way/1193560637"},"geometry":{"type":"LineString","coordinates":[[2.3777689,48.8911756],[2.3779614,48.891322],[2.3786936,48.8918792],[2.3790289,48.8921397]]},"id":"way/1193560637"},{"type":"Feature","properties":{"@id":"way/1193560638","footway":"sidewalk","highway":"footway","surface":"asphalt","id":"way/1193560638"},"geometry":{"type":"LineString","coordinates":[[2.3777132,48.8910971],[2.3777139,48.8911341],[2.3777689,48.8911756]]},"id":"way/1193560638"},{"type":"Feature","properties":{"@id":"way/1193570164","footway":"sidewalk","highway":"footway","lit":"yes","surface":"paving_stones","id":"way/1193570164"},"geometry":{"type":"LineString","coordinates":[[2.3775328,48.8913049],[2.3775889,48.8912742],[2.3776459,48.891243]]},"id":"way/1193570164"},{"type":"Feature","properties":{"@id":"way/1193570165","crossing":"traffic_signals","crossing:markings":"zebra","crossing:signals":"yes","footway":"crossing","highway":"footway","lit":"yes","surface":"asphalt","traffic_signals:sound":"yes","id":"way/1193570165"},"geometry":{"type":"LineString","coordinates":[[2.3774382,48.8913568],[2.3774778,48.891335],[2.3775213,48.8913112],[2.3775328,48.8913049]]},"id":"way/1193570165"},{"type":"Feature","properties":{"@id":"way/1193570166","crossing":"traffic_signals","crossing:markings":"zebra","crossing:signals":"yes","footway":"crossing","highway":"footway","lit":"yes","surface":"asphalt","traffic_signals:sound":"yes","id":"way/1193570166"},"geometry":{"type":"LineString","coordinates":[[2.3777388,48.8911921],[2.3776948,48.8912162],[2.3776526,48.8912393],[2.3776459,48.891243]]},"id":"way/1193570166"},{"type":"Feature","properties":{"@id":"way/1193570167","highway":"footway","lit":"yes","surface":"asphalt","id":"way/1193570167"},"geometry":{"type":"LineString","coordinates":[[2.3774406,48.8911613],[2.3773526,48.8910943]]},"id":"way/1193570167"},{"type":"Feature","properties":{"@id":"way/1193570168","highway":"footway","lit":"yes","surface":"asphalt","id":"way/1193570168"},"geometry":{"type":"LineString","coordinates":[[2.3775889,48.8912742],[2.3775015,48.8912077]]},"id":"way/1193570168"},{"type":"Feature","properties":{"@id":"way/1193570169","crossing":"traffic_signals","crossing:markings":"zebra","crossing:signals":"yes","footway":"crossing","highway":"footway","lit":"yes","traffic_signals:sound":"yes","id":"way/1193570169"},"geometry":{"type":"LineString","coordinates":[[2.3772882,48.8911323],[2.3772441,48.8911559],[2.3772056,48.8911765]]},"id":"way/1193570169"},{"type":"Feature","properties":{"@id":"way/1193570170","crossing":"traffic_signals","crossing:markings":"zebra","crossing:signals":"yes","footway":"crossing","highway":"footway","lit":"yes","surface":"asphalt","traffic_signals:sound":"yes","id":"way/1193570170"},"geometry":{"type":"LineString","coordinates":[[2.377502,48.8910098],[2.3774584,48.8910354],[2.3774113,48.8910597]]},"id":"way/1193570170"},{"type":"Feature","properties":{"@id":"way/1193570171","crossing":"traffic_signals","crossing:markings":"zebra","crossing:signals":"yes","footway":"crossing","highway":"footway","lit":"yes","surface":"asphalt","traffic_signals:sound":"yes","id":"way/1193570171"},"geometry":{"type":"LineString","coordinates":[[2.3776462,48.8910499],[2.377674,48.8910684],[2.3777012,48.8910865]]},"id":"way/1193570171"},{"type":"Feature","properties":{"@id":"way/1225657385","footway":"sidewalk","highway":"footway","surface":"paving_stones","id":"way/1225657385"},"geometry":{"type":"LineString","coordinates":[[2.377385,48.8913859],[2.3774382,48.8913568]]},"id":"way/1225657385"},{"type":"Feature","properties":{"@id":"way/1225657386","footway":"sidewalk","highway":"footway","id":"way/1225657386"},"geometry":{"type":"LineString","coordinates":[[2.3771587,48.8912033],[2.3772056,48.8911765]]},"id":"way/1225657386"},{"type":"Feature","properties":{"@id":"way/1225657488","footway":"sidewalk","highway":"footway","surface":"asphalt","id":"way/1225657488"},"geometry":{"type":"LineString","coordinates":[[2.3776281,48.8910305],[2.3776462,48.8910499]]},"id":"way/1225657488"},{"type":"Feature","properties":{"@id":"way/1225657489","footway":"sidewalk","highway":"footway","surface":"asphalt","id":"way/1225657489"},"geometry":{"type":"LineString","coordinates":[[2.3775235,48.8909992],[2.377502,48.8910098]]},"id":"way/1225657489"},{"type":"Feature","properties":{"@id":"way/1225657498","footway":"sidewalk","highway":"footway","surface":"asphalt","id":"way/1225657498"},"geometry":{"type":"LineString","coordinates":[[2.3777132,48.8910971],[2.3777012,48.8910865]]},"id":"way/1225657498"},{"type":"Feature","properties":{"@id":"way/1225657499","footway":"sidewalk","highway":"footway","surface":"asphalt","id":"way/1225657499"},"geometry":{"type":"LineString","coordinates":[[2.3777689,48.8911756],[2.3777388,48.8911921]]},"id":"way/1225657499"},{"type":"Feature","properties":{"@id":"way/1249633317","footway":"sidewalk","highway":"footway","id":"way/1249633317"},"geometry":{"type":"LineString","coordinates":[[2.3775174,48.8914898],[2.3774876,48.8915075],[2.3774713,48.8914952]]},"id":"way/1249633317"},{"type":"Feature","properties":{"@id":"way/1249633318","footway":"sidewalk","highway":"footway","id":"way/1249633318"},"geometry":{"type":"LineString","coordinates":[[2.3772997,48.891321],[2.3772673,48.8913381],[2.3772786,48.891346]]},"id":"way/1249633318"},{"type":"Feature","properties":{"@id":"way/1470416614","highway":"footway","layer":"-1","level":"-1","tunnel":"yes","id":"way/1470416614"},"geometry":{"type":"LineString","coordinates":[[2.3780434,48.8912314],[2.3780584,48.8912238],[2.3780736,48.891237],[2.3778313,48.8913454],[2.3777651,48.8913405],[2.3776786,48.891274],[2.3773852,48.89143]]},"id":"way/1470416614"},{"type":"Feature","properties":{"@id":"node/2302817995","addr:city":"Paris","addr:housenumber":"119","addr:postcode":"75019","addr:street":"Avenue de Flandre","brand":"Monoprix","brand:wikidata":"Q3321241","brand:wikipedia":"en:Monoprix","check_date":"2026-01-23","name":"Monoprix","opening_hours":"Mo-Sa 09:00-22:00","operator":"Groupe Casino","phone":"+33140353214","shop":"supermarket","toilets:wheelchair":"no","website":"https://www.monoprix.fr/893.html","wheelchair":"no","id":"node/2302817995"},"geometry":{"type":"Point","coordinates":[2.3771793,48.8914236]},"id":"node/2302817995"},{"type":"Feature","properties":{"@id":"node/2851307976","genus":"Celtis","natural":"tree","source":"opendata.paris.fr","id":"node/2851307976"},"geometry":{"type":"Point","coordinates":[2.377047,48.89092]},"id":"node/2851307976"},{"type":"Feature","properties":{"@id":"node/2851307980","genus":"Celtis","natural":"tree","source":"opendata.paris.fr","id":"node/2851307980"},"geometry":{"type":"Point","coordinates":[2.377193,48.890933]},"id":"node/2851307980"},{"type":"Feature","properties":{"@id":"node/2851307987","genus":"Celtis","natural":"tree","source":"opendata.paris.fr","id":"node/2851307987"},"geometry":{"type":"Point","coordinates":[2.37712,48.890975]},"id":"node/2851307987"},{"type":"Feature","properties":{"@id":"node/2851307989","genus":"Celtis","natural":"tree","source":"opendata.paris.fr","id":"node/2851307989"},"geometry":{"type":"Point","coordinates":[2.377263,48.890988]},"id":"node/2851307989"},{"type":"Feature","properties":{"@id":"node/2851307995","genus":"Celtis","natural":"tree","source":"opendata.paris.fr","id":"node/2851307995"},"geometry":{"type":"Point","coordinates":[2.37719,48.891029]},"id":"node/2851307995"},{"type":"Feature","properties":{"@id":"node/2851307997","genus":"Celtis","natural":"tree","source":"opendata.paris.fr","id":"node/2851307997"},"geometry":{"type":"Point","coordinates":[2.377334,48.891043]},"id":"node/2851307997"},{"type":"Feature","properties":{"@id":"node/2851308203","genus":"Celtis","natural":"tree","source":"opendata.paris.fr","id":"node/2851308203"},"geometry":{"type":"Point","coordinates":[2.377262,48.891083]},"id":"node/2851308203"},{"type":"Feature","properties":{"@id":"node/2851308205","genus":"Celtis","natural":"tree","source":"opendata.paris.fr","id":"node/2851308205"},"geometry":{"type":"Point","coordinates":[2.377406,48.891096]},"id":"node/2851308205"},{"type":"Feature","properties":{"@id":"node/2851308212","genus":"Celtis","natural":"tree","source":"opendata.paris.fr","id":"node/2851308212"},"geometry":{"type":"Point","coordinates":[2.377332,48.891139]},"id":"node/2851308212"},{"type":"Feature","properties":{"@id":"node/2851308228","genus":"Celtis","natural":"tree","source":"opendata.paris.fr","id":"node/2851308228"},"geometry":{"type":"Point","coordinates":[2.377712,48.891333]},"id":"node/2851308228"},{"type":"Feature","properties":{"@id":"node/2851308233","genus":"Celtis","natural":"tree","source":"opendata.paris.fr","id":"node/2851308233"},"geometry":{"type":"Point","coordinates":[2.377638,48.891375]},"id":"node/2851308233"},{"type":"Feature","properties":{"@id":"node/2851308234","genus":"Celtis","natural":"tree","source":"opendata.paris.fr","id":"node/2851308234"},"geometry":{"type":"Point","coordinates":[2.377784,48.891387]},"id":"node/2851308234"},{"type":"Feature","properties":{"@id":"node/2851308238","genus":"Celtis","natural":"tree","source":"opendata.paris.fr","id":"node/2851308238"},"geometry":{"type":"Point","coordinates":[2.377708,48.89143]},"id":"node/2851308238"},{"type":"Feature","properties":{"@id":"node/2851308239","genus":"Celtis","natural":"tree","source":"opendata.paris.fr","id":"node/2851308239"},"geometry":{"type":"Point","coordinates":[2.377854,48.891442]},"id":"node/2851308239"},{"type":"Feature","properties":{"@id":"node/2851308245","genus":"Celtis","natural":"tree","source":"opendata.paris.fr","id":"node/2851308245"},"geometry":{"type":"Point","coordinates":[2.37778,48.891484]},"id":"node/2851308245"},{"type":"Feature","properties":{"@id":"node/2851308246","genus":"Celtis","natural":"tree","source":"opendata.paris.fr","id":"node/2851308246"},"geometry":{"type":"Point","coordinates":[2.377926,48.891497]},"id":"node/2851308246"},{"type":"Feature","properties":{"@id":"node/2851308252","genus":"Celtis","natural":"tree","source":"opendata.paris.fr","id":"node/2851308252"},"geometry":{"type":"Point","coordinates":[2.37785,48.89154]},"id":"node/2851308252"},{"type":"Feature","properties":{"@id":"node/2851308253","genus":"Celtis","natural":"tree","source":"opendata.paris.fr","id":"node/2851308253"},"geometry":{"type":"Point","coordinates":[2.377996,48.891551]},"id":"node/2851308253"},{"type":"Feature","properties":{"@id":"node/2851308254","genus":"Sophora","natural":"tree","source":"opendata.paris.fr","id":"node/2851308254"},"geometry":{"type":"Point","coordinates":[2.377556,48.891566]},"id":"node/2851308254"},{"type":"Feature","properties":{"@id":"node/2851308257","genus":"Celtis","natural":"tree","source":"opendata.paris.fr","id":"node/2851308257"},"geometry":{"type":"Point","coordinates":[2.37792,48.891594]},"id":"node/2851308257"},{"type":"Feature","properties":{"@id":"node/2851308258","genus":"Celtis","natural":"tree","source":"opendata.paris.fr","id":"node/2851308258"},"geometry":{"type":"Point","coordinates":[2.378067,48.891606]},"id":"node/2851308258"},{"type":"Feature","properties":{"@id":"node/2851308259","genus":"Sophora","natural":"tree","source":"opendata.paris.fr","id":"node/2851308259"},"geometry":{"type":"Point","coordinates":[2.377627,48.891619]},"id":"node/2851308259"},{"type":"Feature","properties":{"@id":"node/2851308260","genus":"Celtis","natural":"tree","source":"opendata.paris.fr","id":"node/2851308260"},"geometry":{"type":"Point","coordinates":[2.377992,48.891648]},"id":"node/2851308260"},{"type":"Feature","properties":{"@id":"node/2851308263","genus":"Sophora","natural":"tree","source":"opendata.paris.fr","id":"node/2851308263"},"geometry":{"type":"Point","coordinates":[2.377689,48.891669]},"id":"node/2851308263"},{"type":"Feature","properties":{"@id":"node/2851308266","genus":"Celtis","natural":"tree","source":"opendata.paris.fr","id":"node/2851308266"},"geometry":{"type":"Point","coordinates":[2.378063,48.891703]},"id":"node/2851308266"},{"type":"Feature","properties":{"@id":"node/2851308269","genus":"Sophora","natural":"tree","source":"opendata.paris.fr","id":"node/2851308269"},"geometry":{"type":"Point","coordinates":[2.377762,48.891724]},"id":"node/2851308269"},{"type":"Feature","properties":{"@id":"node/2851308279","genus":"Sophora","natural":"tree","source":"opendata.paris.fr","id":"node/2851308279"},"geometry":{"type":"Point","coordinates":[2.377833,48.89178]},"id":"node/2851308279"},{"type":"Feature","properties":{"@id":"node/3103408837","addr:city":"Paris","addr:housenumber":"102","addr:postcode":"75019","addr:street":"Avenue de Flandre","amenity":"cafe","check_date":"2026-01-23","cuisine":"french","description":"Cafe bar cocktails brasserie","internet_access":"wlan","name":"Le cadre noir","name:fr":"Le cadre noir","outdoor_seating":"yes","id":"node/3103408837"},"geometry":{"type":"Point","coordinates":[2.3776466,48.8909861]},"id":"node/3103408837"},{"type":"Feature","properties":{"@id":"node/3574845599","brand":"Yves Rocher","brand:wikidata":"Q1477321","brand:wikipedia":"en:Yves Rocher (company)","check_date":"2026-01-23","contact:city":"Paris","contact:fax":"+33 1 40 34 54 03","contact:housenumber":"109-115","contact:phone":"+33 1 40 34 31 07","contact:postcode":"75019","contact:street":"Rue de Flandre","contact:website":"https://www.yves-rocher.fr/magasins-instituts-de-beaute/paris-flandre/S-FRYROC727","name":"Yves Rocher","official_name":"Yves Rocher","opening_hours":"Mo-Sa 10:00-19:15","shop":"cosmetics","wheelchair":"no","id":"node/3574845599"},"geometry":{"type":"Point","coordinates":[2.3769827,48.8911446]},"id":"node/3574845599"},{"type":"Feature","properties":{"@id":"node/4566695689","STIF:zone":"1","bench":"yes","bin":"no","bus":"yes","highway":"bus_stop","lit":"yes","name":"Crimée","name:fr":"Crimée","public_transport":"platform","ref:FR:STIF":"9128","route_ref":"54;N42","shelter":"yes","source":"survey 10/2017","tactile_paving":"no","toilets:wheelchair":"no","wheelchair":"yes","id":"node/4566695689"},"geometry":{"type":"Point","coordinates":[2.3778788,48.89128]},"id":"node/4566695689"},{"type":"Feature","properties":{"@id":"node/4983164166","shop":"newsagent","source":"Observations personnelles","toilets:wheelchair":"no","wheelchair":"yes","id":"node/4983164166"},"geometry":{"type":"Point","coordinates":[2.3775865,48.8915036]},"id":"node/4983164166"},{"type":"Feature","properties":{"@id":"node/4983164172","brand":"Lissac","brand:wikidata":"Q63102559","check_date":"2026-01-23","name":"Lissac Opticien","ref:FR:SIRET":"97944713300013","shop":"optician","source":"Observations personnelles","wheelchair":"no","id":"node/4983164172"},"geometry":{"type":"Point","coordinates":[2.3772902,48.8914956]},"id":"node/4983164172"},{"type":"Feature","properties":{"@id":"node/5204301123","addr:city":"Paris","addr:housenumber":"102","addr:postcode":"75019","addr:street":"Avenue de Flandre","name":"MK France","ref:FR:SIRET":"84882817400021","shop":"mobile_phone","id":"node/5204301123"},"geometry":{"type":"Point","coordinates":[2.3775302,48.890908]},"id":"node/5204301123"},{"type":"Feature","properties":{"@id":"node/5204301124","addr:city":"Paris","addr:housenumber":"102","addr:postcode":"75019","addr:street":"Avenue de Flandre","check_date":"2026-01-23","name":"Couderc","opening_hours":"Mo-Fr 07:30-19:00; Sa,Su 08:00-19:00","shop":"bakery","id":"node/5204301124"},"geometry":{"type":"Point","coordinates":[2.3775905,48.8909507]},"id":"node/5204301124"},{"type":"Feature","properties":{"@id":"node/5204301421","check_date":"2026-01-23","name":"Multiservices & Voyages","shop":"mobile_phone","id":"node/5204301421"},"geometry":{"type":"Point","coordinates":[2.3777823,48.8909141]},"id":"node/5204301421"},{"type":"Feature","properties":{"@id":"node/12021738509","highway":"street_lamp","id":"node/12021738509"},"geometry":{"type":"Point","coordinates":[2.3779045,48.8917495]},"id":"node/12021738509"},{"type":"Feature","properties":{"@id":"node/12021738510","highway":"street_lamp","id":"node/12021738510"},"geometry":{"type":"Point","coordinates":[2.3777073,48.8915997]},"id":"node/12021738510"},{"type":"Feature","properties":{"@id":"node/12021738511","highway":"street_lamp","id":"node/12021738511"},"geometry":{"type":"Point","coordinates":[2.3775043,48.8914412]},"id":"node/12021738511"},{"type":"Feature","properties":{"@id":"node/12021738512","amenity":"waste_basket","waste":"trash","id":"node/12021738512"},"geometry":{"type":"Point","coordinates":[2.3774091,48.8913468]},"id":"node/12021738512"},{"type":"Feature","properties":{"@id":"node/12021738513","highway":"street_lamp","id":"node/12021738513"},"geometry":{"type":"Point","coordinates":[2.3773104,48.8912921]},"id":"node/12021738513"},{"type":"Feature","properties":{"@id":"node/12021738514","highway":"street_lamp","id":"node/12021738514"},"geometry":{"type":"Point","coordinates":[2.3771191,48.8911451]},"id":"node/12021738514"},{"type":"Feature","properties":{"@id":"node/12021738515","highway":"street_lamp","id":"node/12021738515"},"geometry":{"type":"Point","coordinates":[2.3769269,48.890997]},"id":"node/12021738515"},{"type":"Feature","properties":{"@id":"node/12991863585","addr:city":"Paris","addr:housenumber":"104","addr:postcode":"75019","addr:street":"Avenue de Flandre","check_date":"2026-01-23","check_date:opening_hours":"2025-07-10","name":"Park Optic","opening_hours":"Mo-Th 10:00-19:00; Fr 10:00-15:00; Sa off","phone":"+33 7 49 16 30 78","ref:FR:SIRET":"98171651700017","shop":"optician","id":"node/12991863585"},"geometry":{"type":"Point","coordinates":[2.3778537,48.8911538]},"id":"node/12991863585"},{"type":"Feature","properties":{"@id":"node/12991866291","addr:city":"Paris","addr:housenumber":"104","addr:postcode":"75019","addr:street":"Avenue de Flandre","check_date":"2026-01-23","check_date:opening_hours":"2025-07-10","name":"Point Audition","opening_hours":"Mo-Th 09:30-19:00; Fr 09:30-14:30","phone":"+33 1 82 83 37 40","ref:FR:SIRET":"90323213000018","shop":"hearing_aids","website":"https://www.point-audition.fr","id":"node/12991866291"},"geometry":{"type":"Point","coordinates":[2.3779134,48.8911991]},"id":"node/12991866291"},{"type":"Feature","properties":{"@id":"node/13014994285","addr:floor":"0","addr:housenumber":"40","addr:street":"Rue de Joinville","amenity":"restaurant","check_date":"2026-01-23","check_date:diet:vegetarian":"2025-08-03","cuisine":"asian;vietnamese","diet:vegetarian":"yes","level":"0","name":"Bánh Mi 19","opening_hours":"Mo-Sa 10:00-20:00; Su off","outdoor_seating":"no","payment:cash":"yes","payment:credit_cards":"yes","payment:debit_cards":"yes","payment:visa":"yes","takeaway":"yes","toilets":"no","wheelchair":"limited","id":"node/13014994285"},"geometry":{"type":"Point","coordinates":[2.3779098,48.8910391]},"id":"node/13014994285"},{"type":"Feature","properties":{"@id":"node/13090641740","addr:city":"Paris","addr:housenumber":"119","addr:postcode":"75019","addr:street":"Avenue de Flandre","brand":"Action","brand:wikidata":"Q2634111","name":"Action","ref:FR:SIRET":"75330823808275","shop":"variety_store","website":"https://www.action.com/fr-fr/points-de-vente/paris-avenue-de-flandre-119/","id":"node/13090641740"},"geometry":{"type":"Point","coordinates":[2.3774712,48.8916288]},"id":"node/13090641740"}]}