{"type":"FeatureCollection","features":[{"type":"Feature","properties":{"@id":"way/56751209","building":"apartments","building:levels":"5","roof:levels":"1","source":"cadastre-dgi-fr source : Direction Générale des Impôts - Cadastre. Mise à jour : 2010","start_date":"1801...1850","id":"way/56751209"},"geometry":{"type":"Polygon","coordinates":[[[2.363298,48.8660198],[2.3635629,48.8661777],[2.3635282,48.8662353],[2.36348,48.8663154],[2.3631297,48.8660713],[2.363162,48.8660517],[2.3632013,48.8660794],[2.3631991,48.8660951],[2.3632002,48.8660996],[2.3633231,48.8661853],[2.3633559,48.8661672],[2.3633925,48.8661909],[2.3634229,48.8661684],[2.3633996,48.8661544],[2.3633975,48.8661552],[2.3633926,48.8661522],[2.3633953,48.8661496],[2.3633968,48.86615],[2.3634081,48.866142],[2.3632621,48.8660534],[2.3632599,48.8660546],[2.3632551,48.8660519],[2.363298,48.8660198]]]},"id":"way/56751209"},{"type":"Feature","properties":{"@id":"way/56751230","building":"apartments","building:levels":"6","roof:levels":"1","source":"cadastre-dgi-fr source : Direction Générale des Impôts - Cadastre. Mise à jour : 2010","start_date":"1801...1850","id":"way/56751230"},"geometry":{"type":"Polygon","coordinates":[[[2.3633278,48.8658509],[2.3635649,48.8659668],[2.3635889,48.8659789],[2.3636636,48.8660145],[2.3636176,48.8660891],[2.3635629,48.8661777],[2.363298,48.8660198],[2.3631943,48.8659566],[2.3632334,48.8659286],[2.3633367,48.8659884],[2.3633405,48.8659858],[2.3633455,48.8659887],[2.3633461,48.8659908],[2.3635002,48.866063],[2.3635515,48.8660187],[2.3634877,48.8659875],[2.3634762,48.8659755],[2.36341,48.8659401],[2.3634069,48.8659414],[2.3634019,48.8659388],[2.3633978,48.8659419],[2.3632865,48.8658882],[2.3633278,48.8658509]]]},"id":"way/56751230"},{"type":"Feature","properties":{"@id":"way/56751237","building":"apartments","source":"cadastre-dgi-fr source : Direction Générale des Impôts - Cadastre. Mise à jour : 2010","start_date":"1801...1850","id":"way/56751237"},"geometry":{"type":"Polygon","coordinates":[[[2.3632431,48.8658094],[2.363121,48.8657492],[2.3631031,48.8657408],[2.3631277,48.8657078],[2.3635492,48.8658199],[2.363508,48.8658881],[2.3635916,48.8659106],[2.3636339,48.8658439],[2.3637507,48.8658728],[2.3637098,48.8659394],[2.3636636,48.8660145],[2.3635889,48.8659789],[2.3636057,48.8659523],[2.3635782,48.8659445],[2.3635649,48.8659668],[2.3633278,48.8658509],[2.3632431,48.8658094]]]},"id":"way/56751237"},{"type":"Feature","properties":{"@id":"way/56931291","building":"apartments","source":"cadastre-dgi-fr source : Direction Générale des Impôts - Cadastre. Mise à jour : 2010","start_date":"1801...1850","id":"way/56931291"},"geometry":{"type":"Polygon","coordinates":[[[2.3637769,48.8661091],[2.3639389,48.8661531],[2.3639265,48.866176],[2.3640097,48.8661986],[2.3640234,48.8661762],[2.364028,48.8661774],[2.3642507,48.86624],[2.3641853,48.8663467],[2.3641741,48.8663641],[2.3637042,48.8662304],[2.3637682,48.8661226],[2.3637769,48.8661091]]]},"id":"way/56931291"},{"type":"Feature","properties":{"@id":"way/56931302","building":"apartments","source":"cadastre-dgi-fr source : Direction Générale des Impôts - Cadastre. Mise à jour : 2010","start_date":"1801...1850","id":"way/56931302"},"geometry":{"type":"Polygon","coordinates":[[[2.3637042,48.8662304],[2.3641741,48.8663641],[2.3640907,48.866499],[2.3639062,48.8664496],[2.3639216,48.8664245],[2.3639179,48.8664237],[2.3639391,48.8663901],[2.3638212,48.8663564],[2.3638108,48.8663728],[2.3637793,48.8663644],[2.3637692,48.8663822],[2.3636309,48.8663468],[2.3636367,48.8663378],[2.3637042,48.8662304]]]},"id":"way/56931302"},{"type":"Feature","properties":{"@id":"way/56931305","building":"apartments","source":"cadastre-dgi-fr source : Direction Générale des Impôts - Cadastre. Mise à jour : 2010","start_date":"1801...1850","id":"way/56931305"},"geometry":{"type":"Polygon","coordinates":[[[2.3640395,48.8656806],[2.3641844,48.8657182],[2.3641467,48.8657796],[2.3642275,48.8658013],[2.3642264,48.8658053],[2.364283,48.8658196],[2.3642856,48.8658146],[2.3643091,48.8658206],[2.364346,48.8657617],[2.3644213,48.8657814],[2.3644073,48.8658048],[2.3643617,48.865881],[2.3639797,48.8657782],[2.3640102,48.8657291],[2.3640395,48.8656806]]]},"id":"way/56931305"},{"type":"Feature","properties":{"@id":"way/56931314","amenity":"social_facility","building":"yes","name":"Résidence Suzanne Lacore","ref:FR:FINESS":"750049892","social_facility":"group_home","source":"cadastre-dgi-fr source : Direction Générale des Impôts - Cadastre. Mise à jour : 2010","source:ref:FR:FINESS":"data.gouv.fr:Ministère des Affaires sociales et de la Santé - 2014-05-05","start_date":"1851...1914","type:FR:FINESS":"259","id":"way/56931314"},"geometry":{"type":"Polygon","coordinates":[[[2.3635721,48.866443],[2.3637683,48.8664966],[2.3637025,48.8666016],[2.3638381,48.86664],[2.363892,48.8665579],[2.3639564,48.8665747],[2.3638695,48.8667168],[2.3636935,48.8666688],[2.363472,48.8666068],[2.3635075,48.8665494],[2.3635721,48.866443]]]},"id":"way/56931314"},{"type":"Feature","properties":{"@id":"way/56931320","building":"apartments","source":"cadastre-dgi-fr source : Direction Générale des Impôts - Cadastre. Mise à jour : 2010","start_date":"1861...1890","id":"way/56931320"},"geometry":{"type":"Polygon","coordinates":[[[2.3642377,48.8665382],[2.3640907,48.866499],[2.3641741,48.8663641],[2.3641853,48.8663467],[2.3642065,48.8663523],[2.3642196,48.8663558],[2.3642196,48.8663581],[2.3642267,48.8663603],[2.3642292,48.866358],[2.3642693,48.8663695],[2.3643324,48.8663876],[2.3643842,48.8664025],[2.3644229,48.8664136],[2.3644395,48.8664184],[2.3644173,48.8664332],[2.3643204,48.8664891],[2.3643051,48.8664991],[2.3642377,48.8665382]]]},"id":"way/56931320"},{"type":"Feature","properties":{"@id":"way/56931338","building":"apartments","source":"cadastre-dgi-fr source : Direction Générale des Impôts - Cadastre. Mise à jour : 2010","start_date":"1801...1850","id":"way/56931338"},"geometry":{"type":"Polygon","coordinates":[[[2.3636309,48.8663468],[2.3637692,48.8663822],[2.3639179,48.8664237],[2.3639216,48.8664245],[2.3639062,48.8664496],[2.363898,48.8664632],[2.3637655,48.8664261],[2.3637402,48.8664664],[2.3637787,48.8664769],[2.3637954,48.8664505],[2.3638887,48.8664757],[2.3638574,48.8665212],[2.3637683,48.8664966],[2.3635721,48.866443],[2.3635953,48.8664056],[2.3636309,48.8663468]]]},"id":"way/56931338"},{"type":"Feature","properties":{"@id":"way/1447250396","area":"yes","area:highway":"footway","footway":"sidewalk","highway":"footway","lit":"yes","smoothness":"good","surface":"paving_stones","id":"way/1447250396"},"geometry":{"type":"Polygon","coordinates":[[[2.364204,48.865359],[2.3642181,48.8653626],[2.3642326,48.8653659],[2.3642259,48.8653768],[2.3642184,48.8653889],[2.3641605,48.865483],[2.3640999,48.8655814],[2.3640695,48.8656319],[2.3640395,48.8656806],[2.3640102,48.8657291],[2.3639797,48.8657782],[2.3639263,48.8658657],[2.363877,48.8659463],[2.363854,48.8659837],[2.3638093,48.8660564],[2.3637907,48.8660867],[2.3637769,48.8661091],[2.3637682,48.8661226],[2.3637042,48.8662304],[2.3636367,48.8663378],[2.3636309,48.8663468],[2.3635953,48.8664056],[2.3635721,48.866443],[2.3635075,48.8665494],[2.363472,48.8666068],[2.3634387,48.8666621],[2.3634038,48.8667176],[2.3633903,48.8667146],[2.3633755,48.8667108],[2.3640776,48.8655688],[2.364204,48.865359]]]},"id":"way/1447250396"},{"type":"Feature","properties":{"@id":"way/10659433","cycleway":"opposite","highway":"residential","lit":"yes","maxspeed":"30","name":"Rue Béranger","name:etymology:wikidata":"Q324998","oneway":"yes","oneway:bicycle":"no","sidewalk:both":"separate","smoothness":"good","surface":"asphalt","zone:maxspeed":"FR:30","id":"way/10659433"},"geometry":{"type":"LineString","coordinates":[[2.3630607,48.8671431],[2.3631052,48.867066],[2.3636346,48.866205],[2.364037,48.865558],[2.3640643,48.8655142],[2.3644618,48.8648605],[2.3645151,48.8647729],[2.3645427,48.8647183]]},"id":"way/10659433"},{"type":"Feature","properties":{"@id":"way/56983282","highway":"footway","lit":"no","name":"Passage Vendôme","id":"way/56983282"},"geometry":{"type":"LineString","coordinates":[[2.3636903,48.8662272],[2.3637042,48.8662304],[2.3641741,48.8663641],[2.3643269,48.8664075]]},"id":"way/56983282"},{"type":"Feature","properties":{"@id":"way/372486666","highway":"footway","lit":"yes","name":"Passage Vendôme","smoothness":"excellent","surface":"paving_stones","id":"way/372486666"},"geometry":{"type":"LineString","coordinates":[[2.3643525,48.8664143],[2.3644173,48.8664332],[2.3644795,48.8664821]]},"id":"way/372486666"},{"type":"Feature","properties":{"@id":"way/1188879159","footway":"sidewalk","highway":"footway","lit":"yes","smoothness":"good","surface":"asphalt","id":"way/1188879159"},"geometry":{"type":"LineString","coordinates":[[2.3633175,48.8671392],[2.3632659,48.8671203],[2.3631526,48.8670828],[2.3631765,48.8670433],[2.3633903,48.8667146],[2.3636903,48.8662272],[2.3640906,48.8655701],[2.3642181,48.8653626],[2.3644954,48.8649113],[2.3645178,48.8648748],[2.3646731,48.8649083],[2.3649236,48.864961],[2.3652187,48.8652179],[2.3652446,48.8652404],[2.3651937,48.8653263],[2.3648612,48.8658969],[2.3646923,48.8661869],[2.3646554,48.8663157]]},"id":"way/1188879159"},{"type":"Feature","properties":{"@id":"way/1190148908","footway":"sidewalk","highway":"footway","lit":"yes","surface":"sett","id":"way/1190148908"},"geometry":{"type":"LineString","coordinates":[[2.3639767,48.8655416],[2.3637336,48.8659163],[2.3635331,48.8663076],[2.3633701,48.8665233],[2.3632494,48.866739]]},"id":"way/1190148908"},{"type":"Feature","properties":{"@id":"node/293982741","addr:city":"Paris","addr:housenumber":"5","addr:postcode":"75003","addr:street":"Place de la République","amenity":"pharmacy","check_date":"2025-10-25","dispensing":"yes","fax":"+33 1 47 00 18 16","healthcare":"pharmacy","level":"0","name":"Pharmacie de la place de la République","opening_hours":"24/7","payment:cash":"yes","payment:coins":"yes","payment:contactless":"yes","payment:credit_cards":"yes","payment:mastercard":"yes","payment:visa":"yes","phone":"+33 1 47 00 18 08","ref:FR:FINESS":"750038218","ref:FR:NAF":"4773Z","ref:FR:SIRET":"49003403000026","source":"Celtipharm - 10/2014","type:FR:FINESS":"620","website":"https://pharmacie-place-de-la-republique-75.pharminfo.fr/","wheelchair":"yes","id":"node/293982741"},"geometry":{"type":"Point","coordinates":[2.3643006,48.866451]},"id":"node/293982741"},{"type":"Feature","properties":{"@id":"node/2358812839","addr:city":"Paris","addr:housenumber":"9","addr:postcode":"75003","addr:street":"Place de la République","brand":"Etam","brand:wikidata":"Q3059202","brand:wikipedia":"en:Etam Développement","check_date":"2025-10-25","clothes":"underwear","level":"0","name":"Etam","opening_hours":"Mo 11:00-19:30 ; Tu-Sa 10:00-19:30","shop":"clothes","website":"https://www.etam.com/","wheelchair":"no","id":"node/2358812839"},"geometry":{"type":"Point","coordinates":[2.3640514,48.8666108]},"id":"node/2358812839"},{"type":"Feature","properties":{"@id":"node/2358812861","addr:city":"Paris","addr:housenumber":"7","addr:postcode":"75003","addr:street":"Place de la République","air_conditioning":"yes","brand":"SFR","brand:wikidata":"Q218765","brand:wikipedia":"en:SFR","check_date":"2025-10-25","level":"0","name":"SFR","opening_hours":"Mo-Sa 10:00-19:00","phone":"+33 1 86 21 17 48","shop":"mobile_phone","wheelchair":"yes","id":"node/2358812861"},"geometry":{"type":"Point","coordinates":[2.364135,48.8665564]},"id":"node/2358812861"},{"type":"Feature","properties":{"@id":"node/4730657957","addr:housenumber":"22","addr:postcode":"75003","addr:street":"Rue Béranger","amenity":"cafe","check_date":"2026-01-26","contact:instagram":"https://www.instagram.com/umami_matcha_cafe","contact:website":"https://umamiparis.com/matchacafe/","facebook":"https://www.facebook.com/UmamiMatchaCafe/","name":"Umami – Matcha Café","name:fr":"Umami – Matcha Café","opening_hours":"Tu-Fr 09:00-19:00; Sa-Su 10:00-19:00","phone":"+33 1 48 04 06 02","id":"node/4730657957"},"geometry":{"type":"Point","coordinates":[2.3635888,48.8665087]},"id":"node/4730657957"},{"type":"Feature","properties":{"@id":"node/8398055334","shop":"clothes","id":"node/8398055334"},"geometry":{"type":"Point","coordinates":[2.3633024,48.8665339]},"id":"node/8398055334"},{"type":"Feature","properties":{"@id":"node/8398055335","addr:housenumber":"21","addr:postcode":"75003","addr:street":"Rue Béranger","check_date":"2025-07-08","name":"Amour cheveux club","opening_hours":"Tu-Sa 10:00-19:00","phone":"+33 1 44 61 11 79","shop":"hairdresser","source":"cadastre-dgi-fr source : Direction Générale des Impôts - Cadastre. Mise à jour : 2010","website":"https://amourcheveuxclub.com/","id":"node/8398055335"},"geometry":{"type":"Point","coordinates":[2.3632394,48.866612]},"id":"node/8398055335"},{"type":"Feature","properties":{"@id":"node/9233551659","natural":"tree","survey:date":"2021-11-07","id":"node/9233551659"},"geometry":{"type":"Point","coordinates":[2.3637685,48.865904]},"id":"node/9233551659"},{"type":"Feature","properties":{"@id":"node/9233551661","natural":"tree","survey:date":"2021-11-07","id":"node/9233551661"},"geometry":{"type":"Point","coordinates":[2.3635745,48.8661889]},"id":"node/9233551661"},{"type":"Feature","properties":{"@id":"node/9233551662","natural":"tree","survey:date":"2021-11-07","id":"node/9233551662"},"geometry":{"type":"Point","coordinates":[2.363516,48.8662817]},"id":"node/9233551662"},{"type":"Feature","properties":{"@id":"node/9233551665","circumference":"0.37","genus":"Carpinus","height":"8","leaf_type":"broadleaved","natural":"tree","ref":"211001","ref:FR:Paris:arbre":"211001","source":"opendata.paris.fr:Mairie de Paris - Direction des Espaces Verts et de l'Environnement - 2020-02","species":"Carpinus betulus","survey:date":"2021-11-07","id":"node/9233551665"},"geometry":{"type":"Point","coordinates":[2.3633268,48.8666295]},"id":"node/9233551665"},{"type":"Feature","properties":{"@id":"node/9233551735","natural":"tree","survey:date":"2021-11-07","id":"node/9233551735"},"geometry":{"type":"Point","coordinates":[2.3638381,48.8657816]},"id":"node/9233551735"},{"type":"Feature","properties":{"@id":"node/9233551736","natural":"tree","survey:date":"2021-11-07","id":"node/9233551736"},"geometry":{"type":"Point","coordinates":[2.3634614,48.8663575]},"id":"node/9233551736"},{"type":"Feature","properties":{"@id":"node/9233551928","natural":"tree","survey:date":"2021-11-07","id":"node/9233551928"},"geometry":{"type":"Point","coordinates":[2.3636287,48.8660995]},"id":"node/9233551928"},{"type":"Feature","properties":{"@id":"node/9233552044","natural":"tree","survey:date":"2021-11-07","id":"node/9233552044"},"geometry":{"type":"Point","coordinates":[2.3637,48.865999]},"id":"node/9233552044"},{"type":"Feature","properties":{"@id":"node/9233552050","natural":"tree","survey:date":"2021-11-07","id":"node/9233552050"},"geometry":{"type":"Point","coordinates":[2.3634099,48.866458]},"id":"node/9233552050"},{"type":"Feature","properties":{"@id":"node/10973522788","natural":"tree","id":"node/10973522788"},"geometry":{"type":"Point","coordinates":[2.3642815,48.866621]},"id":"node/10973522788"},{"type":"Feature","properties":{"@id":"node/10973522789","natural":"tree","id":"node/10973522789"},"geometry":{"type":"Point","coordinates":[2.3643708,48.8665743]},"id":"node/10973522789"},{"type":"Feature","properties":{"@id":"node/12038064993","addr:housenumber":"16","addr:street":"Passage Vendôme","amenity":"restaurant","name":"loov'","website":"https://www.loovresto.com/","id":"node/12038064993"},"geometry":{"type":"Point","coordinates":[2.3640273,48.866282]},"id":"node/12038064993"},{"type":"Feature","properties":{"@id":"node/12038064994","addr:housenumber":"22","addr:street":"Passage Vendôme","name":"relooking","shop":"beauty","website":"http://www.relooking-minceur-paris3.fr/","id":"node/12038064994"},"geometry":{"type":"Point","coordinates":[2.3641815,48.8663182]},"id":"node/12038064994"},{"type":"Feature","properties":{"@id":"node/12744770942","check_date":"2025-07-08","name":"Harmonie","shop":"beauty","id":"node/12744770942"},"geometry":{"type":"Point","coordinates":[2.3636567,48.8659755]},"id":"node/12744770942"},{"type":"Feature","properties":{"@id":"node/12987537893","amenity":"restaurant","check_date":"2025-07-08","cuisine":"asian","name":"Bing Sutt","id":"node/12987537893"},"geometry":{"type":"Point","coordinates":[2.3635461,48.8665894]},"id":"node/12987537893"}]}