{"type":"FeatureCollection","features":[{"type":"Feature","properties":{"@id":"way/56931331","building":"apartments","source":"cadastre-dgi-fr source : Direction Générale des Impôts - Cadastre. Mise à jour : 2010","start_date":"1915...1939","id":"way/56931331"},"geometry":{"type":"Polygon","coordinates":[[[2.3646717,48.8653665],[2.3647052,48.8653147],[2.3650889,48.8654147],[2.3650736,48.8654416],[2.3650229,48.865522],[2.3649887,48.8655776],[2.3649112,48.8655579],[2.3648821,48.8655502],[2.3646025,48.8654798],[2.3646309,48.8654337],[2.3646717,48.8653665]]]},"id":"way/56931331"},{"type":"Feature","properties":{"@id":"way/56994869","building":"apartments","building:levels":"8","source":"cadastre-dgi-fr source : Direction Générale des Impôts - Cadastre. Mise à jour : 2010","id":"way/56994869"},"geometry":{"type":"Polygon","coordinates":[[[2.3649089,48.8648215],[2.3650002,48.8647627],[2.3650747,48.864823],[2.3650585,48.8648325],[2.3650928,48.8648581],[2.3651082,48.8648488],[2.3651536,48.864886],[2.3650514,48.864946],[2.3650293,48.8649267],[2.3649757,48.8648799],[2.3649089,48.8648215]]]},"id":"way/56994869"},{"type":"Feature","properties":{"@id":"way/56994870","building":"apartments","building:levels":"7","source":"cadastre-dgi-fr source : Direction Générale des Impôts - Cadastre. Mise à jour : 2010","id":"way/56994870"},"geometry":{"type":"Polygon","coordinates":[[[2.3650514,48.864946],[2.3651536,48.864886],[2.365223,48.8649387],[2.36535,48.8649824],[2.3653209,48.8650322],[2.3653113,48.8650486],[2.3652872,48.8650865],[2.3652184,48.8650921],[2.365137,48.865021],[2.3650514,48.864946]]]},"id":"way/56994870"},{"type":"Feature","properties":{"@id":"way/56994877","building":"shed","source":"cadastre-dgi-fr source : Direction Générale des Impôts - Cadastre. Mise à jour : 2010","id":"way/56994877"},"geometry":{"type":"Polygon","coordinates":[[[2.3652872,48.8650865],[2.3653113,48.8650486],[2.3653465,48.8650582],[2.3653239,48.8650948],[2.3652872,48.8650865]]]},"id":"way/56994877"},{"type":"Feature","properties":{"@id":"way/63638884","building":"yes","building:levels":"7","source":"cadastre-dgi-fr source : Direction Générale des Impôts - Cadastre. Mise à jour : 2010","start_date":"1801...1850","id":"way/63638884"},"geometry":{"type":"Polygon","coordinates":[[[2.3658556,48.8656547],[2.3657302,48.8656379],[2.3655887,48.8656001],[2.3656257,48.8655287],[2.3656564,48.8654698],[2.3656602,48.8654624],[2.3658933,48.8655072],[2.365883,48.8655487],[2.3657691,48.8655304],[2.3657419,48.8655863],[2.3658676,48.8656083],[2.3658556,48.8656547]]]},"id":"way/63638884"},{"type":"Feature","properties":{"@id":"way/1189742098","area":"yes","footway":"sidewalk","highway":"footway","lit":"yes","smoothness":"good","surface":"asphalt","id":"way/1189742098"},"geometry":{"type":"Polygon","coordinates":[[[2.3660257,48.8647612],[2.3660202,48.8647707],[2.3660159,48.8647781],[2.3660017,48.8648023],[2.3659591,48.8648738],[2.3659548,48.8648809],[2.3659441,48.8649006],[2.3659335,48.8649202],[2.3659411,48.8649221],[2.3659195,48.8649636],[2.3659151,48.8649717],[2.3658857,48.8650284],[2.3658553,48.8650868],[2.3658078,48.8651784],[2.3657998,48.8651939],[2.3657916,48.8652097],[2.3657449,48.8652993],[2.3656971,48.865391],[2.3656887,48.8654072],[2.3656602,48.8654624],[2.3656564,48.8654698],[2.3656257,48.8655287],[2.3655887,48.8656001],[2.3655814,48.8656655],[2.3655804,48.8656749],[2.3655718,48.8657519],[2.3655636,48.8658253],[2.365563,48.8658305],[2.365559,48.8658668],[2.3655547,48.8659062],[2.365549,48.8659555],[2.3655485,48.8659603],[2.365501,48.8659775],[2.3654076,48.865953],[2.3653522,48.8659385],[2.3653195,48.86593],[2.3652909,48.8659768],[2.3652521,48.8660402],[2.3652293,48.8660775],[2.3651859,48.8661484],[2.3651475,48.8662111],[2.3650603,48.8663537],[2.3649651,48.8663742],[2.3649205,48.8663797],[2.3649174,48.8663616],[2.3649174,48.8663455],[2.3649242,48.8663239],[2.3652143,48.8658413],[2.3654815,48.8653956],[2.3657334,48.8649751],[2.3658468,48.8647878],[2.3658602,48.8647723],[2.365879,48.8647602],[2.3659035,48.8647516],[2.3659347,48.8647463],[2.3659611,48.864747],[2.3659713,48.8647486],[2.3659856,48.8647509],[2.3660257,48.8647612]]]},"id":"way/1189742098"},{"type":"Feature","properties":{"@id":"way/1193241110","area":"yes","footway":"sidewalk","highway":"footway","lit":"yes","smoothness":"good","surface":"paving_stones","id":"way/1193241110"},"geometry":{"type":"Polygon","coordinates":[[[2.3652289,48.865212],[2.3652187,48.8652179],[2.365205,48.8652258],[2.3651005,48.8651351],[2.3650436,48.8650857],[2.3649157,48.8649747],[2.3649117,48.8649741],[2.3649236,48.864961],[2.364931,48.8649529],[2.3652289,48.865212]]]},"id":"way/1193241110"},{"type":"Feature","properties":{"@id":"way/10659433","cycleway":"opposite","highway":"residential","lit":"yes","maxspeed":"30","name":"Rue Béranger","name:etymology:wikidata":"Q324998","oneway":"yes","oneway:bicycle":"no","sidewalk:both":"separate","smoothness":"good","surface":"asphalt","zone:maxspeed":"FR:30","id":"way/10659433"},"geometry":{"type":"LineString","coordinates":[[2.3630607,48.8671431],[2.3631052,48.867066],[2.3636346,48.866205],[2.364037,48.865558],[2.3640643,48.8655142],[2.3644618,48.8648605],[2.3645151,48.8647729],[2.3645427,48.8647183]]},"id":"way/10659433"},{"type":"Feature","properties":{"@id":"way/83268802","busway:both":"lane","cycleway:left":"share_busway","cycleway:right":"lane","enforcement:operator":"Police nationale","highway":"primary","lanes":"4","lit":"yes","maxspeed":"30","name":"Boulevard du Temple","name:etymology:wikidata":"Q3280072","name:zh":"圣殿大道","operator":"Ville de Paris","operator:authority":"Maire de Paris après avis du préfet de police","operator:authority:related_law":"IV de l'article L. 2512-14 du code général des collectivités territoriales","operator:url":"https://cdn.paris.fr/paris/2020/02/26/5bf469a311d0beb9911e92d113781550.ai","sidewalk:both":"separate","smoothness":"good","surface":"asphalt","id":"way/83268802"},"geometry":{"type":"LineString","coordinates":[[2.3657985,48.864674],[2.3657247,48.8647912],[2.3656565,48.8649113],[2.3656493,48.8649241],[2.3654431,48.8652571]]},"id":"way/83268802"},{"type":"Feature","properties":{"@id":"way/813143369","busway:both":"lane","cycleway:left":"share_busway","cycleway:right":"lane","enforcement:operator":"Police nationale","highway":"primary","lanes":"4","lit":"yes","maxspeed":"30","name":"Boulevard du Temple","name:etymology:wikidata":"Q3280072","name:zh":"圣殿大道","operator":"Ville de Paris","operator:authority":"Maire de Paris après avis du préfet de police","operator:authority:related_law":"IV de l'article L. 2512-14 du code général des collectivités territoriales","operator:url":"https://cdn.paris.fr/paris/2020/02/26/5bf469a311d0beb9911e92d113781550.ai","sidewalk:both":"separate","smoothness":"good","surface":"asphalt","id":"way/813143369"},"geometry":{"type":"LineString","coordinates":[[2.3654431,48.8652571],[2.3653774,48.8653705],[2.3652935,48.8654972]]},"id":"way/813143369"},{"type":"Feature","properties":{"@id":"way/1188879159","footway":"sidewalk","highway":"footway","lit":"yes","smoothness":"good","surface":"asphalt","id":"way/1188879159"},"geometry":{"type":"LineString","coordinates":[[2.3633175,48.8671392],[2.3632659,48.8671203],[2.3631526,48.8670828],[2.3631765,48.8670433],[2.3633903,48.8667146],[2.3636903,48.8662272],[2.3640906,48.8655701],[2.3642181,48.8653626],[2.3644954,48.8649113],[2.3645178,48.8648748],[2.3646731,48.8649083],[2.3649236,48.864961],[2.3652187,48.8652179],[2.3652446,48.8652404],[2.3651937,48.8653263],[2.3648612,48.8658969],[2.3646923,48.8661869],[2.3646554,48.8663157]]},"id":"way/1188879159"},{"type":"Feature","properties":{"@id":"way/1189742097","crossing":"traffic_signals","crossing:markings":"zebra","crossing:signals":"yes","footway":"crossing","highway":"footway","lit":"yes","smoothness":"good","surface":"asphalt","id":"way/1189742097"},"geometry":{"type":"LineString","coordinates":[[2.3654815,48.8653956],[2.3653774,48.8653705],[2.3652889,48.8653492]]},"id":"way/1189742097"},{"type":"Feature","properties":{"@id":"way/1190148845","footway":"sidewalk","highway":"footway","lit":"yes","smoothness":"good","surface":"asphalt","id":"way/1190148845"},"geometry":{"type":"LineString","coordinates":[[2.3656173,48.8654283],[2.3656477,48.8654362],[2.365408,48.8658391],[2.3652717,48.8658974],[2.3649651,48.8663742],[2.3649205,48.8663797]]},"id":"way/1190148845"},{"type":"Feature","properties":{"@id":"way/1190148847","footway":"sidewalk","highway":"footway","lit":"yes","smoothness":"good","surface":"paving_stones","id":"way/1190148847"},"geometry":{"type":"LineString","coordinates":[[2.3653171,48.8651561],[2.3652054,48.8650976],[2.3648177,48.8647573],[2.3648011,48.8647572]]},"id":"way/1190148847"},{"type":"Feature","properties":{"@id":"way/1190148848","footway":"sidewalk","highway":"footway","lit":"yes","smoothness":"good","surface":"asphalt","id":"way/1190148848"},"geometry":{"type":"LineString","coordinates":[[2.3656843,48.8645399],[2.3653171,48.8651561],[2.3653076,48.8651691]]},"id":"way/1190148848"},{"type":"Feature","properties":{"@id":"way/1190148907","footway":"sidewalk","highway":"footway","lit":"yes","smoothness":"good","surface":"asphalt","id":"way/1190148907"},"geometry":{"type":"LineString","coordinates":[[2.3640112,48.8654682],[2.3640152,48.8654617],[2.3640356,48.8654476],[2.3644085,48.8648467],[2.3644362,48.8648537]]},"id":"way/1190148907"},{"type":"Feature","properties":{"@id":"way/1190196724","crossing":"marked","footway":"crossing","highway":"footway","lit":"yes","surface":"asphalt","id":"way/1190196724"},"geometry":{"type":"LineString","coordinates":[[2.3644362,48.8648537],[2.3644618,48.8648605],[2.364503,48.8648713]]},"id":"way/1190196724"},{"type":"Feature","properties":{"@id":"way/1190205976","footway":"sidewalk","highway":"footway","lit":"yes","surface":"paving_stones","id":"way/1190205976"},"geometry":{"type":"LineString","coordinates":[[2.364503,48.8648713],[2.3645178,48.8648748]]},"id":"way/1190205976"},{"type":"Feature","properties":{"@id":"way/1190205977","footway":"sidewalk","highway":"footway","lit":"yes","surface":"paving_stones","id":"way/1190205977"},"geometry":{"type":"LineString","coordinates":[[2.3647352,48.8648236],[2.3646731,48.8649083]]},"id":"way/1190205977"},{"type":"Feature","properties":{"@id":"way/1190205978","footway":"sidewalk","highway":"footway","lit":"yes","surface":"asphalt","id":"way/1190205978"},"geometry":{"type":"LineString","coordinates":[[2.3652446,48.8652404],[2.3652514,48.8652312]]},"id":"way/1190205978"},{"type":"Feature","properties":{"@id":"way/1190205979","crossing":"traffic_signals","footway":"crossing","highway":"footway","lit":"yes","surface":"asphalt","traffic_signals:sound":"yes","id":"way/1190205979"},"geometry":{"type":"LineString","coordinates":[[2.3652514,48.8652312],[2.3652781,48.8652005],[2.3653076,48.8651691]]},"id":"way/1190205979"},{"type":"Feature","properties":{"@id":"way/1190205980","footway":"sidewalk","highway":"footway","lit":"yes","smoothness":"good","surface":"asphalt","id":"way/1190205980"},"geometry":{"type":"LineString","coordinates":[[2.3651937,48.8653263],[2.3652889,48.8653492]]},"id":"way/1190205980"},{"type":"Feature","properties":{"@id":"way/1190205981","footway":"sidewalk","highway":"footway","lit":"yes","id":"way/1190205981"},"geometry":{"type":"LineString","coordinates":[[2.3654815,48.8653956],[2.3655147,48.8654036]]},"id":"way/1190205981"},{"type":"Feature","properties":{"@id":"way/1190205982","crossing":"uncontrolled","crossing:markings":"yes","footway":"crossing","highway":"footway","lit":"yes","id":"way/1190205982"},"geometry":{"type":"LineString","coordinates":[[2.3655147,48.8654036],[2.3655726,48.8654175],[2.3656173,48.8654283]]},"id":"way/1190205982"},{"type":"Feature","properties":{"@id":"way/1192389180","footway":"sidewalk","highway":"footway","lit":"yes","id":"way/1192389180"},"geometry":{"type":"LineString","coordinates":[[2.3659627,48.8647562],[2.3658598,48.8649318],[2.365871,48.8650029],[2.3656477,48.8654362]]},"id":"way/1192389180"},{"type":"Feature","properties":{"@id":"way/1283314823","busway:both":"lane","cycleway:left":"share_busway","cycleway:right":"lane","cycleway:right:lane":"exclusive","enforcement:operator":"Police nationale","highway":"primary","lanes":"4","lit":"yes","maxspeed":"30","name":"Boulevard du Temple","name:etymology:wikidata":"Q3280072","name:zh":"圣殿大道","operator":"Ville de Paris","operator:authority":"Maire de Paris après avis du préfet de police","operator:authority:related_law":"IV de l'article L. 2512-14 du code général des collectivités territoriales","operator:url":"https://cdn.paris.fr/paris/2020/02/26/5bf469a311d0beb9911e92d113781550.ai","sidewalk:both":"separate","smoothness":"good","surface":"asphalt","id":"way/1283314823"},"geometry":{"type":"LineString","coordinates":[[2.3652935,48.8654972],[2.3650601,48.8658648]]},"id":"way/1283314823"},{"type":"Feature","properties":{"@id":"node/94139049","highway":"traffic_signals","id":"node/94139049"},"geometry":{"type":"Point","coordinates":[2.3654431,48.8652571]},"id":"node/94139049"},{"type":"Feature","properties":{"@id":"node/1430808033","check_date":"2025-10-25","description":"Librairie indépendante","name":"L'Acacia","opening_hours":"Mo-Sa 10:30-19:30; Su 11:00-19:00","payment:credit_cards":"yes","payment:debit_cards":"yes","shop":"books","id":"node/1430808033"},"geometry":{"type":"Point","coordinates":[2.3649083,48.8656245]},"id":"node/1430808033"},{"type":"Feature","properties":{"@id":"node/3207365681","check_date":"2024-07-06","name":"Aliments Express","phone":"+33952464407","shop":"convenience","id":"node/3207365681"},"geometry":{"type":"Point","coordinates":[2.365618,48.8656385]},"id":"node/3207365681"},{"type":"Feature","properties":{"@id":"node/3236196483","amenity":"restaurant","check_date":"2024-07-06","name":"Au Grand Turenne","opening_hours":"Mo-Su 08:00-23:00","id":"node/3236196483"},"geometry":{"type":"Point","coordinates":[2.3652757,48.8650592]},"id":"node/3236196483"},{"type":"Feature","properties":{"@id":"node/3236199132","name":"Triathlon Store","opening_hours":"Mo-Sa 10:00-19:00","shop":"bicycle","website":"https://triathlonstore.fr","id":"node/3236199132"},"geometry":{"type":"Point","coordinates":[2.3653366,48.8649431]},"id":"node/3236199132"},{"type":"Feature","properties":{"@id":"node/3389495359","name":"Nice Piece","shop":"clothes","id":"node/3389495359"},"geometry":{"type":"Point","coordinates":[2.3651039,48.8649642]},"id":"node/3389495359"},{"type":"Feature","properties":{"@id":"node/3421390902","amenity":"restaurant","check_date":"2025-10-25","name":"Au Royal Couscous","id":"node/3421390902"},"geometry":{"type":"Point","coordinates":[2.3648466,48.8657299]},"id":"node/3421390902"},{"type":"Feature","properties":{"@id":"node/3621797194","amenity":"restaurant","contact:phone":"+33170828029","cuisine":"asian","name":"Goku","takeaway":"yes","id":"node/3621797194"},"geometry":{"type":"Point","coordinates":[2.3653036,48.8650075]},"id":"node/3621797194"},{"type":"Feature","properties":{"@id":"node/3659114911","check_date":"2024-07-06","name":"Système Bike","shop":"motorcycle","id":"node/3659114911"},"geometry":{"type":"Point","coordinates":[2.3656751,48.8655442]},"id":"node/3659114911"},{"type":"Feature","properties":{"@id":"node/4828765021","addr:housenumber":"25","addr:postcode":"75003","addr:street":"Boulevard du Temple","name":"The Vintage","name:fr":"Vintage Store","opening_hours":"Mo-Sa 11:00-19:00","phone":"+33 6 47 18 67 57","ref:FR:SIRET":"80157149800014","shop":"clothes","website":"https://www.ledressingideal.fr/","id":"node/4828765021"},"geometry":{"type":"Point","coordinates":[2.3653911,48.8648399]},"id":"node/4828765021"},{"type":"Feature","properties":{"@id":"node/5323879107","clothes":"women","name":"Indress","opening_hours":"Tu-Sa 11:00-19:00","payment:credit_cards":"yes","payment:debit_cards":"yes","shop":"clothes","id":"node/5323879107"},"geometry":{"type":"Point","coordinates":[2.3649678,48.8648386]},"id":"node/5323879107"},{"type":"Feature","properties":{"@id":"node/6104357032","contact:phone":"+331 42 72 93 07","male":"yes","name":"235th Barber Street","opening_hours":"Mo,Su 12:00-20:00; Tu,We 10:00-20:00; Th-Sa 10:00-21:00","ref:FR:SIRET":"82123979500015","shop":"hairdresser","wheelchair":"no","id":"node/6104357032"},"geometry":{"type":"Point","coordinates":[2.3653729,48.864881]},"id":"node/6104357032"},{"type":"Feature","properties":{"@id":"node/6389594176","amenity":"bicycle_rental","bicycle_rental":"docking_station","brand":"Vélib' Métropole","brand:wikidata":"Q1120762","brand:wikipedia":"fr:Vélib' Métropole","capacity":"45","check_date":"2024-07-06","name":"Temple - Charlot","network":"Vélib' Métropole","network:wikidata":"Q1120762","network:wikipedia":"fr:Vélib' Métropole","operator":"Smovengo","operator:type":"private","operator:wikidata":"Q47008427","operator:wikipedia":"fr:Smovengo","ref":"11038","source":"Autolib Velib Métropole - 04/2020","wikidata":"Q86254501","id":"node/6389594176"},"geometry":{"type":"Point","coordinates":[2.3653644,48.8656744]},"id":"node/6389594176"},{"type":"Feature","properties":{"@id":"node/8761358326","amenity":"bench","backrest":"yes","id":"node/8761358326"},"geometry":{"type":"Point","coordinates":[2.364793,48.864904]},"id":"node/8761358326"},{"type":"Feature","properties":{"@id":"node/8761358327","amenity":"bench","backrest":"yes","id":"node/8761358327"},"geometry":{"type":"Point","coordinates":[2.364736,48.864889]},"id":"node/8761358327"},{"type":"Feature","properties":{"@id":"node/8761358328","amenity":"bench","backrest":"yes","id":"node/8761358328"},"geometry":{"type":"Point","coordinates":[2.3646495,48.8648709]},"id":"node/8761358328"},{"type":"Feature","properties":{"@id":"node/8761358329","amenity":"bench","backrest":"yes","id":"node/8761358329"},"geometry":{"type":"Point","coordinates":[2.3645979,48.8648612]},"id":"node/8761358329"},{"type":"Feature","properties":{"@id":"node/8761358331","amenity":"waste_basket","id":"node/8761358331"},"geometry":{"type":"Point","coordinates":[2.3647662,48.8648947]},"id":"node/8761358331"},{"type":"Feature","properties":{"@id":"node/8761358332","amenity":"waste_basket","id":"node/8761358332"},"geometry":{"type":"Point","coordinates":[2.3646221,48.8648643]},"id":"node/8761358332"},{"type":"Feature","properties":{"@id":"node/8761358333","natural":"tree","id":"node/8761358333"},"geometry":{"type":"Point","coordinates":[2.3645577,48.8648511]},"id":"node/8761358333"},{"type":"Feature","properties":{"@id":"node/8761358334","natural":"tree","id":"node/8761358334"},"geometry":{"type":"Point","coordinates":[2.3646905,48.8648784]},"id":"node/8761358334"},{"type":"Feature","properties":{"@id":"node/8761358335","natural":"tree","id":"node/8761358335"},"geometry":{"type":"Point","coordinates":[2.3648353,48.8649093]},"id":"node/8761358335"},{"type":"Feature","properties":{"@id":"node/8761358336","natural":"tree","id":"node/8761358336"},"geometry":{"type":"Point","coordinates":[2.3647709,48.8648511]},"id":"node/8761358336"},{"type":"Feature","properties":{"@id":"node/9319164322","shop":"vacant","id":"node/9319164322"},"geometry":{"type":"Point","coordinates":[2.3657731,48.8653589]},"id":"node/9319164322"},{"type":"Feature","properties":{"@id":"node/9319164323","shop":"vacant","id":"node/9319164323"},"geometry":{"type":"Point","coordinates":[2.3656095,48.8657108]},"id":"node/9319164323"},{"type":"Feature","properties":{"@id":"node/11076167290","amenity":"bench","backrest":"yes","id":"node/11076167290"},"geometry":{"type":"Point","coordinates":[2.3651568,48.8654876]},"id":"node/11076167290"},{"type":"Feature","properties":{"@id":"node/13252374178","highway":"street_lamp","id":"node/13252374178"},"geometry":{"type":"Point","coordinates":[2.3647021,48.8648424]},"id":"node/13252374178"},{"type":"Feature","properties":{"@id":"node/13252374180","highway":"street_lamp","id":"node/13252374180"},"geometry":{"type":"Point","coordinates":[2.3648072,48.8648866]},"id":"node/13252374180"},{"type":"Feature","properties":{"@id":"node/13252374181","highway":"street_lamp","id":"node/13252374181"},"geometry":{"type":"Point","coordinates":[2.3650293,48.8649267]},"id":"node/13252374181"},{"type":"Feature","properties":{"@id":"node/13252374182","highway":"street_lamp","id":"node/13252374182"},"geometry":{"type":"Point","coordinates":[2.3651005,48.8651351]},"id":"node/13252374182"},{"type":"Feature","properties":{"@id":"node/13252374183","natural":"tree","id":"node/13252374183"},"geometry":{"type":"Point","coordinates":[2.3653885,48.8651145]},"id":"node/13252374183"},{"type":"Feature","properties":{"@id":"node/13252374184","natural":"tree","id":"node/13252374184"},"geometry":{"type":"Point","coordinates":[2.3654269,48.865052]},"id":"node/13252374184"},{"type":"Feature","properties":{"@id":"node/13252374185","natural":"tree","id":"node/13252374185"},"geometry":{"type":"Point","coordinates":[2.3654628,48.8649929]},"id":"node/13252374185"},{"type":"Feature","properties":{"@id":"node/13252374186","natural":"tree","id":"node/13252374186"},"geometry":{"type":"Point","coordinates":[2.3654869,48.8649525]},"id":"node/13252374186"},{"type":"Feature","properties":{"@id":"node/13252374187","natural":"tree","id":"node/13252374187"},"geometry":{"type":"Point","coordinates":[2.3655092,48.8649113]},"id":"node/13252374187"},{"type":"Feature","properties":{"@id":"node/13252374188","natural":"tree","id":"node/13252374188"},"geometry":{"type":"Point","coordinates":[2.3655411,48.864857]},"id":"node/13252374188"},{"type":"Feature","properties":{"@id":"node/13252374194","highway":"street_lamp","id":"node/13252374194"},"geometry":{"type":"Point","coordinates":[2.3652315,48.8653448]},"id":"node/13252374194"},{"type":"Feature","properties":{"@id":"node/13252374195","highway":"street_lamp","id":"node/13252374195"},"geometry":{"type":"Point","coordinates":[2.3653681,48.8651372]},"id":"node/13252374195"}]}