{"type":"FeatureCollection","features":[{"type":"Feature","properties":{"@id":"way/63638658","building":"apartments","source":"cadastre-dgi-fr source : Direction Générale des Impôts - Cadastre. Mise à jour : 2010","id":"way/63638658"},"geometry":{"type":"Polygon","coordinates":[[[2.3677685,48.8627392],[2.3678184,48.8626623],[2.3678324,48.8626407],[2.3678683,48.862585],[2.3680714,48.8626481],[2.3680729,48.8626486],[2.3681671,48.8626772],[2.3681837,48.8626829],[2.3680408,48.8628484],[2.3679416,48.8628086],[2.3678708,48.8627802],[2.3677936,48.8627493],[2.3677685,48.8627392]]]},"id":"way/63638658"},{"type":"Feature","properties":{"@id":"way/63639045","building":"apartments","building:colour":"lightyellow","building:levels":"6","source":"cadastre-dgi-fr source : Direction Générale des Impôts - Cadastre. Mise à jour : 2010","id":"way/63639045"},"geometry":{"type":"Polygon","coordinates":[[[2.3674064,48.8626006],[2.3674118,48.8625821],[2.3674153,48.8625703],[2.3674962,48.8626046],[2.3675168,48.8625566],[2.3674612,48.8625463],[2.3674685,48.8625207],[2.3674311,48.8625161],[2.3674436,48.8624721],[2.3675503,48.8624869],[2.3677089,48.8625358],[2.3677723,48.8625553],[2.3678683,48.862585],[2.3678324,48.8626407],[2.367625,48.8625766],[2.3675879,48.8626286],[2.3676584,48.86265],[2.3676953,48.8626804],[2.3677166,48.8626522],[2.3677536,48.8626645],[2.3677694,48.8626463],[2.3678184,48.8626623],[2.3677685,48.8627392],[2.3677606,48.8627517],[2.3676732,48.8627198],[2.3676657,48.8627316],[2.3676674,48.8627321],[2.3676635,48.8627377],[2.3674724,48.8626665],[2.3674064,48.8626006]]]},"id":"way/63639045"},{"type":"Feature","properties":{"@id":"way/63639115","building":"apartments","building:levels":"6","source":"cadastre-dgi-fr source : Direction Générale des Impôts - Cadastre. Mise à jour : 2010","id":"way/63639115"},"geometry":{"type":"Polygon","coordinates":[[[2.3673154,48.862932],[2.3673346,48.8628638],[2.3673686,48.862743],[2.3673904,48.8627339],[2.367545,48.8627962],[2.367564,48.8628039],[2.3675301,48.8628853],[2.3674415,48.8628704],[2.3674232,48.8628783],[2.3674158,48.8629055],[2.3674278,48.8629175],[2.3674592,48.8629226],[2.367463,48.8629124],[2.3675152,48.8629209],[2.3674988,48.8629603],[2.3673154,48.862932]]]},"id":"way/63639115"},{"type":"Feature","properties":{"@id":"way/63640468","building":"apartments","building:levels":"6","source":"cadastre-dgi-fr source : Direction Générale des Impôts - Cadastre. Mise à jour : 2010","id":"way/63640468"},"geometry":{"type":"Polygon","coordinates":[[[2.3671765,48.8623503],[2.367196,48.8622687],[2.367219,48.8621724],[2.3673631,48.8621865],[2.3673386,48.8622743],[2.3673132,48.8623652],[2.3671765,48.8623503]]]},"id":"way/63640468"},{"type":"Feature","properties":{"@id":"way/63642977","building":"yes","building:levels":"6","source":"cadastre-dgi-fr source : Direction Générale des Impôts - Cadastre. Mise à jour : 2010","id":"way/63642977"},"geometry":{"type":"Polygon","coordinates":[[[2.3677089,48.8625358],[2.3675503,48.8624869],[2.3674436,48.8624721],[2.3674662,48.8623921],[2.3674843,48.8623277],[2.3674896,48.862309],[2.3676232,48.8623236],[2.3677985,48.8623713],[2.3677894,48.862388],[2.3677089,48.8625358]]]},"id":"way/63642977"},{"type":"Feature","properties":{"@id":"way/63645770","building":"yes","building:levels":"1","source":"cadastre-dgi-fr source : Direction Générale des Impôts - Cadastre. Mise à jour : 2010","id":"way/63645770"},"geometry":{"type":"Polygon","coordinates":[[[2.3681671,48.8626772],[2.3680729,48.8626486],[2.3680714,48.8626481],[2.3681639,48.8625051],[2.3682632,48.8625294],[2.3682038,48.8626207],[2.3681671,48.8626772]]]},"id":"way/63645770"},{"type":"Feature","properties":{"@id":"way/63646893","building":"apartments","building:colour":"white","building:levels":"6","source":"cadastre-dgi-fr source : Direction Générale des Impôts - Cadastre. Mise à jour : 2010","id":"way/63646893"},"geometry":{"type":"Polygon","coordinates":[[[2.3671765,48.8623503],[2.3673132,48.8623652],[2.367295,48.8624306],[2.3672736,48.8625072],[2.3672356,48.8625186],[2.3671454,48.8624818],[2.3671632,48.8624067],[2.3671765,48.8623503]]]},"id":"way/63646893"},{"type":"Feature","properties":{"@id":"way/63648770","addr:city":"Paris","addr:housenumber":"3","addr:postcode":"75011","addr:street":"Passage Saint-Pierre Amelot","building":"yes","contact:website":"http://www.le-square.paris","name":"Le Square","office":"it","wheelchair":"yes","id":"way/63648770"},"geometry":{"type":"Polygon","coordinates":[[[2.3689371,48.8624764],[2.368966,48.862505],[2.3690255,48.8625209],[2.3690307,48.8625193],[2.3689816,48.8626019],[2.3689355,48.8626796],[2.3688287,48.8626505],[2.368785,48.8626387],[2.3686734,48.8626085],[2.3684534,48.8625486],[2.3681832,48.8624752],[2.3678629,48.8623889],[2.3677985,48.8623713],[2.3676232,48.8623236],[2.3674896,48.862309],[2.3675205,48.8622],[2.3675528,48.8620857],[2.367708,48.8621131],[2.367955,48.8621766],[2.3679424,48.8622117],[2.3680426,48.8622384],[2.3682416,48.8622913],[2.3683939,48.8623358],[2.3688269,48.8624471],[2.3689371,48.8624764]]]},"id":"way/63648770"},{"type":"Feature","properties":{"@id":"way/63649077","building":"yes","source":"cadastre-dgi-fr source : Direction Générale des Impôts - Cadastre. Mise à jour : 2010","id":"way/63649077"},"geometry":{"type":"Polygon","coordinates":[[[2.3685466,48.8627986],[2.3681837,48.8626829],[2.3681671,48.8626772],[2.3682038,48.8626207],[2.3683683,48.8626765],[2.3684534,48.8625486],[2.3686734,48.8626085],[2.3685466,48.8627986]]]},"id":"way/63649077"},{"type":"Feature","properties":{"@id":"way/63649445","building":"yes","source":"cadastre-dgi-fr source : Direction Générale des Impôts - Cadastre. Mise à jour : 2010","id":"way/63649445"},"geometry":{"type":"Polygon","coordinates":[[[2.3680714,48.8626481],[2.3678683,48.862585],[2.3677723,48.8625553],[2.3678534,48.8624063],[2.3678629,48.8623889],[2.3681832,48.8624752],[2.3681639,48.8625051],[2.3680714,48.8626481]]]},"id":"way/63649445"},{"type":"Feature","properties":{"@id":"way/4039537","busway:right":"lane","cycleway:left":"lane","cycleway:left:lane":"advisory","cycleway:left:oneway":"-1","cycleway:right":"share_busway","highway":"tertiary","lane_markings":"no","lit":"yes","maxspeed":"30","maxspeed:type":"FR:zone30","name":"Rue Oberkampf","name:etymology:wikidata":"Q74518","oneway":"yes","oneway:bicycle":"no","sidewalk:both":"separate","smoothness":"good","surface":"asphalt","traffic:hourly":"370","traffic:hourly:source":"Open Data Paris 2019 : Comptage routier - Données trafic issues des capteurs permanents","id":"way/4039537"},"geometry":{"type":"LineString","coordinates":[[2.3668914,48.862463],[2.3671959,48.8625978],[2.3672215,48.8626091],[2.3673118,48.8626491]]},"id":"way/4039537"},{"type":"Feature","properties":{"@id":"way/50557198","busway:right":"lane","cycleway:right":"share_busway","highway":"tertiary","lit":"yes","maxspeed":"30","maxspeed:type":"sign","name":"Rue Oberkampf","name:etymology:wikidata":"Q74518","oneway":"yes","sidewalk:both":"separate","smoothness":"good","surface":"asphalt","traffic:hourly":"370","traffic:hourly:source":"Open Data Paris 2019 : Comptage routier - Données trafic issues des capteurs permanents","id":"way/50557198"},"geometry":{"type":"LineString","coordinates":[[2.3673118,48.8626491],[2.3673895,48.862683],[2.3681499,48.86298],[2.3691879,48.8633847],[2.3692452,48.863407],[2.3693201,48.8634371],[2.3699682,48.8636986],[2.3700404,48.863729],[2.3701149,48.8637626]]},"id":"way/50557198"},{"type":"Feature","properties":{"@id":"way/221586669","cycleway:left":"lane","cycleway:left:lane":"exclusive","cycleway:left:oneway":"-1","cycleway:right":"no","highway":"residential","lit":"yes","maxspeed":"30","name":"Rue Amelot","name:etymology:wikidata":"Q674816","oneway":"yes","oneway:bicycle":"no","sidewalk:both":"separate","smoothness":"good","surface":"asphalt","zone:maxspeed":"FR:30","id":"way/221586669"},"geometry":{"type":"LineString","coordinates":[[2.3673118,48.8626491],[2.3673323,48.8625808],[2.3674081,48.8623193],[2.3674852,48.8620553],[2.3675862,48.8616738],[2.3676736,48.8613575],[2.3676873,48.8613078],[2.3677076,48.8612341],[2.3678179,48.8608331],[2.3678314,48.8607808]]},"id":"way/221586669"},{"type":"Feature","properties":{"@id":"way/410931451","highway":"footway","source":"survey","wikidata":"Q2974734","id":"way/410931451"},"geometry":{"type":"LineString","coordinates":[[2.3681499,48.86298],[2.3681356,48.8630135],[2.3681315,48.8630231],[2.368128,48.8630314]]},"id":"way/410931451"},{"type":"Feature","properties":{"@id":"way/602569676","highway":"footway","layer":"-1","tunnel":"yes","id":"way/602569676"},"geometry":{"type":"LineString","coordinates":[[2.3682171,48.8625031],[2.3678534,48.8624063]]},"id":"way/602569676"},{"type":"Feature","properties":{"@id":"way/602569677","highway":"footway","lit":"yes","smoothness":"good","surface":"asphalt","id":"way/602569677"},"geometry":{"type":"LineString","coordinates":[[2.3674843,48.8623277],[2.3674716,48.8623263],[2.3674081,48.8623193]]},"id":"way/602569677"},{"type":"Feature","properties":{"@id":"way/602569678","highway":"footway","layer":"-1","surface":"asphalt","tunnel":"yes","id":"way/602569678"},"geometry":{"type":"LineString","coordinates":[[2.3677894,48.862388],[2.3676066,48.8623413],[2.3674843,48.8623277]]},"id":"way/602569678"},{"type":"Feature","properties":{"@id":"way/602569679","highway":"footway","id":"way/602569679"},"geometry":{"type":"LineString","coordinates":[[2.3678534,48.8624063],[2.3677894,48.862388]]},"id":"way/602569679"},{"type":"Feature","properties":{"@id":"way/1190196669","crossing":"uncontrolled","crossing:markings":"yes","footway":"crossing","highway":"footway","lit":"yes","surface":"asphalt","id":"way/1190196669"},"geometry":{"type":"LineString","coordinates":[[2.3673986,48.86266],[2.3673895,48.862683],[2.3673774,48.8627138]]},"id":"way/1190196669"},{"type":"Feature","properties":{"@id":"way/1190196728","crossing":"uncontrolled","crossing:markings":"yes","footway":"crossing","highway":"footway","lit":"yes","surface":"asphalt","id":"way/1190196728"},"geometry":{"type":"LineString","coordinates":[[2.3672839,48.8625619],[2.3673323,48.8625808],[2.3673552,48.8625899]]},"id":"way/1190196728"},{"type":"Feature","properties":{"@id":"way/1190196729","crossing":"uncontrolled","crossing:markings":"yes","footway":"crossing","highway":"footway","lit":"yes","surface":"asphalt","id":"way/1190196729"},"geometry":{"type":"LineString","coordinates":[[2.3672666,48.8627226],[2.3672998,48.8627259],[2.3673395,48.8627299]]},"id":"way/1190196729"},{"type":"Feature","properties":{"@id":"way/1190197054","footway":"sidewalk","highway":"footway","lit":"yes","smoothness":"intermediate","surface":"paving_stones","id":"way/1190197054"},"geometry":{"type":"LineString","coordinates":[[2.3676147,48.8613428],[2.3675292,48.861668],[2.3672729,48.862557]]},"id":"way/1190197054"},{"type":"Feature","properties":{"@id":"way/1190197061","footway":"sidewalk","highway":"footway","lit":"yes","smoothness":"good","surface":"asphalt","id":"way/1190197061"},"geometry":{"type":"LineString","coordinates":[[2.3672402,48.8625429],[2.3671031,48.8624783],[2.3670216,48.8624335]]},"id":"way/1190197061"},{"type":"Feature","properties":{"@id":"way/1190197062","footway":"sidewalk","highway":"footway","lit":"yes","surface":"asphalt","id":"way/1190197062"},"geometry":{"type":"LineString","coordinates":[[2.3672839,48.8625619],[2.3672729,48.862557],[2.3672402,48.8625429],[2.3672311,48.862575]]},"id":"way/1190197062"},{"type":"Feature","properties":{"@id":"way/1190197064","footway":"sidewalk","highway":"footway","lit":"yes","smoothness":"good","surface":"asphalt","id":"way/1190197064"},"geometry":{"type":"LineString","coordinates":[[2.3672309,48.8627143],[2.3671004,48.8631982],[2.3669703,48.8632187],[2.366907,48.8633968]]},"id":"way/1190197064"},{"type":"Feature","properties":{"@id":"way/1190197065","footway":"sidewalk","highway":"footway","lit":"yes","surface":"asphalt","id":"way/1190197065"},"geometry":{"type":"LineString","coordinates":[[2.3672666,48.8627226],[2.3672309,48.8627143],[2.3672,48.8626855],[2.3672073,48.8626634]]},"id":"way/1190197065"},{"type":"Feature","properties":{"@id":"way/1190197096","footway":"sidewalk","highway":"footway","lit":"yes","surface":"asphalt","id":"way/1190197096"},"geometry":{"type":"LineString","coordinates":[[2.3673576,48.8627323],[2.3672479,48.8631347],[2.3670075,48.8638358],[2.3669951,48.8638308]]},"id":"way/1190197096"},{"type":"Feature","properties":{"@id":"way/1190197097","footway":"sidewalk","highway":"footway","surface":"asphalt","id":"way/1190197097"},"geometry":{"type":"LineString","coordinates":[[2.3673757,48.8627191],[2.3673576,48.8627323],[2.3673395,48.8627299]]},"id":"way/1190197097"},{"type":"Feature","properties":{"@id":"way/1190197099","footway":"sidewalk","highway":"footway","lit":"yes","id":"way/1190197099"},"geometry":{"type":"LineString","coordinates":[[2.3674018,48.8626489],[2.3692247,48.863342]]},"id":"way/1190197099"},{"type":"Feature","properties":{"@id":"way/1190197100","footway":"sidewalk","highway":"footway","lit":"yes","surface":"asphalt","id":"way/1190197100"},"geometry":{"type":"LineString","coordinates":[[2.367391,48.8626031],[2.3674018,48.8626489],[2.3673986,48.86266]]},"id":"way/1190197100"},{"type":"Feature","properties":{"@id":"way/1190197101","footway":"sidewalk","highway":"footway","lit":"yes","smoothness":"good","surface":"asphalt","id":"way/1190197101"},"geometry":{"type":"LineString","coordinates":[[2.3677341,48.8613675],[2.3675711,48.8619736],[2.3675434,48.8620655],[2.3674716,48.8623263],[2.367391,48.8626031],[2.3673552,48.8625899]]},"id":"way/1190197101"},{"type":"Feature","properties":{"@id":"way/1191762238","footway":"sidewalk","highway":"footway","id":"way/1191762238"},"geometry":{"type":"LineString","coordinates":[[2.3691509,48.8634295],[2.3681315,48.8630231],[2.3673757,48.8627191],[2.3673774,48.8627138]]},"id":"way/1191762238"},{"type":"Feature","properties":{"@id":"way/1192421246","crossing":"traffic_signals","footway":"crossing","highway":"footway","lit":"yes","smoothness":"good","surface":"asphalt","id":"way/1192421246"},"geometry":{"type":"LineString","coordinates":[[2.3672073,48.8626634],[2.3672215,48.8626091],[2.3672311,48.862575]]},"id":"way/1192421246"},{"type":"Feature","properties":{"@id":"way/1192421250","footway":"sidewalk","highway":"footway","lit":"yes","smoothness":"good","surface":"asphalt","id":"way/1192421250"},"geometry":{"type":"LineString","coordinates":[[2.3669435,48.8629498],[2.3669985,48.8627311],[2.3672,48.8626855]]},"id":"way/1192421250"},{"type":"Feature","properties":{"@id":"node/94144255","highway":"traffic_signals","id":"node/94144255"},"geometry":{"type":"Point","coordinates":[2.3673118,48.8626491]},"id":"node/94144255"},{"type":"Feature","properties":{"@id":"node/2431315453","check_date":"2025-09-12","check_date:opening_hours":"2025-09-12","name":"Moulin Roty","opening_hours":"Tu-Sa 10:00-19:00; Mo 11:00-19:00","shop":"baby_goods","wheelchair":"yes","id":"node/2431315453"},"geometry":{"type":"Point","coordinates":[2.3672318,48.8621456]},"id":"node/2431315453"},{"type":"Feature","properties":{"@id":"node/2653992673","amenity":"cafe","check_date":"2024-07-01","contact:instagram":"https://www.instagram.com/keili_paris/","contact:phone":"+33 1 48 06 86 03","contact:website":"https://www.keili.fr/","cuisine":"coffee_shop","diet:gluten_free":"yes","diet:vegetarian":"yes","level":"0","name":"keïli","opening_hours":"Mo-Fr 11:00-16:00","outdoor_seating":"yes","reservation":"no","takeaway":"yes","id":"node/2653992673"},"geometry":{"type":"Point","coordinates":[2.3673522,48.8629115]},"id":"node/2653992673"},{"type":"Feature","properties":{"@id":"node/2654266788","addr:city":"Paris","addr:country":"FR","addr:housenumber":"1","addr:postcode":"75011","addr:street":"Rue Oberkampf","amenity":"bar","brewery":"Belzébuth;Goudale;Goudale Ambrée;Saint-Omer","check_date":"2026-02-21","name":"L'Autobus","phone":"+33147006433","wheelchair":"yes","id":"node/2654266788"},"geometry":{"type":"Point","coordinates":[2.367427,48.8627917]},"id":"node/2654266788"},{"type":"Feature","properties":{"@id":"node/2654272021","check_date":"2025-03-02","name":"Audisolla","phone":"+33158303565","shop":"hearing_aids","id":"node/2654272021"},"geometry":{"type":"Point","coordinates":[2.3673803,48.8628368]},"id":"node/2654272021"},{"type":"Feature","properties":{"@id":"node/3195350500","check_date":"2024-08-10","name":"Betjeman and Barton","opening_hours":"Tu-Fr 09:00-19:00; Sa 11:00-19:00","phone":"+331 39 75 27 71","shop":"tea","website":"https://www.betjemanandbarton.com/","wheelchair":"no","id":"node/3195350500"},"geometry":{"type":"Point","coordinates":[2.3672096,48.8623175]},"id":"node/3195350500"},{"type":"Feature","properties":{"@id":"node/3201590000","shop":"vacant","id":"node/3201590000"},"geometry":{"type":"Point","coordinates":[2.3684734,48.8630142]},"id":"node/3201590000"},{"type":"Feature","properties":{"@id":"node/3201875680","amenity":"bar","check_date":"2025-12-21","contact:facebook":"https://www.facebook.com/barducirque","contact:phone":"+33 1 48 05 53 06","name":"Bar du Cirque","opening_hours":"Tu-Su 16:00-02:00","website":"http://www.barducirque.fr/","id":"node/3201875680"},"geometry":{"type":"Point","coordinates":[2.3673293,48.8629926]},"id":"node/3201875680"},{"type":"Feature","properties":{"@id":"node/3201879208","amenity":"restaurant","capacity":"50","check_date":"2025-07-27","cuisine":"burger;french","email":"centenaire75011@gmail.com","name":"Le Centenaire","opening_hours":"Mo-Sa 07:00-02:00","phone":"+331 47 00 35 46","smoking":"outside","wheelchair":"yes","id":"node/3201879208"},"geometry":{"type":"Point","coordinates":[2.3674951,48.8626388]},"id":"node/3201879208"},{"type":"Feature","properties":{"@id":"node/3378228247","name":"Le Fiacre","opening_hours":"Tu-Sa 10:30-13:00,14:30-19:00","shop":"houseware","wheelchair":"no","id":"node/3378228247"},"geometry":{"type":"Point","coordinates":[2.3672228,48.8622304]},"id":"node/3378228247"},{"type":"Feature","properties":{"@id":"node/4955783405","STIF:zone":"1","bench":"yes","bin":"no","bus":"yes","highway":"bus_stop","lit":"yes","name":"Oberkampf - Filles du Calvaire","public_transport":"platform","ref:FR:STIF":"37525","route_ref":"96","shelter":"yes","source:wheelchair":"STIF 2019-01","tactile_paving":"no","wheelchair":"no","id":"node/4955783405"},"geometry":{"type":"Point","coordinates":[2.3671884,48.8625381]},"id":"node/4955783405"},{"type":"Feature","properties":{"@id":"node/9330399128","contact:website":"https://www.louisgabrielnouchi.com/","name":"Louis Gabriel Nouchi","opening_hours":"Tu-Sa 11:00-14:00,15:00-19:30","shop":"clothes","id":"node/9330399128"},"geometry":{"type":"Point","coordinates":[2.3676277,48.8626941]},"id":"node/9330399128"},{"type":"Feature","properties":{"@id":"node/10032478433","amenity":"bar","contact:city":"Paris 11eme Arrondissement","contact:housenumber":"10","contact:phone":"+33 6 21 70 26 78","contact:postcode":"75011","contact:street":"Rue Oberkampf","name":"La Bonne Décision","id":"node/10032478433"},"geometry":{"type":"Point","coordinates":[2.36853,48.8630343]},"id":"node/10032478433"},{"type":"Feature","properties":{"@id":"node/11262895384","amenity":"restaurant","check_date":"2026-02-21","name":"Kubri","id":"node/11262895384"},"geometry":{"type":"Point","coordinates":[2.367317,48.8630373]},"id":"node/11262895384"},{"type":"Feature","properties":{"@id":"node/12246837648","addr:city":"Paris","addr:housenumber":"26","addr:postcode":"75003","addr:street":"Boulevard des Filles du Calvaire","amenity":"cafe","branch":"Paris Oberkampf","brand":"% Arabica","brand:wikidata":"Q107639197","check_date":"2025-07-27","contact:email":"arabicafr@sohome.ae","contact:instagram":"arabica.frn","cuisine":"coffee_shop","indoor_seating":"yes","name":"% Arabica","opening_hours":"Mo-Fr 08:00-19:00; Sa-Su 09:00-19:00","outdoor_seating":"yes","phone":"+33 6 85 41 34 85","takeaway":"yes","website":"http://arabica.com","wheelchair":"yes","id":"node/12246837648"},"geometry":{"type":"Point","coordinates":[2.3672126,48.8624729]},"id":"node/12246837648"},{"type":"Feature","properties":{"@id":"node/12648496621","name":"Arteo","ref:FR:SIRET":"49340372900012","shop":"optician","website":"http://www.arteoetseslunettes.com/","id":"node/12648496621"},"geometry":{"type":"Point","coordinates":[2.3678186,48.8629485]},"id":"node/12648496621"}]}