{"type":"FeatureCollection","features":[{"type":"Feature","properties":{"@id":"way/56692696","building":"yes","building:levels":"8","source":"cadastre-dgi-fr source : Direction Générale des Impôts - Cadastre. Mise à jour : 2010","id":"way/56692696"},"geometry":{"type":"Polygon","coordinates":[[[2.35779,48.8613577],[2.3577157,48.8612988],[2.3578207,48.8612411],[2.3578253,48.8612433],[2.3578371,48.8612434],[2.3578409,48.8612447],[2.3578455,48.8612445],[2.3578837,48.8612753],[2.3578779,48.8612787],[2.3578812,48.8612808],[2.3578803,48.8612853],[2.3578766,48.8612874],[2.3578862,48.8612938],[2.3578837,48.8613079],[2.35779,48.8613577]]]},"id":"way/56692696"},{"type":"Feature","properties":{"@id":"way/56694112","building":"yes","building:levels":"7","source":"cadastre-dgi-fr source : Direction Générale des Impôts - Cadastre. Mise à jour : 2010","id":"way/56694112"},"geometry":{"type":"Polygon","coordinates":[[[2.3587437,48.861839],[2.3584887,48.861967],[2.3584491,48.8619321],[2.3583624,48.8618562],[2.3586103,48.8617254],[2.3587271,48.8618248],[2.3587437,48.861839]]]},"id":"way/56694112"},{"type":"Feature","properties":{"@id":"way/1387630336","area":"yes","area:highway":"footway","footway":"sidewalk","highway":"footway","lit":"yes","smoothness":"good","surface":"paving_stones","id":"way/1387630336"},"geometry":{"type":"Polygon","coordinates":[[[2.3582218,48.8612955],[2.3582201,48.8612822],[2.3582298,48.8612782],[2.3582383,48.8612838],[2.3586981,48.8616799],[2.3586886,48.8616851],[2.3586778,48.8616903],[2.3586761,48.8616888],[2.3585799,48.8616055],[2.3585344,48.8615661],[2.3582218,48.8612955]]]},"id":"way/1387630336"},{"type":"Feature","properties":{"@id":"way/1431039681","area":"yes","area:highway":"footway","footway":"sidewalk","highway":"footway","lit":"yes","smoothness":"good","surface":"paving_stones","id":"way/1431039681"},"geometry":{"type":"Polygon","coordinates":[[[2.3582218,48.8612955],[2.3580842,48.8613689],[2.3579397,48.861446],[2.3578124,48.8615132],[2.357668,48.8615894],[2.3575115,48.861672],[2.3574314,48.8617142],[2.3573457,48.8617595],[2.3572687,48.861796],[2.357171,48.8618407],[2.357094,48.8618759],[2.3570774,48.8618835],[2.3570643,48.8618708],[2.3570487,48.8618569],[2.3571984,48.8617941],[2.357503,48.8616296],[2.3575864,48.8615855],[2.3581724,48.8612793],[2.3581876,48.8612727],[2.3582024,48.8612713],[2.3582169,48.8612731],[2.358225,48.8612758],[2.3582298,48.8612782],[2.3582201,48.8612822],[2.3582218,48.8612955]]]},"id":"way/1431039681"},{"type":"Feature","properties":{"@id":"way/4574384","highway":"residential","lit":"yes","maxspeed":"30","maxspeed:type":"FR:zone30","motor_vehicle:conditional":"no @ (Apr-Sep Su 10:00-19:30; Oct-Mar Su 10:00-18:00)","name":"Rue des Haudriettes","name:etymology:wikidata":"Q1589191","oneway":"yes","sidewalk:both":"separate","sidewalk:both:surface":"paving_stones","surface":"asphalt","id":"way/4574384"},"geometry":{"type":"LineString","coordinates":[[2.3582039,48.8612321],[2.3581417,48.8612655],[2.357179,48.8617895],[2.3569743,48.8618695],[2.3569134,48.8618954]]},"id":"way/4574384"},{"type":"Feature","properties":{"@id":"way/22940894","highway":"tertiary","lanes":"2","lit":"yes","maxspeed":"30","motor_vehicle:conditional":"no @ (Apr-Sep Su 10:00-19:30; Oct-Mar Su 10:00-18:00)","name":"Rue des Archives","name:etymology:wikidata":"Q182542","name:zh":"档案馆路","old_name":"Rue du Chaume","oneway":"yes","sidewalk:both":"separate","surface":"asphalt","id":"way/22940894"},"geometry":{"type":"LineString","coordinates":[[2.3568876,48.8600687],[2.3569429,48.8601032],[2.3574286,48.8605503],[2.3574376,48.860561],[2.3581389,48.8611759],[2.3582039,48.8612321],[2.3582531,48.86127],[2.3587427,48.8616948],[2.3589704,48.8618903],[2.359382,48.8622438],[2.3597254,48.8625386],[2.3597986,48.8625974]]},"id":"way/22940894"},{"type":"Feature","properties":{"@id":"way/1190141262","footway":"sidewalk","highway":"footway","surface":"paving_stones","id":"way/1190141262"},"geometry":{"type":"LineString","coordinates":[[2.3582902,48.8612566],[2.3583024,48.8612313],[2.3582917,48.8612225]]},"id":"way/1190141262"},{"type":"Feature","properties":{"@id":"way/1190141263","footway":"sidewalk","highway":"footway","surface":"paving_stones","id":"way/1190141263"},"geometry":{"type":"LineString","coordinates":[[2.3587785,48.8616732],[2.3582902,48.8612566],[2.3582765,48.8612618]]},"id":"way/1190141263"},{"type":"Feature","properties":{"@id":"way/1190141264","footway":"sidewalk","highway":"footway","surface":"paving_stones","id":"way/1190141264"},"geometry":{"type":"LineString","coordinates":[[2.3597645,48.8625229],[2.3593331,48.8621476],[2.3590337,48.8618858],[2.3587785,48.8616732],[2.3587631,48.8616824]]},"id":"way/1190141264"},{"type":"Feature","properties":{"@id":"way/1190196709","crossing":"uncontrolled","crossing:markings":"yes","footway":"crossing","highway":"footway","lit":"yes","surface":"asphalt","id":"way/1190196709"},"geometry":{"type":"LineString","coordinates":[[2.3587276,48.8617038],[2.3587427,48.8616948],[2.3587631,48.8616824]]},"id":"way/1190196709"},{"type":"Feature","properties":{"@id":"way/1190196883","footway":"sidewalk","highway":"footway","surface":"asphalt","id":"way/1190196883"},"geometry":{"type":"LineString","coordinates":[[2.3587014,48.8617202],[2.358692,48.8617592],[2.3593099,48.8622766],[2.3596536,48.8625748]]},"id":"way/1190196883"},{"type":"Feature","properties":{"@id":"way/1190196884","footway":"sidewalk","highway":"footway","surface":"paving_stones","id":"way/1190196884"},"geometry":{"type":"LineString","coordinates":[[2.3582201,48.8612822],[2.3586886,48.8616851],[2.3587014,48.8617202],[2.3587276,48.8617038]]},"id":"way/1190196884"},{"type":"Feature","properties":{"@id":"way/1190196885","footway":"sidewalk","highway":"footway","surface":"paving_stones","id":"way/1190196885"},"geometry":{"type":"LineString","coordinates":[[2.3581724,48.8612793],[2.3581978,48.8612907],[2.3582201,48.8612822],[2.3582298,48.8612782]]},"id":"way/1190196885"},{"type":"Feature","properties":{"@id":"way/1190196891","footway":"sidewalk","highway":"footway","surface":"paving_stones","id":"way/1190196891"},"geometry":{"type":"LineString","coordinates":[[2.3569601,48.8618552],[2.3569556,48.8618504],[2.3571481,48.8617702],[2.3578455,48.8614028],[2.358048,48.861225],[2.3580946,48.8612442]]},"id":"way/1190196891"},{"type":"Feature","properties":{"@id":"way/1190208833","crossing":"traffic_signals","crossing:markings":"yes","footway":"crossing","highway":"footway","lit":"yes","surface":"asphalt","traffic_signals:sound":"yes","id":"way/1190208833"},"geometry":{"type":"LineString","coordinates":[[2.3580946,48.8612442],[2.3581417,48.8612655],[2.3581724,48.8612793]]},"id":"way/1190208833"},{"type":"Feature","properties":{"@id":"way/1190208836","crossing":"traffic_signals","crossing:markings":"yes","footway":"crossing","highway":"footway","lit":"yes","surface":"asphalt","traffic_signals:sound":"yes","id":"way/1190208836"},"geometry":{"type":"LineString","coordinates":[[2.3582298,48.8612782],[2.3582531,48.86127],[2.3582765,48.8612618]]},"id":"way/1190208836"},{"type":"Feature","properties":{"@id":"way/1190353003","footway":"sidewalk","highway":"footway","surface":"paving_stones","id":"way/1190353003"},"geometry":{"type":"LineString","coordinates":[[2.3570002,48.861899],[2.3570643,48.8618708],[2.3572356,48.8617953],[2.3581978,48.8612907]]},"id":"way/1190353003"},{"type":"Feature","properties":{"@id":"node/2983776598","addr:city":"Paris","addr:housenumber":"51","addr:postcode":"75003","addr:street":"Rue des Archives","amenity":"restaurant","check_date":"2024-08-04","contact:website":"http://www.bistrotenville.mobi/la-terrasse-des-archives","cuisine":"french","diet:vegan":"no","diet:vegetarian":"yes","name":"La Terrasse des Archives","opening_hours":"Mo-Fr 07:30-02:00, Sa,Su,PH 08:30-02:00","phone":"+33 1 42 72 17 57","smoking":"outside","wheelchair":"yes","id":"node/2983776598"},"geometry":{"type":"Point","coordinates":[2.3578099,48.8612957]},"id":"node/2983776598"},{"type":"Feature","properties":{"@id":"node/3045671640","shop":"vacant","id":"node/3045671640"},"geometry":{"type":"Point","coordinates":[2.3583027,48.8614058]},"id":"node/3045671640"},{"type":"Feature","properties":{"@id":"node/3378053627","shop":"vacant","id":"node/3378053627"},"geometry":{"type":"Point","coordinates":[2.3587394,48.8618817]},"id":"node/3378053627"},{"type":"Feature","properties":{"@id":"node/3621949493","amenity":"restaurant","check_date":"2024-06-23","diet:vegetarian":"no","name":"Le Connetable","opening_hours":"Mo-We 19:00-02:00, Fr,Sa 19:00-05:00","id":"node/3621949493"},"geometry":{"type":"Point","coordinates":[2.3582124,48.8613494]},"id":"node/3621949493"},{"type":"Feature","properties":{"@id":"node/10313025741","level":"0","name":"Hair Dresser Studio","shop":"hairdresser","id":"node/10313025741"},"geometry":{"type":"Point","coordinates":[2.3586378,48.8620067]},"id":"node/10313025741"},{"type":"Feature","properties":{"@id":"node/10733057822","leaf_cycle":"deciduous","leaf_type":"broadleaved","natural":"tree","id":"node/10733057822"},"geometry":{"type":"Point","coordinates":[2.3580334,48.8612744]},"id":"node/10733057822"},{"type":"Feature","properties":{"@id":"node/10733057824","leaf_cycle":"deciduous","leaf_type":"broadleaved","natural":"tree","id":"node/10733057824"},"geometry":{"type":"Point","coordinates":[2.3579579,48.861321]},"id":"node/10733057824"},{"type":"Feature","properties":{"@id":"node/10733057827","natural":"tree","id":"node/10733057827"},"geometry":{"type":"Point","coordinates":[2.3582127,48.8621246]},"id":"node/10733057827"},{"type":"Feature","properties":{"@id":"node/11059988197","check_date":"2024-08-04","name":"aenima","shop":"tattoo","id":"node/11059988197"},"geometry":{"type":"Point","coordinates":[2.3576928,48.8614305]},"id":"node/11059988197"},{"type":"Feature","properties":{"@id":"node/11177631026","highway":"street_lamp","source":"survey 2023","support":"wall_mounted","id":"node/11177631026"},"geometry":{"type":"Point","coordinates":[2.3585799,48.8616055]},"id":"node/11177631026"},{"type":"Feature","properties":{"@id":"node/11177631027","highway":"street_lamp","source":"survey 2023","support":"wall_mounted","id":"node/11177631027"},"geometry":{"type":"Point","coordinates":[2.3586761,48.8616888]},"id":"node/11177631027"},{"type":"Feature","properties":{"@id":"node/11197420838","shop":"books","id":"node/11197420838"},"geometry":{"type":"Point","coordinates":[2.3585907,48.8613676]},"id":"node/11197420838"},{"type":"Feature","properties":{"@id":"node/11455536633","shop":"vacant","id":"node/11455536633"},"geometry":{"type":"Point","coordinates":[2.3577799,48.8613947]},"id":"node/11455536633"},{"type":"Feature","properties":{"@id":"node/12176275697","amenity":"waste_basket","id":"node/12176275697"},"geometry":{"type":"Point","coordinates":[2.3583131,48.8612589]},"id":"node/12176275697"},{"type":"Feature","properties":{"@id":"node/12176278013","amenity":"waste_basket","id":"node/12176278013"},"geometry":{"type":"Point","coordinates":[2.3587424,48.8617379]},"id":"node/12176278013"},{"type":"Feature","properties":{"@id":"node/13154007675","name":"Senteurs de fée","shop":"cosmetics","website":"https://maisonsenteursdefee.com/","id":"node/13154007675"},"geometry":{"type":"Point","coordinates":[2.3581559,48.8613679]},"id":"node/13154007675"}]}