{"type":"FeatureCollection","features":[{"type":"Feature","properties":{"@id":"way/63638321","building":"yes","building:levels":"2","source":"cadastre-dgi-fr source : Direction Générale des Impôts - Cadastre. Mise à jour : 2010","id":"way/63638321"},"geometry":{"type":"Polygon","coordinates":[[[2.3704219,48.8612785],[2.3703465,48.8612591],[2.3703497,48.8612531],[2.3703559,48.8612513],[2.3703663,48.8612538],[2.3703924,48.8612116],[2.3704537,48.861226],[2.3704219,48.8612785]]]},"id":"way/63638321"},{"type":"Feature","properties":{"@id":"way/63638666","building":"yes","building:levels":"6","source":"cadastre-dgi-fr source : Direction Générale des Impôts - Cadastre. Mise à jour : 2010","id":"way/63638666"},"geometry":{"type":"Polygon","coordinates":[[[2.3711033,48.8619727],[2.3710376,48.8620809],[2.3708855,48.8620406],[2.3707203,48.8619969],[2.370514,48.8619423],[2.3703122,48.8618888],[2.3701289,48.8618403],[2.3700707,48.8618249],[2.3701401,48.8617167],[2.3711033,48.8619727]]]},"id":"way/63638666"},{"type":"Feature","properties":{"@id":"way/63638995","building":"apartments","building:levels":"7","source":"cadastre-dgi-fr source : Direction Générale des Impôts - Cadastre. Mise à jour : 2010","id":"way/63638995"},"geometry":{"type":"Polygon","coordinates":[[[2.3711785,48.8618491],[2.3711617,48.8618448],[2.370766,48.8617434],[2.3708299,48.8616363],[2.3708915,48.8616527],[2.3711628,48.8617249],[2.3712411,48.8617457],[2.3711785,48.8618491]]]},"id":"way/63638995"},{"type":"Feature","properties":{"@id":"way/63639324","building":"yes","building:levels":"6","source":"cadastre-dgi-fr source : Direction Générale des Impôts - Cadastre. Mise à jour : 2010","id":"way/63639324"},"geometry":{"type":"Polygon","coordinates":[[[2.3703953,48.861402],[2.3704605,48.8612883],[2.3705077,48.8613003],[2.370484,48.8613407],[2.3705092,48.8613469],[2.3705325,48.8613067],[2.3705452,48.8613098],[2.3706166,48.8613282],[2.3706066,48.8613449],[2.3706094,48.86135],[2.3706041,48.8613603],[2.3706232,48.8613653],[2.3706286,48.8613737],[2.3706191,48.8613899],[2.3706406,48.8613956],[2.370664,48.8613567],[2.3706498,48.8613531],[2.3706575,48.8613387],[2.3707513,48.8613628],[2.370762,48.8613656],[2.3706974,48.8614804],[2.3705022,48.8614297],[2.3703953,48.861402]]]},"id":"way/63639324"},{"type":"Feature","properties":{"@id":"way/63639511","building":"apartments","building:levels":"6","roof:levels":"0","source":"cadastre-dgi-fr source : Direction Générale des Impôts - Cadastre. Mise à jour : 2010","id":"way/63639511"},"geometry":{"type":"Polygon","coordinates":[[[2.3702227,48.8615128],[2.3702105,48.8615328],[2.3701722,48.8615971],[2.3700519,48.8615645],[2.3700432,48.861576],[2.3699564,48.8615534],[2.3699801,48.8615134],[2.3700009,48.8615189],[2.3700258,48.8614791],[2.3700039,48.861473],[2.3700439,48.8614057],[2.3701079,48.8614226],[2.3701947,48.8614455],[2.3702529,48.8614608],[2.3702227,48.8615128]]]},"id":"way/63639511"},{"type":"Feature","properties":{"@id":"way/63639694","building":"yes","source":"cadastre-dgi-fr source : Direction Générale des Impôts - Cadastre. Mise à jour : 2010","id":"way/63639694"},"geometry":{"type":"Polygon","coordinates":[[[2.3711314,48.8619263],[2.3710184,48.8618973],[2.3710454,48.8618533],[2.371158,48.8618827],[2.3711314,48.8619263]]]},"id":"way/63639694"},{"type":"Feature","properties":{"@id":"way/63640415","building":"yes","source":"cadastre-dgi-fr source : Direction Générale des Impôts - Cadastre. Mise à jour : 2010","id":"way/63640415"},"geometry":{"type":"Polygon","coordinates":[[[2.3709192,48.8615381],[2.3709887,48.861425],[2.371076,48.8614476],[2.3710598,48.8614761],[2.3710848,48.861483],[2.3711018,48.8614542],[2.3711984,48.8614799],[2.3712289,48.8614879],[2.371156,48.8616002],[2.3710293,48.861567],[2.3709192,48.8615381]]]},"id":"way/63640415"},{"type":"Feature","properties":{"@id":"way/63640934","building":"yes","source":"cadastre-dgi-fr source : Direction Générale des Impôts - Cadastre. Mise à jour : 2010","id":"way/63640934"},"geometry":{"type":"Polygon","coordinates":[[[2.3707449,48.8617804],[2.3706572,48.8617576],[2.3706604,48.861752],[2.3706317,48.8617449],[2.370638,48.8617334],[2.3707537,48.8617641],[2.3707449,48.8617804]]]},"id":"way/63640934"},{"type":"Feature","properties":{"@id":"way/63641642","building":"yes","building:levels":"6","source":"cadastre-dgi-fr source : Direction Générale des Impôts - Cadastre. Mise à jour : 2010","id":"way/63641642"},"geometry":{"type":"Polygon","coordinates":[[[2.3702945,48.861307],[2.3702592,48.8613666],[2.3702323,48.8613595],[2.3701688,48.8613429],[2.3701514,48.8613184],[2.3701803,48.8612698],[2.3702077,48.8612235],[2.3703275,48.8612541],[2.3703015,48.8612952],[2.3702853,48.8612912],[2.3702907,48.8612828],[2.3702777,48.861279],[2.370266,48.8613],[2.3702945,48.861307]]]},"id":"way/63641642"},{"type":"Feature","properties":{"@id":"way/63642681","building":"yes","source":"cadastre-dgi-fr source : Direction Générale des Impôts - Cadastre. Mise à jour : 2010","id":"way/63642681"},"geometry":{"type":"Polygon","coordinates":[[[2.3711634,48.8618739],[2.371147,48.8618698],[2.3711617,48.8618448],[2.3711785,48.8618491],[2.3711634,48.8618739]]]},"id":"way/63642681"},{"type":"Feature","properties":{"@id":"way/63648510","building":"yes","building:levels":"6","source":"cadastre-dgi-fr source : Direction Générale des Impôts - Cadastre. Mise à jour : 2010","id":"way/63648510"},"geometry":{"type":"Polygon","coordinates":[[[2.370256,48.8621136],[2.370319,48.8620051],[2.3704694,48.862045],[2.3705917,48.8620774],[2.3705362,48.8621875],[2.370256,48.8621136]]]},"id":"way/63648510"},{"type":"Feature","properties":{"@id":"way/63649399","building":"yes","source":"cadastre-dgi-fr source : Direction Générale des Impôts - Cadastre. Mise à jour : 2010","id":"way/63649399"},"geometry":{"type":"Polygon","coordinates":[[[2.3706974,48.8614804],[2.370762,48.8613656],[2.3709564,48.8614155],[2.3708885,48.8615301],[2.3707953,48.8615059],[2.3706974,48.8614804]]]},"id":"way/63649399"},{"type":"Feature","properties":{"@id":"way/1190197106","footway":"sidewalk","highway":"footway","id":"way/1190197106"},"geometry":{"type":"LineString","coordinates":[[2.3699546,48.8613624],[2.3699496,48.8613692],[2.3689096,48.8610984],[2.3684797,48.8609815],[2.3679028,48.8608363],[2.3679057,48.8608312]]},"id":"way/1190197106"},{"type":"Feature","properties":{"@id":"way/1190407705","footway":"sidewalk","highway":"footway","id":"way/1190407705"},"geometry":{"type":"LineString","coordinates":[[2.3701477,48.8613478],[2.3720425,48.8618482],[2.3720394,48.8618545]]},"id":"way/1190407705"},{"type":"Feature","properties":{"@id":"way/1190407706","footway":"sidewalk","highway":"footway","surface":"asphalt","id":"way/1190407706"},"geometry":{"type":"LineString","coordinates":[[2.3701303,48.8613214],[2.3701477,48.8613478],[2.3701286,48.8613558]]},"id":"way/1190407706"},{"type":"Feature","properties":{"@id":"way/1190407707","footway":"sidewalk","highway":"footway","surface":"asphalt","id":"way/1190407707"},"geometry":{"type":"LineString","coordinates":[[2.370314,48.8610276],[2.3701303,48.8613214],[2.3701092,48.861317]]},"id":"way/1190407707"},{"type":"Feature","properties":{"@id":"way/1190764996","footway":"sidewalk","highway":"footway","lit":"yes","smoothness":"good","surface":"asphalt","id":"way/1190764996"},"geometry":{"type":"LineString","coordinates":[[2.3718429,48.8623069],[2.3717889,48.8622987],[2.3702379,48.8618885],[2.3700703,48.8618607]]},"id":"way/1190764996"},{"type":"Feature","properties":{"@id":"way/1190764999","footway":"sidewalk","highway":"footway","id":"way/1190764999"},"geometry":{"type":"LineString","coordinates":[[2.3701011,48.8614089],[2.3709554,48.8616304],[2.3720179,48.8619152],[2.3720282,48.8618879]]},"id":"way/1190764999"},{"type":"Feature","properties":{"@id":"way/1190765000","footway":"sidewalk","highway":"footway","surface":"asphalt","id":"way/1190765000"},"geometry":{"type":"LineString","coordinates":[[2.3699496,48.8613692],[2.3701011,48.8614089],[2.3701032,48.8614023]]},"id":"way/1190765000"},{"type":"Feature","properties":{"@id":"way/1190765001","footway":"sidewalk","highway":"footway","id":"way/1190765001"},"geometry":{"type":"LineString","coordinates":[[2.3699825,48.8613035],[2.3692093,48.8611019],[2.3689029,48.8610269]]},"id":"way/1190765001"},{"type":"Feature","properties":{"@id":"way/1190765002","footway":"sidewalk","highway":"footway","surface":"asphalt","id":"way/1190765002"},"geometry":{"type":"LineString","coordinates":[[2.3700502,48.8612969],[2.3699825,48.8613035],[2.3699794,48.8613174]]},"id":"way/1190765002"},{"type":"Feature","properties":{"@id":"way/1190765003","footway":"sidewalk","highway":"footway","surface":"asphalt","id":"way/1190765003"},"geometry":{"type":"LineString","coordinates":[[2.3701937,48.8610622],[2.3700502,48.8612969],[2.3700592,48.861305]]},"id":"way/1190765003"},{"type":"Feature","properties":{"@id":"way/1190765004","crossing":"uncontrolled","crossing:markings":"yes","footway":"crossing","highway":"footway","lit":"yes","surface":"asphalt","id":"way/1190765004"},"geometry":{"type":"LineString","coordinates":[[2.3699794,48.8613174],[2.3699686,48.8613384],[2.3699546,48.8613624]]},"id":"way/1190765004"},{"type":"Feature","properties":{"@id":"way/1190765005","crossing":"uncontrolled","crossing:markings":"yes","footway":"crossing","highway":"footway","lit":"yes","surface":"asphalt","id":"way/1190765005"},"geometry":{"type":"LineString","coordinates":[[2.3701286,48.8613558],[2.3701169,48.8613771],[2.3701032,48.8614023]]},"id":"way/1190765005"},{"type":"Feature","properties":{"@id":"way/1190765006","crossing":"uncontrolled","crossing:markings":"yes","footway":"crossing","highway":"footway","lit":"yes","surface":"asphalt","id":"way/1190765006"},"geometry":{"type":"LineString","coordinates":[[2.3700592,48.861305],[2.3700809,48.8613109],[2.3701092,48.861317]]},"id":"way/1190765006"},{"type":"Feature","properties":{"@id":"way/1191762229","footway":"sidewalk","highway":"footway","lit":"yes","smoothness":"good","surface":"asphalt","id":"way/1191762229"},"geometry":{"type":"LineString","coordinates":[[2.3718114,48.862358],[2.3707423,48.8620706],[2.3706637,48.8620495],[2.3702359,48.8619348],[2.3700783,48.8619057]]},"id":"way/1191762229"},{"type":"Feature","properties":{"@id":"way/1460858738","highway":"footway","id":"way/1460858738"},"geometry":{"type":"LineString","coordinates":[[2.369959,48.861769],[2.3693868,48.8616225],[2.3693609,48.8616195],[2.3691843,48.8615987],[2.3691352,48.8616148],[2.3691259,48.8616278]]},"id":"way/1460858738"},{"type":"Feature","properties":{"@id":"way/1460858741","highway":"footway","id":"way/1460858741"},"geometry":{"type":"LineString","coordinates":[[2.3707423,48.8620706],[2.3707368,48.8620799],[2.3706428,48.8622392]]},"id":"way/1460858741"},{"type":"Feature","properties":{"@id":"node/2460347252","amenity":"bar","brewery":"Augustiner","check_date":"2025-07-17","indoor_seating":"yes","name":"Rush Bar","opening_hours":"Mo-Fr 08:00-02:00, Sa 11:00-02:00, Su 11:00-24:00","outdoor_seating":"yes","toilets:wheelchair":"no","wheelchair":"limited","wheelchair:description":"Toilettes au sous-sol","id":"node/2460347252"},"geometry":{"type":"Point","coordinates":[2.3701752,48.8613268]},"id":"node/2460347252"},{"type":"Feature","properties":{"@id":"node/3194008582","amenity":"restaurant","check_date":"2024-04-24","cuisine":"thai","name":"Doï Southep","opening_hours":"Mo-Sa 11:30-15:30,18:00-23:00","phone":"+331 43 55 66 85","ref:FR:SIRET":"42240132300015","id":"node/3194008582"},"geometry":{"type":"Point","coordinates":[2.3704867,48.8614085]},"id":"node/3194008582"},{"type":"Feature","properties":{"@id":"node/3194013327","addr:housenumber":"33","addr:postcode":"75011","addr:street":"Rue Saint-Sébastien","amenity":"restaurant","contact:facebook":"deuxfoisplusdepiment","contact:instagram":"plus.de.piment","cuisine":"asian;chinese","email":"deuxfoisplusdepiment@yahoo.fr","indoor_seating":"yes","name":"Deux Fois Plus de Piment","opening_hours":"Tu-Su 12:00-14:00, 18:30-22:30","outdoor_seating":"no","phone":"+33 1 86 65 77 42","id":"node/3194013327"},"geometry":{"type":"Point","coordinates":[2.3706376,48.8615742]},"id":"node/3194013327"},{"type":"Feature","properties":{"@id":"node/3194078985","indoor_seating":"no","opening_hours":"Mo-Fr 8:00-20:00","outdoor_seating":"no","shop":"bakery","takeaway":"only","wheelchair":"limited","id":"node/3194078985"},"geometry":{"type":"Point","coordinates":[2.3704064,48.8615294]},"id":"node/3194078985"},{"type":"Feature","properties":{"@id":"node/3201567902","amenity":"bar","check_date":"2024-04-24","name":"Saint-Sébastien","id":"node/3201567902"},"geometry":{"type":"Point","coordinates":[2.3711379,48.8615601]},"id":"node/3201567902"},{"type":"Feature","properties":{"@id":"node/3201568145","amenity":"cafe","cuisine":"bubble_tea","diet:vegetarian":"yes","indoor_seating":"yes","name":"Sin From Heaven","outdoor_seating":"no","toilets:wheelchair":"no","wheelchair":"no","id":"node/3201568145"},"geometry":{"type":"Point","coordinates":[2.3705183,48.861552]},"id":"node/3201568145"},{"type":"Feature","properties":{"@id":"node/3657971337","addr:city":"Paris","addr:housenumber":"36","addr:postcode":"75011","addr:street":"Rue Saint-Sébastien","amenity":"cafe","cuisine":"brunch;teahouse","name":"Hélène et Madeleine","name:fr":"Hélène et Madeleine","opening_hours":"Mo-Fr 08:30-18:30, Sa-Su 10:00-18:00","phone":"+33 9 63 58 31 26","toilets":"yes","toilets:access":"customers","toilets:disposal":"flush","toilets:position":"seated","toilets:wheelchair":"yes","id":"node/3657971337"},"geometry":{"type":"Point","coordinates":[2.3706723,48.8614567]},"id":"node/3657971337"},{"type":"Feature","properties":{"@id":"node/5922714386","addr:housenumber":"32","addr:street":"Rue Saint-Sébastien","check_date":"2024-09-14","check_date:opening_hours":"2024-09-14","email":"betino@orange.fr","name":"Betino's Record Shop","opening_hours":"Mo-Sa 13:00-20:00","phone":"+33 1 43 14 61 34","ref:FR:SIRET":"41073000600039","shop":"music","website":"http://www.betinos.com/","wheelchair":"limited","id":"node/5922714386"},"geometry":{"type":"Point","coordinates":[2.3702364,48.8613443]},"id":"node/5922714386"},{"type":"Feature","properties":{"@id":"node/9301423717","shop":"massage","survey:date":"2021-12-01","id":"node/9301423717"},"geometry":{"type":"Point","coordinates":[2.3707062,48.8615908]},"id":"node/9301423717"},{"type":"Feature","properties":{"@id":"node/9797319691","amenity":"bar","check_date":"2025-07-17","indoor_seating":"yes","name":"Bambino","outdoor_seating":"no","ref:FR:SIRET":"85119781400029","wheelchair":"limited","id":"node/9797319691"},"geometry":{"type":"Point","coordinates":[2.3699258,48.8613856]},"id":"node/9797319691"},{"type":"Feature","properties":{"@id":"node/11608050675","addr:housenumber":"44","addr:street":"Rue Saint-Sébastien","amenity":"restaurant","contact:instagram":"https://www.instagram.com/Shuzo_Paris/","contact:website":"https://www.shuzo.fr/","cuisine":"tropical_izakaya;izakaya;colombian","name":"Shuzo Tropical Izakaya","opening_hours":"We-Th 18:30-23:00; Fr 18:30-23:30; Sa 12:00-16:00,18:30-23:30","outdoor_seating":"yes","payment:cash":"yes","payment:credit_cards":"yes","payment:debit_cards":"yes","phone":"+33 1 86 04 19 77","toilets":"customers","website":"https://www.shuzo.fr/","id":"node/11608050675"},"geometry":{"type":"Point","coordinates":[2.3712436,48.861609]},"id":"node/11608050675"}]}