{"type":"FeatureCollection","features":[{"type":"Feature","properties":{"@id":"way/57920119","building":"yes","building:levels":"5","source":"cadastre-dgi-fr source : Direction Générale des Impôts - Cadastre. Mise à jour : 2010","id":"way/57920119"},"geometry":{"type":"Polygon","coordinates":[[[2.3660945,48.8611582],[2.3661182,48.8612274],[2.3659809,48.8612423],[2.3659477,48.8612459],[2.3658201,48.8612597],[2.3658014,48.8612042],[2.3657995,48.8611984],[2.3659336,48.8611795],[2.3659457,48.8612239],[2.3659826,48.8612203],[2.3659697,48.8611753],[2.3660945,48.8611582]]]},"id":"way/57920119"},{"type":"Feature","properties":{"@id":"way/57920120","building":"yes","building:levels":"5","source":"cadastre-dgi-fr source : Direction Générale des Impôts - Cadastre. Mise à jour : 2010","id":"way/57920120"},"geometry":{"type":"Polygon","coordinates":[[[2.3662834,48.8611323],[2.3663085,48.8612074],[2.3662777,48.8612104],[2.3661966,48.8612191],[2.3661913,48.8611987],[2.3661731,48.8612006],[2.36618,48.8612212],[2.3661627,48.8612233],[2.3661182,48.8612274],[2.3660945,48.8611582],[2.366173,48.8611475],[2.3662834,48.8611323]]]},"id":"way/57920120"},{"type":"Feature","properties":{"@id":"way/57920124","building":"yes","source":"cadastre-dgi-fr source : Direction Générale des Impôts - Cadastre. Mise à jour : 2010","id":"way/57920124"},"geometry":{"type":"Polygon","coordinates":[[[2.3665622,48.8610934],[2.3665884,48.8611766],[2.3663085,48.8612074],[2.3662834,48.8611323],[2.3664058,48.8611152],[2.3665622,48.8610934]]]},"id":"way/57920124"},{"type":"Feature","properties":{"@id":"way/57920127","building":"yes","building:levels":"5","source":"cadastre-dgi-fr source : Direction Générale des Impôts - Cadastre. Mise à jour : 2010","id":"way/57920127"},"geometry":{"type":"Polygon","coordinates":[[[2.3669066,48.8610447],[2.3669062,48.8610576],[2.366915,48.8610745],[2.3669274,48.8610858],[2.3669446,48.8610961],[2.3669731,48.8611048],[2.3669689,48.8611195],[2.3669495,48.8611872],[2.3668597,48.8611774],[2.3668594,48.8611182],[2.3668402,48.8611157],[2.3668269,48.8610565],[2.3668567,48.8610521],[2.3669066,48.8610447]]]},"id":"way/57920127"},{"type":"Feature","properties":{"@id":"way/57932537","building":"yes","source":"cadastre-dgi-fr source : Direction Générale des Impôts - Cadastre. Mise à jour : 2010","id":"way/57932537"},"geometry":{"type":"Polygon","coordinates":[[[2.3657633,48.8611182],[2.3660762,48.8605804],[2.3662272,48.8606202],[2.3662072,48.8606713],[2.3661718,48.8607608],[2.3661035,48.860935],[2.3660602,48.8609233],[2.3660783,48.8608923],[2.3659772,48.8608664],[2.365923,48.8609608],[2.3660779,48.8609994],[2.3660442,48.8610793],[2.3659907,48.8610867],[2.365872,48.8611032],[2.3657633,48.8611182]]]},"id":"way/57932537"},{"type":"Feature","properties":{"@id":"way/57932540","building":"yes","source":"cadastre-dgi-fr source : Direction Générale des Impôts - Cadastre. Mise à jour : 2010","id":"way/57932540"},"geometry":{"type":"Polygon","coordinates":[[[2.3660442,48.8610793],[2.3660779,48.8609994],[2.3661035,48.860935],[2.3661718,48.8607608],[2.3662719,48.8607837],[2.3662182,48.8609216],[2.3661657,48.860913],[2.3661382,48.8609839],[2.3661786,48.8609788],[2.3661854,48.860963],[2.3661993,48.8609651],[2.3661588,48.8610634],[2.366114,48.8610696],[2.3660442,48.8610793]]]},"id":"way/57932540"},{"type":"Feature","properties":{"@id":"way/57932542","building":"yes","building:levels":"5","source":"cadastre-dgi-fr source : Direction Générale des Impôts - Cadastre. Mise à jour : 2010","id":"way/57932542"},"geometry":{"type":"Polygon","coordinates":[[[2.3664958,48.8610205],[2.3664547,48.8608924],[2.3664809,48.860888],[2.3664907,48.8609156],[2.3666031,48.8609008],[2.3665967,48.8608738],[2.3666262,48.8608714],[2.366659,48.8609979],[2.3665798,48.8610089],[2.3664958,48.8610205]]]},"id":"way/57932542"},{"type":"Feature","properties":{"@id":"way/57932544","building":"yes","building:levels":"7","source":"cadastre-dgi-fr source : Direction Générale des Impôts - Cadastre. Mise à jour : 2010","id":"way/57932544"},"geometry":{"type":"Polygon","coordinates":[[[2.3662573,48.8610487],[2.3663107,48.8609422],[2.3663276,48.8609155],[2.3664057,48.8609397],[2.3663574,48.8610348],[2.3663134,48.8610409],[2.3662573,48.8610487]]]},"id":"way/57932544"},{"type":"Feature","properties":{"@id":"way/57932547","building":"yes","source":"cadastre-dgi-fr source : Direction Générale des Impôts - Cadastre. Mise à jour : 2010","id":"way/57932547"},"geometry":{"type":"Polygon","coordinates":[[[2.3661588,48.8610634],[2.3661993,48.8609651],[2.3662068,48.8609489],[2.3662394,48.8609561],[2.3662437,48.8609466],[2.3662119,48.8609389],[2.3662182,48.8609216],[2.3662719,48.8607837],[2.3662791,48.8607661],[2.3663264,48.8606464],[2.3665372,48.8607027],[2.3665012,48.8607699],[2.3664554,48.8608511],[2.3663317,48.8608202],[2.3663259,48.8608325],[2.3663119,48.8608293],[2.3662683,48.8609335],[2.3663107,48.8609422],[2.3662573,48.8610487],[2.3662096,48.8610558],[2.3661588,48.8610634]]]},"id":"way/57932547"},{"type":"Feature","properties":{"@id":"way/57932553","building":"yes","source":"cadastre-dgi-fr source : Direction Générale des Impôts - Cadastre. Mise à jour : 2010","id":"way/57932553"},"geometry":{"type":"Polygon","coordinates":[[[2.3662654,48.8606295],[2.3662272,48.8606202],[2.3660762,48.8605804],[2.3657747,48.8604985],[2.3657678,48.8604639],[2.3657522,48.860386],[2.3657306,48.8602954],[2.3657194,48.8602194],[2.3658907,48.8602618],[2.3659507,48.8602779],[2.3661285,48.8603256],[2.3661041,48.8603698],[2.3660224,48.8603478],[2.3660174,48.8603573],[2.3659413,48.8603535],[2.3659463,48.8603409],[2.3658787,48.8603271],[2.3658762,48.8603494],[2.365842,48.8603479],[2.3658713,48.8604813],[2.3661663,48.8605414],[2.3661794,48.8605019],[2.3659579,48.8604618],[2.365936,48.8604434],[2.3659317,48.860383],[2.366011,48.8603824],[2.3661746,48.8604132],[2.3662171,48.8603496],[2.3663161,48.8603774],[2.3662731,48.8604454],[2.3663011,48.860453],[2.3663004,48.8604556],[2.3663252,48.8604592],[2.3662654,48.8606295]]]},"id":"way/57932553"},{"type":"Feature","properties":{"@id":"way/57932560","building":"yes","source":"cadastre-dgi-fr source : Direction Générale des Impôts - Cadastre. Mise à jour : 2010","id":"way/57932560"},"geometry":{"type":"Polygon","coordinates":[[[2.3663264,48.8606464],[2.3662791,48.8607661],[2.3662535,48.8607604],[2.3662733,48.860698],[2.3662794,48.8606908],[2.3662072,48.8606713],[2.3662272,48.8606202],[2.3662654,48.8606295],[2.3663264,48.8606464]]]},"id":"way/57932560"},{"type":"Feature","properties":{"@id":"way/57932567","building":"yes","building:levels":"6","source":"cadastre-dgi-fr source : Direction Générale des Impôts - Cadastre. Mise à jour : 2010","id":"way/57932567"},"geometry":{"type":"Polygon","coordinates":[[[2.3663574,48.8610348],[2.3664057,48.8609397],[2.3664315,48.860895],[2.3664547,48.8608924],[2.3664958,48.8610205],[2.3664378,48.8610284],[2.3663571,48.8610394],[2.3663574,48.8610348]]]},"id":"way/57932567"},{"type":"Feature","properties":{"@id":"way/57932569","building":"apartments","building:levels":"6","source":"cadastre-dgi-fr source : Direction Générale des Impôts - Cadastre. Mise à jour : 2010","wikidata":"Q22921376","id":"way/57932569"},"geometry":{"type":"Polygon","coordinates":[[[2.366659,48.8609979],[2.3666262,48.8608714],[2.3668481,48.8609101],[2.3668647,48.860878],[2.3667114,48.8608561],[2.3667186,48.8608382],[2.3665631,48.8608156],[2.366524,48.8608825],[2.3664809,48.860888],[2.3664547,48.8608924],[2.3664315,48.860895],[2.3664554,48.8608511],[2.3665012,48.8607699],[2.3666362,48.8607983],[2.367029,48.8608561],[2.3670208,48.8608922],[2.3670174,48.8609069],[2.366995,48.86091],[2.3669732,48.8609186],[2.366955,48.860929],[2.3669247,48.8609593],[2.3669143,48.860963],[2.3667691,48.8609829],[2.366659,48.8609979]]]},"id":"way/57932569"},{"type":"Feature","properties":{"@id":"way/4574326","cycleway:both":"no","highway":"residential","lit":"yes","maxspeed":"30","name":"Rue du Pont aux Choux","name:etymology:wikidata":"Q12280","oneway":"yes","oneway:bicycle":"no","sidewalk:both":"separate","source:maxspeed":"sign","surface":"asphalt","id":"way/4574326"},"geometry":{"type":"LineString","coordinates":[[2.3672613,48.8609603],[2.3670404,48.8609858],[2.3657377,48.8611664],[2.3646788,48.8613132],[2.3645939,48.8613261]]},"id":"way/4574326"},{"type":"Feature","properties":{"@id":"way/1190196821","crossing":"uncontrolled","crossing:markings":"yes","footway":"crossing","highway":"footway","lit":"yes","id":"way/1190196821"},"geometry":{"type":"LineString","coordinates":[[2.3670451,48.8609579],[2.3670404,48.8609858],[2.3670331,48.8610291]]},"id":"way/1190196821"},{"type":"Feature","properties":{"@id":"way/1190197029","footway":"sidewalk","highway":"footway","id":"way/1190197029"},"geometry":{"type":"LineString","coordinates":[[2.3671407,48.8605273],[2.3670459,48.8609511]]},"id":"way/1190197029"},{"type":"Feature","properties":{"@id":"way/1190197030","footway":"sidewalk","highway":"footway","smoothness":"excellent","surface":"concrete","id":"way/1190197030"},"geometry":{"type":"LineString","coordinates":[[2.3672771,48.8601281],[2.3671929,48.8602977],[2.3671407,48.8605273],[2.3671694,48.8605313],[2.3672395,48.8605397]]},"id":"way/1190197030"},{"type":"Feature","properties":{"@id":"way/1190197039","footway":"sidewalk","highway":"footway","id":"way/1190197039"},"geometry":{"type":"LineString","coordinates":[[2.3670451,48.8609579],[2.3670459,48.8609511],[2.3657908,48.8611253],[2.3646978,48.8612749],[2.3646747,48.8612781],[2.364675,48.8612846]]},"id":"way/1190197039"},{"type":"Feature","properties":{"@id":"way/1190197040","footway":"sidewalk","highway":"footway","id":"way/1190197040"},"geometry":{"type":"LineString","coordinates":[[2.3670032,48.8610897],[2.3669681,48.8612596],[2.3669546,48.8613381]]},"id":"way/1190197040"},{"type":"Feature","properties":{"@id":"way/1190197041","footway":"sidewalk","highway":"footway","id":"way/1190197041"},"geometry":{"type":"LineString","coordinates":[[2.367029,48.8610441],[2.3670032,48.8610897],[2.3670997,48.8610834]]},"id":"way/1190197041"},{"type":"Feature","properties":{"@id":"way/1190197042","footway":"sidewalk","highway":"footway","id":"way/1190197042"},"geometry":{"type":"LineString","coordinates":[[2.3646834,48.8613496],[2.3650908,48.8612907],[2.3651283,48.8612881],[2.3653053,48.8612625],[2.3653483,48.8612545],[2.366911,48.861039],[2.367029,48.8610441],[2.3670331,48.8610291]]},"id":"way/1190197042"},{"type":"Feature","properties":{"@id":"way/1192421230","crossing":"uncontrolled","crossing:island":"yes","crossing:markings":"yes","footway":"crossing","highway":"footway","lit":"yes","surface":"asphalt","id":"way/1192421230"},"geometry":{"type":"LineString","coordinates":[[2.3670997,48.8610834],[2.367233,48.861077],[2.3673418,48.8610877]]},"id":"way/1192421230"},{"type":"Feature","properties":{"@id":"way/1447828687","highway":"footway","layer":"-1","level":"-1","tunnel":"yes","id":"way/1447828687"},"geometry":{"type":"LineString","coordinates":[[2.367039,48.8612143],[2.3670471,48.8611754],[2.367218,48.861191],[2.3673463,48.8612026],[2.3673557,48.8611538]]},"id":"way/1447828687"},{"type":"Feature","properties":{"@id":"node/2367339643","addr:city":"Paris","addr:housenumber":"111","addr:postcode":"75003","addr:street":"Boulevard Beaumarchais","check_date":"2025-11-16","name":"Merci","opening_hours":"Mo-We 10:30-19:30; Th-Fr 10:30-20:00; Sa 10:00-20:00; Su 10:00-19:30","phone":"+331 42 77 00 33","shop":"clothes","website":"https://merci-merci.com/","id":"node/2367339643"},"geometry":{"type":"Point","coordinates":[2.3669292,48.8607708]},"id":"node/2367339643"},{"type":"Feature","properties":{"@id":"node/3072120302","addr:city":"Paris","addr:housenumber":"1","addr:postcode":"75003","addr:street":"Boulevard des Filles du Calvaire","amenity":"restaurant","check_date":"2024-06-30","cuisine":"burger","name":"Blend","opening_hours":"Mo-Su 12:00-23:00","phone":"+331 44 78 28 93","smoking":"no","website":"https://www.blendhamburger.com/","id":"node/3072120302"},"geometry":{"type":"Point","coordinates":[2.3669024,48.8612139]},"id":"node/3072120302"},{"type":"Feature","properties":{"@id":"node/3072123723","addr:city":"Paris","addr:housenumber":"113","addr:postcode":"75003","addr:street":"Boulevard Beaumarchais","disused:shop":"tobacco","shop":"vacant","id":"node/3072123723"},"geometry":{"type":"Point","coordinates":[2.3669788,48.8608774]},"id":"node/3072123723"},{"type":"Feature","properties":{"@id":"node/3212575999","addr:city":"Paris","addr:housenumber":"105","addr:postcode":"75003","addr:street":"Boulevard Beaumarchais","brand":"Sandro","brand:wikidata":"Q3472022","brand:wikipedia":"fr:Sandro (mode)","check_date":"2025-07-26","name":"Sandro","opening_hours":"Mo-Sa 10:30-19:30","shop":"clothes","wheelchair":"no","id":"node/3212575999"},"geometry":{"type":"Point","coordinates":[2.3670908,48.8604803]},"id":"node/3212575999"},{"type":"Feature","properties":{"@id":"node/3212668193","addr:city":"Paris","addr:housenumber":"109","addr:postcode":"75003","addr:street":"Boulevard Beaumarchais","check_date":"2025-03-29","name":"Le Monde Sauvage","opening_hours":"Tu-Fr 10:30-12:00,13:00-19:00; Sa 11:00-19:30","shop":"interior_decoration","id":"node/3212668193"},"geometry":{"type":"Point","coordinates":[2.3670757,48.8605428]},"id":"node/3212668193"},{"type":"Feature","properties":{"@id":"node/3227298697","addr:city":"Paris","addr:housenumber":"13","addr:postcode":"75003","addr:street":"Rue du Pont aux Choux","check_date":"2024-04-24","name":"Tartaix Métaux","phone":"+33 1 42 72 02 63","shop":"hardware","website":"https://www.tartaix.com/","id":"node/3227298697"},"geometry":{"type":"Point","coordinates":[2.3659145,48.8610737]},"id":"node/3227298697"},{"type":"Feature","properties":{"@id":"node/3377536376","addr:city":"Paris","addr:postcode":"75003","name":"Ami","shop":"clothes","id":"node/3377536376"},"geometry":{"type":"Point","coordinates":[2.3670438,48.8606656]},"id":"node/3377536376"},{"type":"Feature","properties":{"@id":"node/3382850327","addr:city":"Paris","addr:housenumber":"11","addr:postcode":"75003","addr:street":"Rue du Pont aux Choux","check_date":"2024-04-24","name":"Marine de Diesbach","shop":"jewelry","wheelchair":"no","id":"node/3382850327"},"geometry":{"type":"Point","coordinates":[2.3660835,48.8610583]},"id":"node/3382850327"},{"type":"Feature","properties":{"@id":"node/3382852047","addr:city":"Paris","addr:housenumber":"7","addr:postcode":"75003","addr:street":"Rue du Pont aux Choux","name":"Seven Boys & Girls","opening_hours":"Tu-Sa 11:00-19:00","phone":"+33 1 44 93 06 26","shop":"clothes","wheelchair":"no","id":"node/3382852047"},"geometry":{"type":"Point","coordinates":[2.366312,48.8610243]},"id":"node/3382852047"},{"type":"Feature","properties":{"@id":"node/3426977167","addr:city":"Paris","addr:country":"FR","addr:housenumber":"109","addr:postcode":"75003","addr:street":"Boulevard Beaumarchais","brand":"Jimmy Fairly","brand:wikidata":"Q104825419","name":"Jimmy Fairly","ref:FR:SIRET":"53042242700167","shop":"optician","id":"node/3426977167"},"geometry":{"type":"Point","coordinates":[2.3670627,48.8605955]},"id":"node/3426977167"},{"type":"Feature","properties":{"@id":"node/4813089001","addr:city":"Paris","addr:housenumber":"111","addr:postcode":"75003","addr:street":"Boulevard Beaumarchais","amenity":"restaurant","check_date":"2024-04-24","cuisine":"seasonal","name":"La Cantine de Merci","phone":"+33 1 42 77 00 33","website":"https://www.merci-merci.com/en/le-111-beaumarchais/la-cantine","id":"node/4813089001"},"geometry":{"type":"Point","coordinates":[2.3670125,48.8607787]},"id":"node/4813089001"},{"type":"Feature","properties":{"@id":"node/4813094602","addr:city":"Paris","addr:housenumber":"111","addr:postcode":"75003","addr:street":"Boulevard Beaumarchais","amenity":"cafe","name":"Le Ciné Café","name:fr":"Le Ciné Café","phone":"+33 1 42 77 00 33","website":"https://www.merci-merci.com/en/le-111-beaumarchais/le-cine-cafe","id":"node/4813094602"},"geometry":{"type":"Point","coordinates":[2.367033,48.8607225]},"id":"node/4813094602"},{"type":"Feature","properties":{"@id":"node/5178213522","addr:city":"Paris","addr:housenumber":"111","addr:postcode":"75003","addr:street":"Boulevard Beaumarchais","amenity":"cafe","cuisine":"teahouse","name":"Used Book Café","id":"node/5178213522"},"geometry":{"type":"Point","coordinates":[2.3670007,48.8608241]},"id":"node/5178213522"},{"type":"Feature","properties":{"@id":"node/5501839695","addr:city":"Paris","addr:housenumber":"103","addr:postcode":"75003","addr:street":"Boulevard Beaumarchais","name":"Prophot","opening_hours":"Mo-Fr 09:30-13:00,14:00-17:30","shop":"photo","website":"https://www.prophot.com/","wheelchair":"yes","id":"node/5501839695"},"geometry":{"type":"Point","coordinates":[2.3671081,48.8603712]},"id":"node/5501839695"},{"type":"Feature","properties":{"@id":"node/5501839700","check_date":"2024-08-10","contact:city":"Paris","contact:housenumber":"1","contact:phone":"+33 1 48 04 72 59","contact:postcode":"75003","contact:street":"Rue du Pont aux Choux","contact:website":"http://massato-paris.fr/","level":"0","name":"Massato Marais","official_name":"Massato Marais","opening_hours":"Tu-We 10:00-18:30; Th 11:00-19:00; Fr-Sa 10:00-18:30","shop":"hairdresser","unisex":"yes","wheelchair":"limited","id":"node/5501839700"},"geometry":{"type":"Point","coordinates":[2.366714,48.860973]},"id":"node/5501839700"},{"type":"Feature","properties":{"@id":"node/6473161731","addr:city":"Paris","addr:housenumber":"10","addr:postcode":"75003","addr:street":"Rue du Pont aux Choux","check_date":"2025-07-26","name":"Boutique Générale","shop":"interior_decoration","id":"node/6473161731"},"geometry":{"type":"Point","coordinates":[2.3663386,48.8611436]},"id":"node/6473161731"},{"type":"Feature","properties":{"@id":"node/7607958687","addr:city":"Paris","addr:housenumber":"109","addr:postcode":"75003","addr:street":"Boulevard Beaumarchais","name":"Erotokritos","shop":"clothes","id":"node/7607958687"},"geometry":{"type":"Point","coordinates":[2.366782,48.8604901]},"id":"node/7607958687"},{"type":"Feature","properties":{"@id":"node/8463717263","addr:postcode":"75003","check_date":"2025-07-26","contact:housenumber":"6","name":"Sessùn","opening_hours":"Mo-Sa 10:30-19:00; Su 11:00-19:00","ref:FR:SIRET":"42920428200140","shop":"clothes","id":"node/8463717263"},"geometry":{"type":"Point","coordinates":[2.3664654,48.8611242]},"id":"node/8463717263"},{"type":"Feature","properties":{"@id":"node/8463717264","addr:city":"Paris","addr:housenumber":"11","addr:postcode":"75003","addr:street":"Rue du Pont aux Choux","check_date":"2024-04-24","name":"Larfeuille","opening_hours":"Tu-Fr 11:00-18:30; Sa 13:00-19:00","shop":"fashion_accessories","website":"https://www.larfeuille.fr/","id":"node/8463717264"},"geometry":{"type":"Point","coordinates":[2.3661946,48.8610466]},"id":"node/8463717264"},{"type":"Feature","properties":{"@id":"node/8463717265","check_date":"2025-03-29","contact:housenumber":"3","contact:street":"Rue du Pont aux Choux","name":"côté & ciel","shop":"bag","id":"node/8463717265"},"geometry":{"type":"Point","coordinates":[2.3665333,48.8609986]},"id":"node/8463717265"},{"type":"Feature","properties":{"@id":"node/8463717266","addr:city":"Paris","addr:housenumber":"3","addr:postcode":"75003","addr:street":"Rue du Pont aux Choux","check_date":"2024-04-24","name":"Imprim Ad'Hoc","shop":"copyshop","id":"node/8463717266"},"geometry":{"type":"Point","coordinates":[2.3666137,48.860988]},"id":"node/8463717266"},{"type":"Feature","properties":{"@id":"node/8463717267","addr:city":"Paris","addr:housenumber":"4","addr:postcode":"75003","addr:street":"Rue du Pont aux Choux","check_date":"2024-04-24","clothes":"men","name":"Officine Générale","shop":"clothes","id":"node/8463717267"},"geometry":{"type":"Point","coordinates":[2.3667586,48.8610825]},"id":"node/8463717267"},{"type":"Feature","properties":{"@id":"node/8763382371","amenity":"waste_basket","waste":"trash","id":"node/8763382371"},"geometry":{"type":"Point","coordinates":[2.367116,48.8611271]},"id":"node/8763382371"},{"type":"Feature","properties":{"@id":"node/13027089096","check_date":"2025-07-26","name":"Items Paris 3e","ref:FR:SIRET":"97917774800014","shop":"clothes","id":"node/13027089096"},"geometry":{"type":"Point","coordinates":[2.3662136,48.8611562]},"id":"node/13027089096"},{"type":"Feature","properties":{"@id":"node/13398682011","amenity":"cafe","bar":"yes","name":"Thibaut","shop":"books","id":"node/13398682011"},"geometry":{"type":"Point","coordinates":[2.3661393,48.8610554]},"id":"node/13398682011"}]}