{"type":"FeatureCollection","features":[{"type":"Feature","properties":{"@id":"way/58150050","building":"yes","building:levels":"7","source":"cadastre-dgi-fr source : Direction Générale des Impôts - Cadastre. Mise à jour : 2010","id":"way/58150050"},"geometry":{"type":"Polygon","coordinates":[[[2.3654116,48.8580965],[2.365427,48.8581642],[2.3654425,48.8582326],[2.3653458,48.8582476],[2.3653288,48.8582068],[2.3653561,48.8582046],[2.3653473,48.8581616],[2.3653125,48.8581647],[2.3652869,48.8580967],[2.3653514,48.8580858],[2.3653766,48.8580815],[2.3654116,48.8580965]]]},"id":"way/58150050"},{"type":"Feature","properties":{"@id":"way/58154458","building":"apartments","source":"cadastre-dgi-fr source : Direction Générale des Impôts - Cadastre. Mise à jour : 2010","id":"way/58154458"},"geometry":{"type":"Polygon","coordinates":[[[2.3654732,48.8579728],[2.3654027,48.8577928],[2.3655745,48.8577623],[2.3655848,48.8577847],[2.3656493,48.8579434],[2.3655484,48.8579603],[2.3654732,48.8579728]]]},"id":"way/58154458"},{"type":"Feature","properties":{"@id":"way/58154467","building":"yes","building:levels":"5","source":"cadastre-dgi-fr source : Direction Générale des Impôts - Cadastre. Mise à jour : 2010","id":"way/58154467"},"geometry":{"type":"Polygon","coordinates":[[[2.3645767,48.8577678],[2.3646977,48.857748],[2.3647282,48.8578238],[2.3647277,48.8578262],[2.3645793,48.8578299],[2.364578,48.8577984],[2.3645767,48.8577678]]]},"id":"way/58154467"},{"type":"Feature","properties":{"@id":"way/58154477","building":"apartments","source":"cadastre-dgi-fr source : Direction Générale des Impôts - Cadastre. Mise à jour : 2010","id":"way/58154477"},"geometry":{"type":"Polygon","coordinates":[[[2.364572,48.8576927],[2.3647982,48.8576588],[2.3648259,48.8577287],[2.3648577,48.8578056],[2.3647282,48.8578238],[2.3646977,48.857748],[2.3645767,48.8577678],[2.3645746,48.8577334],[2.364572,48.8576927]]]},"id":"way/58154477"},{"type":"Feature","properties":{"@id":"way/58154482","building":"apartments","source":"cadastre-dgi-fr source : Direction Générale des Impôts - Cadastre. Mise à jour : 2010","id":"way/58154482"},"geometry":{"type":"Polygon","coordinates":[[[2.3651345,48.8580287],[2.3650303,48.8577702],[2.3650396,48.8577684],[2.3651365,48.8577519],[2.3651662,48.8578235],[2.3652065,48.8578175],[2.3652316,48.8578791],[2.3651942,48.8578854],[2.3651836,48.8578814],[2.3651621,48.8578257],[2.3651148,48.8578334],[2.3651261,48.8578645],[2.3651312,48.8578646],[2.365133,48.8578705],[2.3651368,48.8578705],[2.3651547,48.8579217],[2.3652425,48.8579054],[2.3652815,48.8580042],[2.3652035,48.8580172],[2.3651345,48.8580287]]]},"id":"way/58154482"},{"type":"Feature","properties":{"@id":"way/1217897952","area":"yes","footway":"sidewalk","highway":"footway","lit":"yes","noname":"yes","smoothness":"good","surface":"paving_stones","id":"way/1217897952"},"geometry":{"type":"Polygon","coordinates":[[[2.3645641,48.858192],[2.3653622,48.8580571],[2.3653912,48.8580557],[2.3654133,48.8580605],[2.3654318,48.8580693],[2.3654455,48.8580802],[2.3654529,48.8580927],[2.3654295,48.8580949],[2.3654116,48.8580965],[2.3653766,48.8580815],[2.3653514,48.8580858],[2.3652869,48.8580967],[2.3652811,48.8580837],[2.3652215,48.8580938],[2.3651924,48.8580987],[2.365011,48.8581294],[2.3648551,48.8581558],[2.3647559,48.8581727],[2.3646401,48.8581923],[2.3645936,48.8582002],[2.3645644,48.8581979],[2.3645641,48.858192]]]},"id":"way/1217897952"},{"type":"Feature","properties":{"@id":"way/4574385","cycleway:both":"no","highway":"residential","lit":"yes","maxspeed":"30","maxspeed:type":"sign","name":"Rue Saint-Gilles","name:etymology:wikidata":"Q1211272","oneway":"yes","service":"alley","sidewalk:both":"separate","smoothness":"good","surface":"asphalt","width":"6","id":"way/4574385"},"geometry":{"type":"LineString","coordinates":[[2.3680679,48.8575873],[2.3679076,48.8576142],[2.3674421,48.8576948],[2.3673626,48.8577084],[2.367274,48.8577221],[2.3668242,48.8577902],[2.366481,48.8578433],[2.3663946,48.8578554],[2.366305,48.8578701],[2.3655641,48.857993],[2.3654655,48.8580095],[2.3653503,48.8580286],[2.3645632,48.8581584],[2.364481,48.8581533]]},"id":"way/4574385"},{"type":"Feature","properties":{"@id":"way/83268806","highway":"tertiary","lanes":"2","lit":"yes","maxspeed":"30","maxspeed:type":"sign","name":"Rue de Turenne","name:etymology:wikidata":"Q303216","sidewalk:both":"separate","surface":"asphalt","wikidata":"Q3451107","wikipedia":"fr:Rue de Turenne (Paris)","id":"way/83268806"},"geometry":{"type":"LineString","coordinates":[[2.3646013,48.8614765],[2.3645972,48.8613878],[2.3645939,48.8613261],[2.3645915,48.8612542],[2.3645743,48.8607749],[2.364562,48.8603387],[2.3645557,48.8601353],[2.3645551,48.8600712],[2.3645504,48.8599648],[2.3645457,48.8598155],[2.3645436,48.8597467],[2.3645376,48.8595317],[2.364534,48.8594369],[2.3645061,48.8588074],[2.3645041,48.8587537],[2.3644837,48.8582234],[2.364481,48.8581533]]},"id":"way/83268806"},{"type":"Feature","properties":{"@id":"way/123487840","cycleway:both":"no","highway":"tertiary","lit":"yes","maxspeed":"30","maxspeed:type":"sign","name":"Rue de Turenne","name:etymology:wikidata":"Q303216","sidewalk:both":"separate","surface":"asphalt","id":"way/123487840"},"geometry":{"type":"LineString","coordinates":[[2.364481,48.8581533],[2.3644777,48.8580711],[2.3644465,48.8575218],[2.3644463,48.8574587],[2.3644266,48.8570926],[2.3644226,48.8570254],[2.3644113,48.856774],[2.364407,48.8566771],[2.3644055,48.8566333],[2.3643487,48.8565439],[2.3642877,48.8564644]]},"id":"way/123487840"},{"type":"Feature","properties":{"@id":"way/1190196732","crossing":"uncontrolled","crossing:markings":"yes","footway":"crossing","highway":"footway","lit":"yes","smoothness":"excellent","surface":"asphalt","id":"way/1190196732"},"geometry":{"type":"LineString","coordinates":[[2.3655719,48.8580193],[2.3655641,48.857993],[2.3655581,48.857973]]},"id":"way/1190196732"},{"type":"Feature","properties":{"@id":"way/1190196733","crossing":"uncontrolled","crossing:markings":"yes","footway":"crossing","highway":"footway","lit":"yes","smoothness":"good","surface":"asphalt","id":"way/1190196733"},"geometry":{"type":"LineString","coordinates":[[2.3654318,48.8580693],[2.3654736,48.8580613],[2.3655191,48.8580526]]},"id":"way/1190196733"},{"type":"Feature","properties":{"@id":"way/1190196734","crossing":"uncontrolled","crossing:markings":"yes","footway":"crossing","highway":"footway","lit":"yes","smoothness":"excellent","surface":"asphalt","id":"way/1190196734"},"geometry":{"type":"LineString","coordinates":[[2.3653432,48.8580118],[2.3653503,48.8580286],[2.3653622,48.8580571]]},"id":"way/1190196734"},{"type":"Feature","properties":{"@id":"way/1190196965","footway":"sidewalk","highway":"footway","lit":"yes","smoothness":"good","surface":"paving_stones","id":"way/1190196965"},"geometry":{"type":"LineString","coordinates":[[2.3645644,48.8581979],[2.365365,48.858063]]},"id":"way/1190196965"},{"type":"Feature","properties":{"@id":"way/1190196966","footway":"sidewalk","highway":"footway","lit":"yes","smoothness":"excellent","surface":"paving_stones","id":"way/1190196966"},"geometry":{"type":"LineString","coordinates":[[2.3645647,48.8582209],[2.3645644,48.8581979],[2.3645641,48.858192]]},"id":"way/1190196966"},{"type":"Feature","properties":{"@id":"way/1190196967","footway":"sidewalk","highway":"footway","surface":"paving_stones","id":"way/1190196967"},"geometry":{"type":"LineString","coordinates":[[2.3645839,48.8587518],[2.3645647,48.8582209],[2.3645282,48.8582227]]},"id":"way/1190196967"},{"type":"Feature","properties":{"@id":"way/1190196970","footway":"sidewalk","highway":"footway","smoothness":"excellent","surface":"asphalt","id":"way/1190196970"},"geometry":{"type":"LineString","coordinates":[[2.3654241,48.8580711],[2.3654295,48.8580949],[2.3655353,48.8585551],[2.3655903,48.8586486],[2.3655934,48.8587521],[2.3655722,48.858762],[2.3655716,48.858768]]},"id":"way/1190196970"},{"type":"Feature","properties":{"@id":"way/1190196971","footway":"sidewalk","highway":"footway","id":"way/1190196971"},"geometry":{"type":"LineString","coordinates":[[2.3653622,48.8580571],[2.365365,48.858063],[2.3654241,48.8580711],[2.3654318,48.8580693]]},"id":"way/1190196971"},{"type":"Feature","properties":{"@id":"way/1190196974","footway":"sidewalk","highway":"footway","smoothness":"good","surface":"paving_stones","id":"way/1190196974"},"geometry":{"type":"LineString","coordinates":[[2.3645607,48.8580687],[2.3645332,48.8575195],[2.3645007,48.8575208]]},"id":"way/1190196974"},{"type":"Feature","properties":{"@id":"way/1190196975","footway":"sidewalk","highway":"footway","lit":"yes","surface":"paving_stones","id":"way/1190196975"},"geometry":{"type":"LineString","coordinates":[[2.3645623,48.8581326],[2.3645607,48.8580687],[2.3645242,48.8580694]]},"id":"way/1190196975"},{"type":"Feature","properties":{"@id":"way/1190196976","footway":"sidewalk","highway":"footway","lit":"yes","smoothness":"good","surface":"paving_stones","id":"way/1190196976"},"geometry":{"type":"LineString","coordinates":[[2.3653402,48.8580041],[2.3645623,48.8581326],[2.3645627,48.8581373]]},"id":"way/1190196976"},{"type":"Feature","properties":{"@id":"way/1190196977","footway":"sidewalk","highway":"footway","surface":"paving_stones","id":"way/1190196977"},"geometry":{"type":"LineString","coordinates":[[2.3655555,48.8579663],[2.3653402,48.8580041],[2.3653432,48.8580118]]},"id":"way/1190196977"},{"type":"Feature","properties":{"@id":"way/1190196978","footway":"sidewalk","highway":"footway","lit":"yes","smoothness":"good","surface":"paving_stones","id":"way/1190196978"},"geometry":{"type":"LineString","coordinates":[[2.366293,48.8578437],[2.3655555,48.8579663],[2.3655581,48.857973]]},"id":"way/1190196978"},{"type":"Feature","properties":{"@id":"way/1190197012","footway":"sidewalk","highway":"footway","lit":"yes","smoothness":"good","surface":"paving_stones","id":"way/1190197012"},"geometry":{"type":"LineString","coordinates":[[2.3655736,48.8580276],[2.3663212,48.8579044],[2.3663174,48.8578972]]},"id":"way/1190197012"},{"type":"Feature","properties":{"@id":"way/1190197013","footway":"sidewalk","highway":"footway","surface":"paving_stones","id":"way/1190197013"},"geometry":{"type":"LineString","coordinates":[[2.3655276,48.8580513],[2.3655736,48.8580276],[2.3655719,48.8580193]]},"id":"way/1190197013"},{"type":"Feature","properties":{"@id":"way/1190197014","footway":"sidewalk","highway":"footway","smoothness":"excellent","surface":"asphalt","id":"way/1190197014"},"geometry":{"type":"LineString","coordinates":[[2.3655806,48.8588174],[2.3656264,48.8588176],[2.3656782,48.8588154],[2.3656641,48.8586365],[2.3656118,48.8584256],[2.3655327,48.8580737],[2.3655276,48.8580513],[2.3655191,48.8580526]]},"id":"way/1190197014"},{"type":"Feature","properties":{"@id":"way/1192421239","crossing":"traffic_signals","footway":"crossing","highway":"footway","lit":"yes","surface":"asphalt","traffic_signals:sound":"yes","id":"way/1192421239"},"geometry":{"type":"LineString","coordinates":[[2.3644219,48.8582243],[2.3644837,48.8582234],[2.3645282,48.8582227]]},"id":"way/1192421239"},{"type":"Feature","properties":{"@id":"way/1192421240","crossing":"traffic_signals","footway":"crossing","highway":"footway","lit":"yes","smoothness":"good","surface":"asphalt","traffic_signals:sound":"yes","id":"way/1192421240"},"geometry":{"type":"LineString","coordinates":[[2.3645627,48.8581373],[2.3645632,48.8581584],[2.3645641,48.858192]]},"id":"way/1192421240"},{"type":"Feature","properties":{"@id":"way/1192421241","crossing":"traffic_signals","footway":"crossing","highway":"footway","lit":"yes","surface":"asphalt","traffic_signals:sound":"yes","id":"way/1192421241"},"geometry":{"type":"LineString","coordinates":[[2.3644112,48.858072],[2.3644777,48.8580711],[2.3645242,48.8580694]]},"id":"way/1192421241"},{"type":"Feature","properties":{"@id":"way/1214328611","cycleway:left":"lane","cycleway:left:oneway":"-1","highway":"residential","lit":"yes","maxspeed":"30","motor_vehicle:conditional":"no @ (00:01-24:00)","name":"Rue Michel Blanc","name:etymology:wikidata":"Q1398256","old_name":"Rue du Parc Royal","oneway":"yes","oneway:bicycle":"no","sidewalk:both":"separate","sidewalk:both:surface":"paving_stones","smoothness":"excellent","surface":"asphalt","id":"way/1214328611"},"geometry":{"type":"LineString","coordinates":[[2.364481,48.8581533],[2.3643851,48.8581473],[2.3638891,48.8583102],[2.3638327,48.8583304]]},"id":"way/1214328611"},{"type":"Feature","properties":{"@id":"node/26401084","highway":"traffic_signals","id":"node/26401084"},"geometry":{"type":"Point","coordinates":[2.364481,48.8581533]},"id":"node/26401084"},{"type":"Feature","properties":{"@id":"node/721444384","highway":"street_lamp","id":"node/721444384"},"geometry":{"type":"Point","coordinates":[2.3645975,48.8583604]},"id":"node/721444384"},{"type":"Feature","properties":{"@id":"node/721502828","highway":"street_lamp","id":"node/721502828"},"geometry":{"type":"Point","coordinates":[2.3645767,48.8577678]},"id":"node/721502828"},{"type":"Feature","properties":{"@id":"node/2392876065","amenity":"restaurant","cuisine":"thai","indoor_seating":"yes","name":"Mai Thai","opening_hours":"Tu-Sa 12:00-15:00, 19:00-23:00; Su 12:00-15:00","outdoor_seating":"yes","phone":"+33142721877","smoking":"outside","website":"http://maithai.fr/","id":"node/2392876065"},"geometry":{"type":"Point","coordinates":[2.3653667,48.8581066]},"id":"node/2392876065"},{"type":"Feature","properties":{"@id":"node/3210971840","name":"Massoin","shop":"massage","website":"https://qr1.be/02MK","id":"node/3210971840"},"geometry":{"type":"Point","coordinates":[2.3652997,48.8579739]},"id":"node/3210971840"},{"type":"Feature","properties":{"@id":"node/3210978164","alt_website":"http://www.tripadvisor.com/Restaurant_Review-g187147-d5966374-Reviews-Koh_Samet-Paris_Ile_de_France.html","amenity":"restaurant","cuisine":"thai","indoor_seating":"yes","name":"Koh Samet","outdoor_seating":"no","phone":"+33 1 57 40 95 80","smoking":"no","website":"http://koh-samet-restaurant.com/","id":"node/3210978164"},"geometry":{"type":"Point","coordinates":[2.3652295,48.8579832]},"id":"node/3210978164"},{"type":"Feature","properties":{"@id":"node/3211062771","brand":"G20","brand:wikidata":"Q3504731","brand:wikipedia":"fr:Supermarchés G20","check_date":"2025-10-18","name":"G20","opening_hours":"Mo-Sa 08:00-21:30; Su 09:00-21:30","operator":"G20","shop":"supermarket","wheelchair":"yes","id":"node/3211062771"},"geometry":{"type":"Point","coordinates":[2.3656474,48.8580866]},"id":"node/3211062771"},{"type":"Feature","properties":{"@id":"node/3612388599","amenity":"restaurant","cuisine":"sushi","name":"All in Sushi","wheelchair":"no","id":"node/3612388599"},"geometry":{"type":"Point","coordinates":[2.3645851,48.8576761]},"id":"node/3612388599"},{"type":"Feature","properties":{"@id":"node/3612390958","name":"Philippe Olivier","shop":"florist","id":"node/3612390958"},"geometry":{"type":"Point","coordinates":[2.3645881,48.8577082]},"id":"node/3612390958"},{"type":"Feature","properties":{"@id":"node/6437112105","amenity":"bicycle_rental","bicycle_rental":"docking_station","brand":"Vélib' Métropole","brand:wikidata":"Q1120762","brand:wikipedia":"fr:Vélib' Métropole","capacity":"18","name":"Saint-Gilles - Turenne","network":"Vélib' Métropole","network:wikidata":"Q1120762","network:wikipedia":"fr:Vélib' Métropole","operator":"Smovengo","operator:type":"private","operator:wikidata":"Q47008427","operator:wikipedia":"fr:Smovengo","ref":"3002","source":"Autolib Velib Métropole - 04/2020","survey:date":"2019-04-30","unsigned_ref":"54000537","wikidata":"Q86255170","id":"node/6437112105"},"geometry":{"type":"Point","coordinates":[2.3647129,48.85816]},"id":"node/6437112105"},{"type":"Feature","properties":{"@id":"node/10314657346","natural":"tree","id":"node/10314657346"},"geometry":{"type":"Point","coordinates":[2.3652812,48.8585302]},"id":"node/10314657346"},{"type":"Feature","properties":{"@id":"node/10314657347","natural":"tree","id":"node/10314657347"},"geometry":{"type":"Point","coordinates":[2.3652131,48.8585308]},"id":"node/10314657347"},{"type":"Feature","properties":{"@id":"node/10314657348","natural":"tree","id":"node/10314657348"},"geometry":{"type":"Point","coordinates":[2.3651413,48.85852]},"id":"node/10314657348"},{"type":"Feature","properties":{"@id":"node/10314657349","natural":"tree","id":"node/10314657349"},"geometry":{"type":"Point","coordinates":[2.3652056,48.8584885]},"id":"node/10314657349"},{"type":"Feature","properties":{"@id":"node/10314657350","natural":"tree","id":"node/10314657350"},"geometry":{"type":"Point","coordinates":[2.3652754,48.8584894]},"id":"node/10314657350"},{"type":"Feature","properties":{"@id":"node/10314657351","natural":"tree","id":"node/10314657351"},"geometry":{"type":"Point","coordinates":[2.3651313,48.8584252]},"id":"node/10314657351"},{"type":"Feature","properties":{"@id":"node/10314657352","natural":"tree","id":"node/10314657352"},"geometry":{"type":"Point","coordinates":[2.365165,48.858356]},"id":"node/10314657352"},{"type":"Feature","properties":{"@id":"node/10314657353","natural":"tree","id":"node/10314657353"},"geometry":{"type":"Point","coordinates":[2.3652654,48.8583474]},"id":"node/10314657353"},{"type":"Feature","properties":{"@id":"node/10795405018","amenity":"waste_basket","id":"node/10795405018"},"geometry":{"type":"Point","coordinates":[2.3655378,48.8580369]},"id":"node/10795405018"},{"type":"Feature","properties":{"@id":"node/10795405020","amenity":"waste_basket","id":"node/10795405020"},"geometry":{"type":"Point","coordinates":[2.3654798,48.8582581]},"id":"node/10795405020"},{"type":"Feature","properties":{"@id":"node/10795410508","amenity":"waste_basket","id":"node/10795410508"},"geometry":{"type":"Point","coordinates":[2.364535,48.858113]},"id":"node/10795410508"},{"type":"Feature","properties":{"@id":"node/10795410509","amenity":"waste_basket","id":"node/10795410509"},"geometry":{"type":"Point","coordinates":[2.3645364,48.8582472]},"id":"node/10795410509"},{"type":"Feature","properties":{"@id":"node/11285010258","highway":"street_lamp","id":"node/11285010258"},"geometry":{"type":"Point","coordinates":[2.3646401,48.8581923]},"id":"node/11285010258"},{"type":"Feature","properties":{"@id":"node/13202075397","highway":"street_lamp","id":"node/13202075397"},"geometry":{"type":"Point","coordinates":[2.36459,48.858115]},"id":"node/13202075397"},{"type":"Feature","properties":{"@id":"node/13202075399","highway":"street_lamp","id":"node/13202075399"},"geometry":{"type":"Point","coordinates":[2.364602,48.8584779]},"id":"node/13202075399"}]}