{"type":"FeatureCollection","features":[{"type":"Feature","properties":{"@id":"way/63639483","building":"yes","source":"cadastre-dgi-fr source : Direction Générale des Impôts - Cadastre. Mise à jour : 2010","id":"way/63639483"},"geometry":{"type":"Polygon","coordinates":[[[2.3864846,48.8577236],[2.3864979,48.8577272],[2.3864915,48.8577379],[2.3864779,48.8577343],[2.3864846,48.8577236]]]},"id":"way/63639483"},{"type":"Feature","properties":{"@id":"way/63640504","building":"yes","building:levels":"1","source":"cadastre-dgi-fr source : Direction Générale des Impôts - Cadastre. Mise à jour : 2010","id":"way/63640504"},"geometry":{"type":"Polygon","coordinates":[[[2.3863123,48.857824],[2.3863605,48.8578371],[2.3863258,48.857894],[2.3862759,48.8578809],[2.3863123,48.857824]]]},"id":"way/63640504"},{"type":"Feature","properties":{"@id":"way/63641102","building":"yes","building:levels":"7","source":"cadastre-dgi-fr source : Direction Générale des Impôts - Cadastre. Mise à jour : 2010","id":"way/63641102"},"geometry":{"type":"Polygon","coordinates":[[[2.3864039,48.857915],[2.3865183,48.8577328],[2.3866427,48.8577658],[2.3865806,48.8578682],[2.3865316,48.8579489],[2.3864039,48.857915]]]},"id":"way/63641102"},{"type":"Feature","properties":{"@id":"way/1217619296","area":"yes","footway":"sidewalk","highway":"footway","lit":"yes","smoothness":"good","surface":"asphalt","id":"way/1217619296"},"geometry":{"type":"Polygon","coordinates":[[[2.3877337,48.8580224],[2.3877061,48.8580307],[2.3876946,48.8580555],[2.3876679,48.8580508],[2.3876569,48.858044],[2.3876495,48.8580338],[2.3876492,48.8580237],[2.3876522,48.8580122],[2.3876587,48.8579982],[2.3878059,48.8577347],[2.3878072,48.8577305],[2.3878062,48.8577267],[2.3878039,48.8577237],[2.3878004,48.8577212],[2.3877937,48.857719],[2.3870515,48.8575304],[2.3870356,48.8575205],[2.3870289,48.8575098],[2.3870271,48.8575037],[2.3870252,48.8574976],[2.3870279,48.8574841],[2.387048,48.8574473],[2.3870603,48.8574502],[2.3870712,48.8574534],[2.3870977,48.8574972],[2.38736,48.857564],[2.3876258,48.8576318],[2.3876711,48.8576639],[2.3878086,48.8576985],[2.3878562,48.8577105],[2.3878395,48.8577401],[2.387808,48.857796],[2.3877798,48.8578461],[2.3877476,48.8579032],[2.3877153,48.8579602],[2.3877034,48.8579813],[2.3877337,48.8580224]]]},"id":"way/1217619296"},{"type":"Feature","properties":{"@id":"way/8059155","highway":"residential","lit":"yes","maxspeed":"30","name":"Rue Maillard","oneway":"yes","oneway:bicycle":"no","sidewalk:both":"separate","smoothness":"good","surface":"asphalt","zone:maxspeed":"FR:30","id":"way/8059155"},"geometry":{"type":"LineString","coordinates":[[2.3851697,48.8578799],[2.3852629,48.8579182],[2.3857303,48.8580398],[2.3858111,48.8580596],[2.3859068,48.8580854],[2.386369,48.8582064],[2.3864505,48.8582283]]},"id":"way/8059155"},{"type":"Feature","properties":{"@id":"way/15091841","alt_name":"Rue de la Folie-Régnault","cycleway:both":"no","highway":"residential","lit":"yes","maxspeed":"30","name":"Rue de la Folie Regnault","name:etymology":"un lieu-dit","oneway":"yes","oneway:bicycle":"no","sidewalk:both":"separate","smoothness":"good","surface":"asphalt","zone:maxspeed":"FR:30","id":"way/15091841"},"geometry":{"type":"LineString","coordinates":[[2.3851432,48.8570794],[2.3852408,48.8571037],[2.3855942,48.8571969],[2.3857394,48.8572327],[2.3861127,48.8573267],[2.386249,48.8573608],[2.3867934,48.8575006],[2.3868796,48.8575237],[2.3869626,48.8575452],[2.3870317,48.8575629],[2.3876544,48.8577239],[2.3876958,48.8577707]]},"id":"way/15091841"},{"type":"Feature","properties":{"@id":"way/15091843","cycleway:both":"no","highway":"residential","lit":"yes","maxspeed":"30","name":"Rue Gerbier","name:etymology:wikidata":"Q22342494","oneway":"yes","oneway:bicycle":"no","sidewalk:both":"separate","smoothness":"good","surface":"asphalt","zone:maxspeed":"FR:30","id":"way/15091843"},"geometry":{"type":"LineString","coordinates":[[2.3859172,48.8591194],[2.3859568,48.8590536],[2.3861944,48.8586563],[2.3864146,48.8582883],[2.3864505,48.8582283],[2.3864844,48.8581727],[2.3868457,48.8575794],[2.3868796,48.8575237]]},"id":"way/15091843"},{"type":"Feature","properties":{"@id":"way/15091856","alt_name":"Rue de Montlouis","cycleway:both":"no","highway":"residential","lit":"yes","maxspeed":"30","name":"Rue de Mont-Louis","old_name":"Rue Mont-Louis","oneway":"yes","oneway:bicycle":"no","sidewalk":"separate","surface":"sett","zone:maxspeed":"FR:30","id":"way/15091856"},"geometry":{"type":"LineString","coordinates":[[2.3894203,48.8584296],[2.3893638,48.8584071],[2.3893067,48.8583919],[2.3886683,48.8582595],[2.3881764,48.8581642],[2.3881379,48.8581566],[2.3876887,48.8580668],[2.387583,48.8580449]]},"id":"way/15091856"},{"type":"Feature","properties":{"@id":"way/37576625","alt_name":"Rue de la Folie-Régnault","cycleway:both":"no","highway":"residential","lit":"yes","maxspeed":"30","name":"Rue de la Folie Regnault","name:etymology":"un lieu-dit","oneway":"yes","oneway:bicycle":"no","sidewalk:both":"separate","surface":"asphalt","zone:maxspeed":"FR:30","id":"way/37576625"},"geometry":{"type":"LineString","coordinates":[[2.3876958,48.8577707],[2.3876884,48.8578184],[2.3876093,48.857988],[2.387583,48.8580449],[2.3873694,48.8584043],[2.3873376,48.8584616],[2.3870957,48.8588895],[2.3868858,48.8592638],[2.3868459,48.85935]]},"id":"way/37576625"},{"type":"Feature","properties":{"@id":"way/62120167","cycleway:both":"no","highway":"residential","lit":"yes","maxspeed":"30","name":"Rue Félix Voisin","name:etymology:wikidata":"Q5511655","oneway":"yes","oneway:bicycle":"no","sidewalk:both":"separate","surface":"asphalt","zone:maxspeed":"FR:30","id":"way/62120167"},"geometry":{"type":"LineString","coordinates":[[2.3864505,48.8582283],[2.3865387,48.8582512],[2.3872618,48.8584417],[2.3873376,48.8584616]]},"id":"way/62120167"},{"type":"Feature","properties":{"@id":"way/1190349119","footway":"sidewalk","highway":"footway","surface":"asphalt","id":"way/1190349119"},"geometry":{"type":"LineString","coordinates":[[2.3876743,48.8580018],[2.3876587,48.8579982]]},"id":"way/1190349119"},{"type":"Feature","properties":{"@id":"way/1190358237","footway":"sidewalk","highway":"footway","lit":"yes","surface":"asphalt","id":"way/1190358237"},"geometry":{"type":"LineString","coordinates":[[2.3874416,48.8584205],[2.3876096,48.858121],[2.3876743,48.8580952],[2.3876792,48.858085]]},"id":"way/1190358237"},{"type":"Feature","properties":{"@id":"way/1190358238","footway":"sidewalk","highway":"footway","lit":"yes","smoothness":"good","surface":"asphalt","id":"way/1190358238"},"geometry":{"type":"LineString","coordinates":[[2.3869588,48.8592803],[2.3869769,48.859251],[2.3874416,48.8584205],[2.3874239,48.858417]]},"id":"way/1190358238"},{"type":"Feature","properties":{"@id":"way/1190358241","footway":"sidewalk","highway":"footway","surface":"asphalt","id":"way/1190358241"},"geometry":{"type":"LineString","coordinates":[[2.3872378,48.8584829],[2.3872321,48.8585253],[2.3870571,48.8588378]]},"id":"way/1190358241"},{"type":"Feature","properties":{"@id":"way/1190358242","footway":"sidewalk","highway":"footway","surface":"asphalt","id":"way/1190358242"},"geometry":{"type":"LineString","coordinates":[[2.3865116,48.8582992],[2.3865551,48.858301],[2.3872378,48.8584829],[2.3872445,48.8584713]]},"id":"way/1190358242"},{"type":"Feature","properties":{"@id":"way/1190358243","footway":"sidewalk","highway":"footway","surface":"asphalt","id":"way/1190358243"},"geometry":{"type":"LineString","coordinates":[[2.3864847,48.8583098],[2.3865116,48.8582992],[2.3865216,48.8582802]]},"id":"way/1190358243"},{"type":"Feature","properties":{"@id":"way/1190358244","footway":"sidewalk","highway":"footway","surface":"asphalt","id":"way/1190358244"},"geometry":{"type":"LineString","coordinates":[[2.3862923,48.8586402],[2.386303,48.858616],[2.3864847,48.8583098],[2.38647,48.8583045]]},"id":"way/1190358244"},{"type":"Feature","properties":{"@id":"way/1190832379","crossing":"uncontrolled","crossing:markings":"yes","footway":"crossing","highway":"footway","lit":"yes","surface":"asphalt","id":"way/1190832379"},"geometry":{"type":"LineString","coordinates":[[2.3865216,48.8582802],[2.3865387,48.8582512],[2.3865572,48.8582198]]},"id":"way/1190832379"},{"type":"Feature","properties":{"@id":"way/1190832380","crossing":"uncontrolled","crossing:markings":"yes","footway":"crossing","highway":"footway","lit":"yes","surface":"asphalt","id":"way/1190832380"},"geometry":{"type":"LineString","coordinates":[[2.3863687,48.8582749],[2.3864146,48.8582883],[2.38647,48.8583045]]},"id":"way/1190832380"},{"type":"Feature","properties":{"@id":"way/1190832381","crossing":"uncontrolled","crossing:markings":"yes","footway":"crossing","highway":"footway","lit":"yes","surface":"asphalt","id":"way/1190832381"},"geometry":{"type":"LineString","coordinates":[[2.3864378,48.8581602],[2.3864844,48.8581727],[2.3865384,48.8581871]]},"id":"way/1190832381"},{"type":"Feature","properties":{"@id":"way/1190832382","crossing":"uncontrolled","crossing:markings":"yes","footway":"crossing","highway":"footway","lit":"yes","surface":"asphalt","id":"way/1190832382"},"geometry":{"type":"LineString","coordinates":[[2.3863868,48.8581739],[2.386369,48.8582064],[2.3863513,48.8582388]]},"id":"way/1190832382"},{"type":"Feature","properties":{"@id":"way/1190832455","footway":"sidewalk","highway":"footway","surface":"asphalt","id":"way/1190832455"},"geometry":{"type":"LineString","coordinates":[[2.3864231,48.8581496],[2.3864277,48.8581373],[2.3867848,48.857564],[2.3867929,48.8575662]]},"id":"way/1190832455"},{"type":"Feature","properties":{"@id":"way/1190832456","footway":"sidewalk","highway":"footway","surface":"asphalt","id":"way/1190832456"},"geometry":{"type":"LineString","coordinates":[[2.3863875,48.8581624],[2.3864231,48.8581496],[2.3864378,48.8581602]]},"id":"way/1190832456"},{"type":"Feature","properties":{"@id":"way/1190832457","footway":"sidewalk","highway":"footway","surface":"asphalt","id":"way/1190832457"},"geometry":{"type":"LineString","coordinates":[[2.3859349,48.8580442],[2.3863875,48.8581624],[2.3863868,48.8581739]]},"id":"way/1190832457"},{"type":"Feature","properties":{"@id":"way/1190832463","footway":"sidewalk","highway":"footway","smoothness":"good","surface":"asphalt","id":"way/1190832463"},"geometry":{"type":"LineString","coordinates":[[2.3863493,48.8582741],[2.38589,48.8590367],[2.3858958,48.8590381]]},"id":"way/1190832463"},{"type":"Feature","properties":{"@id":"way/1190832464","footway":"sidewalk","highway":"footway","surface":"asphalt","id":"way/1190832464"},"geometry":{"type":"LineString","coordinates":[[2.3863379,48.8582454],[2.3863493,48.8582741],[2.3863687,48.8582749]]},"id":"way/1190832464"},{"type":"Feature","properties":{"@id":"way/1190832465","footway":"sidewalk","highway":"footway","surface":"asphalt","id":"way/1190832465"},"geometry":{"type":"LineString","coordinates":[[2.3858866,48.8581157],[2.3858859,48.8581232],[2.3863379,48.8582454],[2.3863513,48.8582388]]},"id":"way/1190832465"},{"type":"Feature","properties":{"@id":"way/1191861745","crossing":"uncontrolled","crossing:markings":"zebra","crossing:signals":"no","footway":"crossing","highway":"footway","lit":"yes","surface":"asphalt","id":"way/1191861745"},"geometry":{"type":"LineString","coordinates":[[2.3874239,48.858417],[2.3873694,48.8584043],[2.3873236,48.8583936]]},"id":"way/1191861745"},{"type":"Feature","properties":{"@id":"way/1191861746","crossing":"uncontrolled","crossing:markings":"zebra","crossing:signals":"no","footway":"crossing","highway":"footway","lit":"yes","surface":"asphalt","id":"way/1191861746"},"geometry":{"type":"LineString","coordinates":[[2.3872445,48.8584713],[2.3872618,48.8584417],[2.3872797,48.8584113]]},"id":"way/1191861746"},{"type":"Feature","properties":{"@id":"way/1191861747","footway":"sidewalk","highway":"footway","surface":"asphalt","id":"way/1191861747"},"geometry":{"type":"LineString","coordinates":[[2.3872797,48.8584113],[2.387286,48.8584006],[2.3873079,48.8583897],[2.3873236,48.8583936]]},"id":"way/1191861747"},{"type":"Feature","properties":{"@id":"way/1191861748","footway":"sidewalk","highway":"footway","surface":"asphalt","id":"way/1191861748"},"geometry":{"type":"LineString","coordinates":[[2.387286,48.8584006],[2.3865684,48.8582105],[2.3865572,48.8582198]]},"id":"way/1191861748"},{"type":"Feature","properties":{"@id":"way/1191861749","footway":"sidewalk","highway":"footway","surface":"asphalt","id":"way/1191861749"},"geometry":{"type":"LineString","coordinates":[[2.3865684,48.8582105],[2.3865621,48.8581846],[2.3865384,48.8581871]]},"id":"way/1191861749"},{"type":"Feature","properties":{"@id":"way/1191861750","footway":"sidewalk","highway":"footway","surface":"asphalt","id":"way/1191861750"},"geometry":{"type":"LineString","coordinates":[[2.3865621,48.8581846],[2.3865747,48.8581615],[2.3869176,48.8575976],[2.3869052,48.8575943]]},"id":"way/1191861750"},{"type":"Feature","properties":{"@id":"way/1191861755","footway":"sidewalk","highway":"footway","lit":"yes","smoothness":"good","surface":"asphalt","id":"way/1191861755"},"geometry":{"type":"LineString","coordinates":[[2.3870055,48.8576048],[2.387595,48.8577552],[2.3876324,48.8578111],[2.3875398,48.8579728],[2.3875556,48.8579769]]},"id":"way/1191861755"},{"type":"Feature","properties":{"@id":"way/1191861756","crossing":"uncontrolled","crossing:markings":"zebra","crossing:signals":"no","footway":"crossing","highway":"footway","lit":"yes","surface":"asphalt","id":"way/1191861756"},"geometry":{"type":"LineString","coordinates":[[2.3875556,48.8579769],[2.3876093,48.857988],[2.3876587,48.8579982]]},"id":"way/1191861756"},{"type":"Feature","properties":{"@id":"way/1191861758","footway":"sidewalk","highway":"footway","surface":"asphalt","id":"way/1191861758"},"geometry":{"type":"LineString","coordinates":[[2.3875398,48.8579728],[2.3873079,48.8583897]]},"id":"way/1191861758"}]}