{"type":"FeatureCollection","features":[{"type":"Feature","properties":{"@id":"way/63639017","building":"yes","building:levels":"1","source":"cadastre-dgi-fr source : Direction Générale des Impôts - Cadastre. Mise à jour : 2010","id":"way/63639017"},"geometry":{"type":"Polygon","coordinates":[[[2.3836,48.8575627],[2.3836742,48.8575973],[2.3836412,48.8576281],[2.3835675,48.857594],[2.3836,48.8575627]]]},"id":"way/63639017"},{"type":"Feature","properties":{"@id":"way/63639122","building":"apartments","building:levels":"6","source":"cadastre-dgi-fr source : Direction Générale des Impôts - Cadastre. Mise à jour : 2010","id":"way/63639122"},"geometry":{"type":"Polygon","coordinates":[[[2.3849983,48.8570775],[2.3850065,48.857105],[2.3849762,48.8571361],[2.3849499,48.8571631],[2.3848457,48.8571224],[2.3848702,48.8570957],[2.3848497,48.8570884],[2.3848425,48.8570953],[2.3848404,48.8570962],[2.3848235,48.8571136],[2.3847785,48.8570957],[2.3848465,48.8570184],[2.3849242,48.8570486],[2.3849983,48.8570775]]]},"id":"way/63639122"},{"type":"Feature","properties":{"@id":"way/63639451","building":"yes","building:levels":"7","source":"cadastre-dgi-fr source : Direction Générale des Impôts - Cadastre. Mise à jour : 2010","id":"way/63639451"},"geometry":{"type":"Polygon","coordinates":[[[2.3844724,48.8573644],[2.3844699,48.8573636],[2.3844663,48.8573654],[2.3844558,48.8573608],[2.3843391,48.8573096],[2.3844424,48.8572105],[2.3845138,48.8572431],[2.3845278,48.8572289],[2.3845826,48.8572532],[2.3845846,48.8572541],[2.3844724,48.8573644]]]},"id":"way/63639451"},{"type":"Feature","properties":{"@id":"way/63640082","building":"yes","building:levels":"5","roof:levels":"1","source":"cadastre-dgi-fr source : Direction Générale des Impôts - Cadastre. Mise à jour : 2010","id":"way/63640082"},"geometry":{"type":"Polygon","coordinates":[[[2.3847785,48.8570957],[2.3847773,48.857097],[2.3846415,48.8570471],[2.3847129,48.856966],[2.3847843,48.856994],[2.3848465,48.8570184],[2.3847785,48.8570957]]]},"id":"way/63640082"},{"type":"Feature","properties":{"@id":"way/63640437","building":"yes","building:levels":"7","source":"cadastre-dgi-fr source : Direction Générale des Impôts - Cadastre. Mise à jour : 2010","id":"way/63640437"},"geometry":{"type":"Polygon","coordinates":[[[2.3835921,48.8571051],[2.3836536,48.8570456],[2.3836631,48.8570365],[2.3836995,48.8570524],[2.3837119,48.857039],[2.3837278,48.8570374],[2.3837505,48.8570488],[2.3838623,48.8569394],[2.3837944,48.8569089],[2.3838785,48.8568254],[2.3839231,48.8568433],[2.3840623,48.8568975],[2.383765,48.8571837],[2.3836097,48.8571131],[2.3835921,48.8571051]]]},"id":"way/63640437"},{"type":"Feature","properties":{"@id":"way/63644601","building":"apartments","building:levels":"7","roof:levels":"0","source":"cadastre-dgi-fr source : Direction Générale des Impôts - Cadastre. Mise à jour : 2010","id":"way/63644601"},"geometry":{"type":"Polygon","coordinates":[[[2.3842213,48.8576892],[2.3841882,48.8576745],[2.3842421,48.8576204],[2.3842211,48.8576108],[2.384162,48.857663],[2.384103,48.8576372],[2.3841815,48.857566],[2.3841344,48.8575434],[2.3841957,48.8574864],[2.3842221,48.8574984],[2.3842442,48.8575084],[2.3842902,48.8575293],[2.3843532,48.8575578],[2.3842764,48.8576342],[2.384252,48.8576588],[2.3842213,48.8576892]]]},"id":"way/63644601"},{"type":"Feature","properties":{"@id":"way/63645535","building":"apartments","building:levels":"9","source":"cadastre-dgi-fr source : Direction Générale des Impôts - Cadastre. Mise à jour : 2010","id":"way/63645535"},"geometry":{"type":"Polygon","coordinates":[[[2.3840565,48.8576167],[2.3840126,48.8576577],[2.3833923,48.8573746],[2.383423,48.8573408],[2.3834827,48.8572747],[2.3835008,48.8572829],[2.3835162,48.8572899],[2.3840775,48.8575449],[2.3840967,48.8575536],[2.3841142,48.8575616],[2.3840565,48.8576167]]]},"id":"way/63645535"},{"type":"Feature","properties":{"@id":"way/63645704","building":"apartments","building:levels":"6","source":"cadastre-dgi-fr source : Direction Générale des Impôts - Cadastre. Mise à jour : 2010","id":"way/63645704"},"geometry":{"type":"Polygon","coordinates":[[[2.3840623,48.8568975],[2.3839231,48.8568433],[2.3839612,48.8567998],[2.3839705,48.8567888],[2.3839712,48.8567881],[2.3840374,48.8567105],[2.3840997,48.8567334],[2.3841801,48.8567629],[2.384167,48.8567791],[2.3840623,48.8568975]]]},"id":"way/63645704"},{"type":"Feature","properties":{"@id":"way/63645789","building":"hotel","building:levels":"6","source":"cadastre-dgi-fr source : Direction Générale des Impôts - Cadastre. Mise à jour : 2010","id":"way/63645789"},"geometry":{"type":"Polygon","coordinates":[[[2.3847697,48.8569077],[2.3848873,48.8567757],[2.3849382,48.8567938],[2.3848963,48.8568424],[2.384936,48.8568575],[2.3849508,48.8568411],[2.3849321,48.8568336],[2.3849473,48.8568163],[2.3849667,48.856823],[2.3849798,48.8568085],[2.3850298,48.8568264],[2.3850046,48.8568542],[2.3849739,48.8568892],[2.3849104,48.8569617],[2.384846,48.856937],[2.3847697,48.8569077]]]},"id":"way/63645789"},{"type":"Feature","properties":{"@id":"way/63646819","building":"apartments","building:levels":"6","source":"cadastre-dgi-fr source : Direction Générale des Impôts - Cadastre. Mise à jour : 2010","id":"way/63646819"},"geometry":{"type":"Polygon","coordinates":[[[2.3839712,48.8567881],[2.3838413,48.856738],[2.3838337,48.8567463],[2.3838257,48.8567694],[2.3839187,48.8568044],[2.3839327,48.8567902],[2.3839612,48.8567998],[2.3839231,48.8568433],[2.3838785,48.8568254],[2.3837818,48.8567866],[2.3838842,48.8566705],[2.3838937,48.8566572],[2.3839586,48.8566813],[2.3840374,48.8567105],[2.3839712,48.8567881]]]},"id":"way/63646819"},{"type":"Feature","properties":{"@id":"way/63646909","building":"apartments","building:levels":"7","source":"cadastre-dgi-fr source : Direction Générale des Impôts - Cadastre. Mise à jour : 2010","id":"way/63646909"},"geometry":{"type":"Polygon","coordinates":[[[2.3845901,48.8575316],[2.384548,48.8575378],[2.3844791,48.8575068],[2.3844016,48.857472],[2.3844705,48.8574055],[2.3845422,48.8574371],[2.3845707,48.8574082],[2.3846687,48.8574511],[2.3845901,48.8575316]]]},"id":"way/63646909"},{"type":"Feature","properties":{"@id":"way/63649085","building":"apartments","building:levels":"6","source":"cadastre-dgi-fr source : Direction Générale des Impôts - Cadastre. Mise à jour : 2010","id":"way/63649085"},"geometry":{"type":"Polygon","coordinates":[[[2.384564,48.8568287],[2.3846749,48.8567009],[2.3847256,48.8567188],[2.3846889,48.8567621],[2.3847945,48.8568022],[2.384834,48.8567568],[2.3848873,48.8567757],[2.3847697,48.8569077],[2.3846719,48.8568701],[2.384564,48.8568287]]]},"id":"way/63649085"},{"type":"Feature","properties":{"@id":"way/1311365021","area":"yes","footway":"sidewalk","highway":"footway","lit":"yes","smoothness":"good","surface":"asphalt","id":"way/1311365021"},"geometry":{"type":"Polygon","coordinates":[[[2.3850065,48.857105],[2.3850328,48.8571001],[2.3850463,48.8571056],[2.3850367,48.857116],[2.3847507,48.8574111],[2.3846344,48.8575305],[2.3846481,48.8575458],[2.3846331,48.8575617],[2.3845985,48.8575476],[2.3845901,48.8575316],[2.3846687,48.8574511],[2.3847311,48.8573876],[2.3847907,48.8573271],[2.3848409,48.8572751],[2.384891,48.8572232],[2.3849198,48.8571938],[2.3849499,48.8571631],[2.3849762,48.8571361],[2.3850065,48.857105]]]},"id":"way/1311365021"},{"type":"Feature","properties":{"@id":"way/1373123711","area":"yes","footway":"sidewalk","highway":"footway","lit":"yes","smoothness":"good","surface":"asphalt","id":"way/1373123711"},"geometry":{"type":"Polygon","coordinates":[[[2.3824559,48.8566113],[2.3824689,48.8566072],[2.3824798,48.8566037],[2.3825524,48.856636],[2.3826511,48.8566799],[2.382743,48.8567214],[2.3827724,48.8567346],[2.38289,48.8567877],[2.3829232,48.8568027],[2.3829391,48.8567877],[2.3833247,48.8569617],[2.3833087,48.8569771],[2.3834512,48.8570414],[2.3835921,48.8571051],[2.3836097,48.8571131],[2.383765,48.8571837],[2.3839969,48.8572883],[2.3842203,48.8573891],[2.384321,48.8574352],[2.3844016,48.857472],[2.3844791,48.8575068],[2.384548,48.8575378],[2.3845901,48.8575316],[2.3845985,48.8575476],[2.3846331,48.8575617],[2.3846169,48.8575724],[2.3846012,48.8575772],[2.3845767,48.8575788],[2.3845542,48.8575755],[2.3845311,48.8575677],[2.3845358,48.857551],[2.3840369,48.8573255],[2.3840044,48.8573288],[2.3839169,48.8572902],[2.3839105,48.8572682],[2.3833101,48.8569966],[2.3832394,48.8569646],[2.3832165,48.8569736],[2.38308,48.8569126],[2.3830837,48.8568954],[2.3828141,48.8567743],[2.3824559,48.8566113]]]},"id":"way/1373123711"},{"type":"Feature","properties":{"@id":"way/1373123715","area":"yes","footway":"sidewalk","highway":"footway","lit":"yes","smoothness":"good","surface":"asphalt","id":"way/1373123715"},"geometry":{"type":"Polygon","coordinates":[[[2.3844929,48.8575885],[2.3845036,48.857596],[2.3845123,48.8576035],[2.3845016,48.8576104],[2.3844717,48.8576115],[2.3844233,48.8575896],[2.3843532,48.8575578],[2.3842902,48.8575293],[2.3842442,48.8575084],[2.3842221,48.8574984],[2.3841957,48.8574864],[2.3841344,48.8575434],[2.3841142,48.8575616],[2.3840967,48.8575536],[2.3840775,48.8575449],[2.384119,48.8575071],[2.3838475,48.8573842],[2.3835543,48.8572514],[2.3835162,48.8572899],[2.3835008,48.8572829],[2.3834827,48.8572747],[2.3835212,48.8572364],[2.3830651,48.8570299],[2.3829851,48.8569936],[2.3829653,48.8569847],[2.3829442,48.8569751],[2.3828636,48.8569386],[2.3827384,48.8568818],[2.382735,48.8568499],[2.3827582,48.8568263],[2.384115,48.8574398],[2.3841437,48.857431],[2.3844929,48.8575885]]]},"id":"way/1373123715"},{"type":"Feature","properties":{"@id":"way/18927333","cycleway:both":"no","highway":"residential","lit":"yes","maxspeed":"30","name":"Rue Mercœur","name:etymology:wikidata":"Q22274206","oneway":"yes","oneway:bicycle":"no","sidewalk":"separate","smoothness":"good","surface":"asphalt","zone:maxspeed":"FR:30","id":"way/18927333"},"geometry":{"type":"LineString","coordinates":[[2.3822274,48.856547],[2.3823077,48.856583],[2.3823561,48.8566072],[2.3826439,48.8567337],[2.3827882,48.8567984],[2.3832459,48.8570036],[2.3845343,48.8575888],[2.3846064,48.8576206]]},"id":"way/18927333"},{"type":"Feature","properties":{"@id":"way/23695696","cycleway:both":"no","highway":"residential","lit":"yes","maxspeed":"30","name":"Rue Léon Frot","name:etymology:wikidata":"Q3270971","oneway":"yes","oneway:bicycle":"no","sidewalk":"separate","smoothness":"good","surface":"asphalt","zone:maxspeed":"FR:30","id":"way/23695696"},"geometry":{"type":"LineString","coordinates":[[2.3846064,48.8576206],[2.3845518,48.8576706],[2.3842208,48.8579941]]},"id":"way/23695696"},{"type":"Feature","properties":{"@id":"way/23695697","cycleway:both":"no","highway":"residential","lit":"yes","maxspeed":"30","name":"Rue Léon Frot","name:etymology:wikidata":"Q3270971","oneway":"yes","oneway:bicycle":"no","sidewalk:both":"separate","smoothness":"good","surface":"asphalt","zone:maxspeed":"FR:30","id":"way/23695697"},"geometry":{"type":"LineString","coordinates":[[2.3871219,48.8551202],[2.3870662,48.8551732],[2.3867016,48.8555123],[2.3866694,48.8555471],[2.3864555,48.8557603],[2.3862335,48.8559637],[2.3861599,48.8560371],[2.38591,48.8562948],[2.3855819,48.8566181],[2.3852084,48.8570139],[2.3851432,48.8570794],[2.3850987,48.8571241],[2.3846596,48.8575719],[2.3846064,48.8576206]]},"id":"way/23695697"},{"type":"Feature","properties":{"@id":"way/62120496","highway":"residential","lit":"yes","maxspeed":"30","name":"Rue Mercœur","name:etymology:wikidata":"Q22274206","oneway":"yes","oneway:bicycle":"no","sidewalk":"separate","smoothness":"good","surface":"asphalt","zone:maxspeed":"FR:30","id":"way/62120496"},"geometry":{"type":"LineString","coordinates":[[2.3851697,48.8578799],[2.3851038,48.8578418],[2.384694,48.8576635],[2.3846064,48.8576206]]},"id":"way/62120496"},{"type":"Feature","properties":{"@id":"way/1175999967","crossing":"traffic_signals","crossing:markings":"yes","footway":"crossing","highway":"footway","lit":"yes","smoothness":"good","surface":"asphalt","traffic_signals:sound":"yes","id":"way/1175999967"},"geometry":{"type":"LineString","coordinates":[[2.3846331,48.8575617],[2.3846596,48.8575719],[2.3846844,48.8575815]]},"id":"way/1175999967"},{"type":"Feature","properties":{"@id":"way/1190361012","footway":"sidewalk","highway":"footway","lit":"yes","smoothness":"good","surface":"asphalt","id":"way/1190361012"},"geometry":{"type":"LineString","coordinates":[[2.3847477,48.8576048],[2.3849488,48.8574049],[2.3849706,48.8573363],[2.3851587,48.8571453],[2.3851438,48.85714]]},"id":"way/1190361012"},{"type":"Feature","properties":{"@id":"way/1190361013","footway":"sidewalk","highway":"footway","lit":"yes","smoothness":"good","surface":"asphalt","id":"way/1190361013"},"geometry":{"type":"LineString","coordinates":[[2.3847336,48.8576253],[2.3847477,48.8576048],[2.3846844,48.8575815]]},"id":"way/1190361013"},{"type":"Feature","properties":{"@id":"way/1190361014","footway":"sidewalk","highway":"footway","lit":"yes","smoothness":"good","surface":"asphalt","id":"way/1190361014"},"geometry":{"type":"LineString","coordinates":[[2.3851349,48.857793],[2.3850632,48.8577718],[2.3847336,48.8576253],[2.3847088,48.8576474]]},"id":"way/1190361014"},{"type":"Feature","properties":{"@id":"way/1190832255","crossing":"traffic_signals","crossing:markings":"yes","footway":"crossing","highway":"footway","lit":"yes","smoothness":"good","surface":"asphalt","traffic_signals:sound":"yes","id":"way/1190832255"},"geometry":{"type":"LineString","coordinates":[[2.3845542,48.8575755],[2.3845343,48.8575888],[2.3845123,48.8576035]]},"id":"way/1190832255"},{"type":"Feature","properties":{"@id":"way/1190832256","crossing":"traffic_signals","crossing:markings":"yes","footway":"crossing","highway":"footway","lit":"yes","smoothness":"good","surface":"asphalt","traffic_signals:sound":"yes","id":"way/1190832256"},"geometry":{"type":"LineString","coordinates":[[2.3847088,48.8576474],[2.384694,48.8576635],[2.3846823,48.8576763]]},"id":"way/1190832256"},{"type":"Feature","properties":{"@id":"way/1190832711","footway":"sidewalk","highway":"footway","smoothness":"good","surface":"asphalt","id":"way/1190832711"},"geometry":{"type":"LineString","coordinates":[[2.3850345,48.8570845],[2.3844962,48.8568753],[2.3840691,48.8567149],[2.3836193,48.8565417],[2.3829865,48.8562975],[2.3829224,48.856275],[2.382933,48.8562698]]},"id":"way/1190832711"},{"type":"Feature","properties":{"@id":"way/1190832713","footway":"sidewalk","highway":"footway","lit":"yes","smoothness":"good","surface":"asphalt","id":"way/1190832713"},"geometry":{"type":"LineString","coordinates":[[2.3845985,48.8575476],[2.3850328,48.8571001],[2.3850463,48.8571056]]},"id":"way/1190832713"},{"type":"Feature","properties":{"@id":"way/1190832714","footway":"sidewalk","highway":"footway","smoothness":"good","surface":"asphalt","id":"way/1190832714"},"geometry":{"type":"LineString","coordinates":[[2.384576,48.8575607],[2.3845985,48.8575476],[2.3846331,48.8575617]]},"id":"way/1190832714"},{"type":"Feature","properties":{"@id":"way/1190832715","footway":"sidewalk","highway":"footway","lit":"yes","surface":"asphalt","id":"way/1190832715"},"geometry":{"type":"LineString","coordinates":[[2.3828218,48.8567666],[2.3831886,48.8569322],[2.3832681,48.8569687],[2.384576,48.8575607],[2.3845542,48.8575755]]},"id":"way/1190832715"},{"type":"Feature","properties":{"@id":"way/1190832730","footway":"sidewalk","highway":"footway","lit":"yes","surface":"asphalt","id":"way/1190832730"},"geometry":{"type":"LineString","coordinates":[[2.3845016,48.8576104],[2.3842082,48.8574749],[2.3840899,48.8574587],[2.382735,48.8568499],[2.3827582,48.8568263]]},"id":"way/1190832730"},{"type":"Feature","properties":{"@id":"way/1190832731","footway":"sidewalk","highway":"footway","lit":"yes","smoothness":"good","surface":"asphalt","id":"way/1190832731"},"geometry":{"type":"LineString","coordinates":[[2.3844956,48.8576461],[2.3845016,48.8576104],[2.3845123,48.8576035]]},"id":"way/1190832731"},{"type":"Feature","properties":{"@id":"way/1190832732","footway":"sidewalk","highway":"footway","lit":"yes","smoothness":"good","surface":"asphalt","id":"way/1190832732"},"geometry":{"type":"LineString","coordinates":[[2.3836953,48.8584102],[2.3844956,48.8576461],[2.384523,48.8576575]]},"id":"way/1190832732"},{"type":"Feature","properties":{"@id":"node/30183343","highway":"traffic_signals","id":"node/30183343"},"geometry":{"type":"Point","coordinates":[2.3846064,48.8576206]},"id":"node/30183343"},{"type":"Feature","properties":{"@id":"node/4224421746","addr:city":"Paris","addr:housenumber":"77","addr:postcode":"75011","addr:street":"Rue Léon Frot","amenity":"restaurant","check_date":"2024-11-24","check_date:opening_hours":"2024-11-24","cuisine":"lebanese","diet:vegetarian":"yes","name":"Fakra","opening_hours:signed":"no","outdoor_seating":"no","source":"knowledge","id":"node/4224421746"},"geometry":{"type":"Point","coordinates":[2.3846704,48.857407]},"id":"node/4224421746"},{"type":"Feature","properties":{"@id":"node/5025920321","addr:city":"Paris","addr:housenumber":"14","addr:postcode":"75011","addr:street":"Rue Mercœur","amenity":"restaurant","cuisine":"cameroonian","name":"Chez Régine","opening_hours":"Mo-Th 12:00-00:00; Fr-Su 12:00-02:00","id":"node/5025920321"},"geometry":{"type":"Point","coordinates":[2.3844699,48.8574699]},"id":"node/5025920321"},{"type":"Feature","properties":{"@id":"node/5098751021","addr:city":"Paris","addr:housenumber":"81","addr:postcode":"75011","addr:street":"Rue Léon Frot","amenity":"bar","check_date":"2023-05-04","contact:phone":"+33 9 74 64 03 23","happy_hours":"Mo-Su 16:00-00:00","indoor_seating":"yes","name":"L'R de Rien","outdoor_seating":"yes","wheelchair":"no","id":"node/5098751021"},"geometry":{"type":"Point","coordinates":[2.3844272,48.8576378]},"id":"node/5098751021"},{"type":"Feature","properties":{"@id":"node/7638385037","addr:city":"Paris","addr:housenumber":"77","addr:postcode":"75011","addr:street":"Léon Frot","amenity":"restaurant","check_date":"2024-11-24","check_date:opening_hours":"2024-11-24","cuisine":"japanese","name":"Naoko","opening_hours:signed":"no","phone":"+33 1 44 64 96 85","website":"https://naoko11.fr","id":"node/7638385037"},"geometry":{"type":"Point","coordinates":[2.3847341,48.8573437]},"id":"node/7638385037"},{"type":"Feature","properties":{"@id":"node/10868173278","addr:city":"Paris","addr:housenumber":"79","addr:postcode":"75011","addr:street":"Rue Léon Frot","amenity":"cafe","contact:phone":"+33 9 81 33 21 09","name":"Le Rotterdam","outdoor_seating":"yes","id":"node/10868173278"},"geometry":{"type":"Point","coordinates":[2.3845667,48.8575038]},"id":"node/10868173278"},{"type":"Feature","properties":{"@id":"node/10868173287","addr:city":"Paris","addr:housenumber":"29","addr:postcode":"75011","addr:street":"Rue Mercœur","name":"Les luthiers de l’Est parisien","ref:FR:SIRET":"80388408900019","repair":"yes","shop":"musical_instrument","wheelchair":"limited","id":"node/10868173287"},"geometry":{"type":"Point","coordinates":[2.3843661,48.8575954]},"id":"node/10868173287"},{"type":"Feature","properties":{"@id":"node/10868173291","addr:city":"Paris","addr:housenumber":"79","addr:postcode":"75011","addr:street":"Rue Léon Frot","name":"Quincaillerie Droguerie Voltaire","opening_hours":"Mo-Sa 10:00-19:00","phone":"+33 1 43 67 01 51","shop":"hardware","id":"node/10868173291"},"geometry":{"type":"Point","coordinates":[2.3846066,48.857464]},"id":"node/10868173291"},{"type":"Feature","properties":{"@id":"node/10868173298","addr:city":"Paris","addr:housenumber":"73","addr:postcode":"75011","addr:street":"Rue Léon Frot","amenity":"restaurant","cuisine":"french","diet:vegetarian":"yes","indoor_seating":"yes","name":"La Louise","outdoor_seating":"yes","id":"node/10868173298"},"geometry":{"type":"Point","coordinates":[2.3849067,48.8571669]},"id":"node/10868173298"},{"type":"Feature","properties":{"@id":"node/10927013948","amenity":"waste_basket","id":"node/10927013948"},"geometry":{"type":"Point","coordinates":[2.3846836,48.8576141]},"id":"node/10927013948"},{"type":"Feature","properties":{"@id":"node/12138672928","amenity":"restaurant","name":"lêlê vietnam","id":"node/12138672928"},"geometry":{"type":"Point","coordinates":[2.3848801,48.8571956]},"id":"node/12138672928"}]}