{"type":"FeatureCollection","features":[{"type":"Feature","properties":{"@id":"way/63639093","building":"yes","source":"cadastre-dgi-fr source : Direction Générale des Impôts - Cadastre. Mise à jour : 2010","id":"way/63639093"},"geometry":{"type":"Polygon","coordinates":[[[2.3735189,48.8567835],[2.3735051,48.8567992],[2.3734455,48.856775],[2.37347,48.8567472],[2.3734932,48.8567564],[2.3735255,48.8567224],[2.3735619,48.8567366],[2.3735189,48.8567835]]]},"id":"way/63639093"},{"type":"Feature","properties":{"@id":"way/63639156","building":"yes","building:levels":"6","source":"cadastre-dgi-fr source : Direction Générale des Impôts - Cadastre. Mise à jour : 2010","id":"way/63639156"},"geometry":{"type":"Polygon","coordinates":[[[2.373575,48.8572088],[2.3735442,48.8571969],[2.3734068,48.8571435],[2.3734443,48.8570981],[2.3733565,48.8570631],[2.3734528,48.8569571],[2.3735752,48.8570049],[2.3737116,48.857058],[2.373575,48.8572088]]]},"id":"way/63639156"},{"type":"Feature","properties":{"@id":"way/63639494","building":"yes","building:levels":"7","source":"cadastre-dgi-fr source : Direction Générale des Impôts - Cadastre. Mise à jour : 2010","id":"way/63639494"},"geometry":{"type":"Polygon","coordinates":[[[2.3734727,48.8568345],[2.3734453,48.8568644],[2.3732564,48.8567887],[2.3733145,48.8567241],[2.3733704,48.856662],[2.3734863,48.8567073],[2.3733989,48.8568054],[2.3734727,48.8568345]]]},"id":"way/63639494"},{"type":"Feature","properties":{"@id":"way/63639730","building":"apartments","building:levels":"7","source":"cadastre-dgi-fr source : Direction Générale des Impôts - Cadastre. Mise à jour : 2010","id":"way/63639730"},"geometry":{"type":"Polygon","coordinates":[[[2.3726359,48.857038],[2.372554,48.8569981],[2.3724365,48.8569409],[2.372445,48.8569145],[2.3725898,48.8568923],[2.3727415,48.8568691],[2.3727621,48.8569262],[2.3727605,48.8569276],[2.3727237,48.8569601],[2.3727137,48.8569344],[2.3726615,48.8569429],[2.3726496,48.8569549],[2.3726904,48.8569736],[2.3727011,48.8569642],[2.372713,48.8569699],[2.3727064,48.8569755],[2.3726359,48.857038]]]},"id":"way/63639730"},{"type":"Feature","properties":{"@id":"way/63640511","building":"yes","building:levels":"4","source":"cadastre-dgi-fr source : Direction Générale des Impôts - Cadastre. Mise à jour : 2010","id":"way/63640511"},"geometry":{"type":"Polygon","coordinates":[[[2.3737834,48.8568906],[2.3737347,48.8569429],[2.3737085,48.8569705],[2.3735709,48.856915],[2.3734453,48.8568644],[2.3734727,48.8568345],[2.3735051,48.8567992],[2.3735189,48.8567835],[2.3737834,48.8568906]]]},"id":"way/63640511"},{"type":"Feature","properties":{"@id":"way/63641010","brand":"Ibis","brand:wikidata":"Q920166","brand:wikipedia":"en:Ibis (hotel)","building":"yes","building:levels":"7","fax":"+33149292030","internet_access":"yes","internet_access:fee":"no","name":"Ibis","operator":"Ibis","phone":"+33149292020","roof:levels":"2","source":"cadastre-dgi-fr source : Direction Générale des Impôts - Cadastre. Mise à jour : 2010","stars":"2","tourism":"hotel","website":"http://www.ibishotel.com/gb/hotel-1399-ibis-paris-bastille-opera-11eme/index.shtml","wheelchair":"yes","id":"way/63641010"},"geometry":{"type":"Polygon","coordinates":[[[2.3728892,48.8578768],[2.3727268,48.8578141],[2.3726608,48.8577885],[2.3725885,48.8578649],[2.3723729,48.8577806],[2.3724122,48.8577366],[2.3724921,48.8577653],[2.3724999,48.8577583],[2.3725193,48.8577648],[2.3725771,48.8577006],[2.3727659,48.857491],[2.3727835,48.8574715],[2.3727816,48.8574672],[2.3727829,48.8574588],[2.3727936,48.857452],[2.3728032,48.8574509],[2.3728192,48.8574328],[2.3728568,48.8574467],[2.3728641,48.8574462],[2.3728804,48.8574439],[2.3728963,48.8574416],[2.3729019,48.8574407],[2.372924,48.8574157],[2.3729399,48.8574217],[2.3731702,48.8575088],[2.3731889,48.857486],[2.3731753,48.8574809],[2.3731941,48.8574593],[2.3732059,48.8574637],[2.3732215,48.8574458],[2.3732633,48.8574616],[2.3732869,48.8574709],[2.3731746,48.8576119],[2.3731539,48.8576052],[2.3731381,48.8576001],[2.3728892,48.8578768]]]},"id":"way/63641010"},{"type":"Feature","properties":{"@id":"way/63643444","building":"apartments","source":"cadastre-dgi-fr source : Direction Générale des Impôts - Cadastre. Mise à jour : 2010","id":"way/63643444"},"geometry":{"type":"Polygon","coordinates":[[[2.3739032,48.8574424],[2.3741255,48.8575281],[2.3740408,48.8576273],[2.3739441,48.8575903],[2.3737217,48.8575052],[2.3735379,48.8574349],[2.3734557,48.8574034],[2.3734695,48.8573873],[2.3734105,48.8573646],[2.3734587,48.8573132],[2.3734751,48.8573194],[2.3735015,48.8572892],[2.3737435,48.8573799],[2.3737409,48.8573839],[2.3737797,48.8573979],[2.3738117,48.8573914],[2.3738712,48.8573239],[2.3739714,48.8573627],[2.3739032,48.8574424]]]},"id":"way/63643444"},{"type":"Feature","properties":{"@id":"way/63644307","building":"apartments","building:levels":"6","roof:levels":"1","source":"cadastre-dgi-fr source : Direction Générale des Impôts - Cadastre. Mise à jour : 2010","id":"way/63644307"},"geometry":{"type":"Polygon","coordinates":[[[2.3726359,48.857038],[2.3727064,48.8569755],[2.3727446,48.856994],[2.3727613,48.8569937],[2.3727794,48.8569739],[2.3728716,48.8570096],[2.3728228,48.8570641],[2.3727978,48.857092],[2.3727581,48.8570973],[2.3727067,48.8570724],[2.3726359,48.857038]]]},"id":"way/63644307"},{"type":"Feature","properties":{"@id":"way/63647007","architect":"F. Bellan","building":"apartments","building:levels":"6","operator":"Camusat","roof:levels":"1","source":"cadastre-dgi-fr source : Direction Générale des Impôts - Cadastre. Mise à jour : 2010","source:architect":"survey","start_date":"1890","id":"way/63647007"},"geometry":{"type":"Polygon","coordinates":[[[2.3728716,48.8570096],[2.3727794,48.8569739],[2.3727965,48.8569527],[2.3727919,48.8569477],[2.3727889,48.856942],[2.3727605,48.8569276],[2.3727621,48.8569262],[2.3727415,48.8568691],[2.3728602,48.8568508],[2.3729867,48.8568314],[2.3730111,48.8568529],[2.3729346,48.8569388],[2.3728716,48.8570096]]]},"id":"way/63647007"},{"type":"Feature","properties":{"@id":"way/63647336","building":"roof","building:levels":"1","layer":"1","source":"cadastre-dgi-fr source : Direction Générale des Impôts - Cadastre. Mise à jour : 2010","wall":"no","id":"way/63647336"},"geometry":{"type":"Polygon","coordinates":[[[2.3728963,48.8574416],[2.3728804,48.8574439],[2.3728641,48.8574462],[2.3728153,48.8573259],[2.3728541,48.8573192],[2.3728963,48.8574416]]]},"id":"way/63647336"},{"type":"Feature","properties":{"@id":"way/63649491","building":"yes","building:levels":"6","source":"cadastre-dgi-fr source : Direction Générale des Impôts - Cadastre. Mise à jour : 2010","id":"way/63649491"},"geometry":{"type":"Polygon","coordinates":[[[2.3737834,48.8568906],[2.3739473,48.8567144],[2.3740054,48.8567387],[2.3740703,48.8567658],[2.3740837,48.8568108],[2.3740904,48.8568332],[2.3740209,48.8569161],[2.3739689,48.8569782],[2.3738638,48.8569946],[2.3738522,48.8569899],[2.3737347,48.8569429],[2.3737834,48.8568906]]]},"id":"way/63649491"},{"type":"Feature","properties":{"@id":"way/15409804","cycleway":"opposite","highway":"residential","lit":"yes","maxspeed":"30","name":"Rue Boulle","name:etymology:wikidata":"Q128964","oneway":"yes","oneway:bicycle":"no","sidewalk:both":"separate","smoothness":"good","surface":"asphalt","id":"way/15409804"},"geometry":{"type":"LineString","coordinates":[[2.3712172,48.8570516],[2.3713242,48.8570351],[2.3720895,48.8569168],[2.3722193,48.8568986],[2.3723245,48.8568794],[2.3731008,48.856752],[2.3732199,48.8567324]]},"id":"way/15409804"},{"type":"Feature","properties":{"@id":"way/62117446","cycleway:both":"no","highway":"residential","lit":"yes","maxspeed":"30","name":"Rue Froment","name:etymology:wikidata":"Q1419387","oneway":"yes","oneway:bicycle":"no","sidewalk:both":"separate","sidewalk:both:surface":"asphalt","smoothness":"good","surface":"asphalt","id":"way/62117446"},"geometry":{"type":"LineString","coordinates":[[2.3719568,48.8581375],[2.371993,48.8580937],[2.3726481,48.8573632],[2.3727576,48.857241],[2.3728056,48.8571876],[2.3728467,48.8571441],[2.3730868,48.8568764],[2.3731653,48.8567895],[2.3732199,48.8567324],[2.3734089,48.8565324]]},"id":"way/62117446"},{"type":"Feature","properties":{"@id":"way/62117449","cycleway:both":"no","highway":"residential","lit":"yes","maxspeed":"30","maxspeed:type":"FR:zone30","name":"Passage Salarnier","name:etymology:wikidata":"Q618532","oneway":"yes","oneway:bicycle":"no","sidewalk":"no","smoothness":"good","surface":"asphalt","id":"way/62117449"},"geometry":{"type":"LineString","coordinates":[[2.3731653,48.8567895],[2.3732207,48.8568111],[2.3736949,48.8569962],[2.3737508,48.8570066],[2.373911,48.8570733],[2.3739813,48.8570615],[2.374211,48.8568012],[2.3742378,48.8567709]]},"id":"way/62117449"},{"type":"Feature","properties":{"@id":"way/601688773","bicycle":"permissive","highway":"footway","layer":"-1","lit":"yes","surface":"concrete","id":"way/601688773"},"geometry":{"type":"LineString","coordinates":[[2.3738309,48.8575985],[2.3738071,48.8576304],[2.3738008,48.8576388],[2.3735046,48.858018],[2.3733673,48.8581879],[2.3731413,48.8585049],[2.3731158,48.8585407]]},"id":"way/601688773"},{"type":"Feature","properties":{"@id":"way/1190407604","footway":"sidewalk","highway":"footway","surface":"asphalt","id":"way/1190407604"},"geometry":{"type":"LineString","coordinates":[[2.3724189,48.8569327],[2.3724316,48.8569503],[2.3727716,48.8571146]]},"id":"way/1190407604"},{"type":"Feature","properties":{"@id":"way/1190407606","footway":"sidewalk","highway":"footway","surface":"asphalt","id":"way/1190407606"},"geometry":{"type":"LineString","coordinates":[[2.3730204,48.856829],[2.3729842,48.8568232],[2.3724404,48.8569055],[2.37243,48.8569119],[2.3724072,48.8569057]]},"id":"way/1190407606"},{"type":"Feature","properties":{"@id":"way/1190407607","footway":"sidewalk","highway":"footway","surface":"asphalt","id":"way/1190407607"},"geometry":{"type":"LineString","coordinates":[[2.3730281,48.8568566],[2.3730204,48.856829],[2.3730351,48.8568235]]},"id":"way/1190407607"},{"type":"Feature","properties":{"@id":"way/1190407608","footway":"sidewalk","highway":"footway","surface":"asphalt","id":"way/1190407608"},"geometry":{"type":"LineString","coordinates":[[2.3727961,48.8571118],[2.3730281,48.8568566],[2.3730415,48.8568618]]},"id":"way/1190407608"},{"type":"Feature","properties":{"@id":"way/1190407609","footway":"sidewalk","highway":"footway","id":"way/1190407609"},"geometry":{"type":"LineString","coordinates":[[2.3727673,48.857125],[2.3727716,48.8571146],[2.3727961,48.8571118],[2.3728058,48.8571199]]},"id":"way/1190407609"},{"type":"Feature","properties":{"@id":"way/1190407610","footway":"sidewalk","highway":"footway","surface":"asphalt","id":"way/1190407610"},"geometry":{"type":"LineString","coordinates":[[2.3731475,48.8568934],[2.3728886,48.85717]]},"id":"way/1190407610"},{"type":"Feature","properties":{"@id":"way/1190407611","footway":"sidewalk","highway":"footway","surface":"asphalt","id":"way/1190407611"},"geometry":{"type":"LineString","coordinates":[[2.3734871,48.8565124],[2.3732207,48.8568111],[2.3731475,48.8568934],[2.3731337,48.8568859]]},"id":"way/1190407611"},{"type":"Feature","properties":{"@id":"way/1190407618","footway":"sidewalk","highway":"footway","surface":"asphalt","id":"way/1190407618"},"geometry":{"type":"LineString","coordinates":[[2.3733875,48.8573884],[2.3740815,48.857652],[2.3740745,48.8576588]]},"id":"way/1190407618"},{"type":"Feature","properties":{"@id":"way/1190407619","footway":"sidewalk","highway":"footway","id":"way/1190407619"},"geometry":{"type":"LineString","coordinates":[[2.3728903,48.8571969],[2.3732507,48.8573273],[2.3733875,48.8573884],[2.3733808,48.8573935]]},"id":"way/1190407619"},{"type":"Feature","properties":{"@id":"way/1190407620","footway":"sidewalk","highway":"footway","surface":"asphalt","id":"way/1190407620"},"geometry":{"type":"LineString","coordinates":[[2.3728829,48.8571656],[2.3728886,48.85717],[2.3728903,48.8571969],[2.3728843,48.8572009]]},"id":"way/1190407620"},{"type":"Feature","properties":{"@id":"way/1190407621","footway":"sidewalk","highway":"footway","lit":"yes","surface":"asphalt","id":"way/1190407621"},"geometry":{"type":"LineString","coordinates":[[2.372718,48.8572203],[2.3723763,48.8575858],[2.3720592,48.8579383],[2.3719398,48.8580786]]},"id":"way/1190407621"},{"type":"Feature","properties":{"@id":"way/1190407622","footway":"sidewalk","highway":"footway","id":"way/1190407622"},"geometry":{"type":"LineString","coordinates":[[2.3727166,48.8571857],[2.372718,48.8572203],[2.3727411,48.8572316]]},"id":"way/1190407622"},{"type":"Feature","properties":{"@id":"way/1190407623","footway":"sidewalk","highway":"footway","surface":"asphalt","id":"way/1190407623"},"geometry":{"type":"LineString","coordinates":[[2.3722543,48.8569585],[2.3727166,48.8571857],[2.3727331,48.8571775]]},"id":"way/1190407623"},{"type":"Feature","properties":{"@id":"way/1190407635","footway":"sidewalk","highway":"footway","lit":"yes","surface":"asphalt","id":"way/1190407635"},"geometry":{"type":"LineString","coordinates":[[2.3728108,48.8572708],[2.3727179,48.8573757],[2.3724789,48.8576454],[2.3720602,48.8581119],[2.3720423,48.8581102]]},"id":"way/1190407635"},{"type":"Feature","properties":{"@id":"way/1190407636","footway":"sidewalk","highway":"footway","id":"way/1190407636"},"geometry":{"type":"LineString","coordinates":[[2.372839,48.8572664],[2.3728108,48.8572708],[2.3728015,48.857264]]},"id":"way/1190407636"},{"type":"Feature","properties":{"@id":"way/1190407637","footway":"sidewalk","highway":"footway","surface":"asphalt","id":"way/1190407637"},"geometry":{"type":"LineString","coordinates":[[2.3733181,48.8574482],[2.3732838,48.8574348],[2.3729656,48.8573143],[2.372839,48.8572664],[2.372836,48.8572571]]},"id":"way/1190407637"},{"type":"Feature","properties":{"@id":"way/1190407638","footway":"sidewalk","highway":"footway","surface":"asphalt","id":"way/1190407638"},"geometry":{"type":"LineString","coordinates":[[2.3740125,48.8577153],[2.3739954,48.8577005],[2.3738071,48.8576304],[2.3737084,48.8575942],[2.3736346,48.8575675],[2.3734167,48.8574846],[2.3733372,48.8574544],[2.3733181,48.8574482],[2.3733288,48.8574398]]},"id":"way/1190407638"},{"type":"Feature","properties":{"@id":"way/1190764984","crossing":"uncontrolled","crossing:markings":"yes","footway":"crossing","highway":"footway","lit":"yes","id":"way/1190764984"},"geometry":{"type":"LineString","coordinates":[[2.3733808,48.8573935],[2.3733558,48.8574141],[2.3733288,48.8574398]]},"id":"way/1190764984"},{"type":"Feature","properties":{"@id":"way/1190765051","crossing":"uncontrolled","crossing:markings":"zebra","footway":"crossing","highway":"footway","lit":"yes","surface":"asphalt","tactile_paving":"yes","id":"way/1190765051"},"geometry":{"type":"LineString","coordinates":[[2.3730351,48.8568235],[2.3731008,48.856752],[2.373125,48.8567218]]},"id":"way/1190765051"},{"type":"Feature","properties":{"@id":"way/1190765052","crossing":"uncontrolled","crossing:markings":"zebra","footway":"crossing","highway":"footway","lit":"yes","surface":"asphalt","tactile_paving":"yes","id":"way/1190765052"},"geometry":{"type":"LineString","coordinates":[[2.3730415,48.8568618],[2.3730868,48.8568764],[2.3731337,48.8568859]]},"id":"way/1190765052"},{"type":"Feature","properties":{"@id":"way/1190765053","crossing":"uncontrolled","crossing:markings":"zebra","footway":"crossing","highway":"footway","lit":"yes","surface":"asphalt","tactile_paving":"yes","id":"way/1190765053"},"geometry":{"type":"LineString","coordinates":[[2.3727411,48.8572316],[2.3727576,48.857241],[2.3728015,48.857264]]},"id":"way/1190765053"},{"type":"Feature","properties":{"@id":"way/1190765054","crossing":"uncontrolled","crossing:markings":"zebra","footway":"crossing","highway":"footway","lit":"yes","surface":"asphalt","tactile_paving":"yes","id":"way/1190765054"},"geometry":{"type":"LineString","coordinates":[[2.372836,48.8572571],[2.3728656,48.8572269],[2.3728843,48.8572009]]},"id":"way/1190765054"},{"type":"Feature","properties":{"@id":"way/1190765055","crossing":"uncontrolled","crossing:markings":"zebra","footway":"crossing","highway":"footway","lit":"yes","surface":"asphalt","tactile_paving":"yes","id":"way/1190765055"},"geometry":{"type":"LineString","coordinates":[[2.3728058,48.8571199],[2.3728467,48.8571441],[2.3728829,48.8571656]]},"id":"way/1190765055"},{"type":"Feature","properties":{"@id":"way/1190765056","crossing":"uncontrolled","crossing:markings":"zebra","footway":"crossing","highway":"footway","lit":"yes","surface":"asphalt","tactile_paving":"yes","id":"way/1190765056"},"geometry":{"type":"LineString","coordinates":[[2.3727673,48.857125],[2.3727461,48.8571576],[2.3727331,48.8571775]]},"id":"way/1190765056"},{"type":"Feature","properties":{"@id":"way/1214885549","cycleway:both":"no","highway":"residential","lit":"yes","maxspeed":"30","name":"Rue Bréguet","name:etymology:wikidata":"Q123679","name:fr":"Rue Bréguet","oneway":"yes","oneway:bicycle":"no","sidewalk:both":"separate","sidewalk:both:surface":"asphalt","surface":"asphalt","id":"way/1214885549"},"geometry":{"type":"LineString","coordinates":[[2.3711314,48.8563619],[2.3721227,48.8568487],[2.3722193,48.8568986],[2.3723192,48.8569444],[2.3727461,48.8571576],[2.3728056,48.8571876],[2.3728656,48.8572269],[2.3730016,48.8572788],[2.3733124,48.8573973],[2.3733558,48.8574141],[2.3736117,48.8575134],[2.3738309,48.8575985],[2.3738749,48.8576152],[2.3740518,48.8576824],[2.3746291,48.8579016],[2.3752179,48.8581069],[2.3755168,48.8582111],[2.3760449,48.8583949],[2.3764387,48.8585326],[2.3765017,48.8585544]]},"id":"way/1214885549"},{"type":"Feature","properties":{"@id":"node/1307127534","addr:housenumber":"8","addr:postcode":"75011","addr:street":"Rue Froment","amenity":"cafe","brewery":"Goudale","contact:facebook":"cafetruc","contact:instagram":"cafe.truc","cuisine":"french","name":"Le Café Truc","name:fr":"Le Café Truc","opening_hours":"Mo-Fr 08:00-01:00","phone":"+33 1 48 05 62 38","source":"cadastre-dgi-fr source : Direction Générale des Impôts - Cadastre. Mise à jour : 2011","website":"https://www.cafetruc.com/","id":"node/1307127534"},"geometry":{"type":"Point","coordinates":[2.3729822,48.8571479]},"id":"node/1307127534"},{"type":"Feature","properties":{"@id":"node/1674677810","amenity":"restaurant","check_date":"2024-04-06","cuisine":"indian","name":"Isola Sarda","outdoor_seating":"yes","id":"node/1674677810"},"geometry":{"type":"Point","coordinates":[2.3727607,48.857091]},"id":"node/1674677810"},{"type":"Feature","properties":{"@id":"node/1734988687","amenity":"restaurant","check_date":"2025-05-28","cuisine":"indian","name":"Kathmandou","id":"node/1734988687"},"geometry":{"type":"Point","coordinates":[2.3726643,48.8570416]},"id":"node/1734988687"},{"type":"Feature","properties":{"@id":"node/3717255884","amenity":"restaurant","cuisine":"sandwich","name":"Tan'in Bar","id":"node/3717255884"},"geometry":{"type":"Point","coordinates":[2.3732076,48.8572868]},"id":"node/3717255884"},{"type":"Feature","properties":{"@id":"node/4858057864","addr:city":"Paris","addr:housenumber":"17-19","addr:postcode":"75011","addr:street":"Rue Bréguet","check_date":"2025-05-28","level":"0","name":"Ten Belles Bread","opening_hours":"Mo-Fr 09:00-17:30, Sa-Su 09:00-17:30","outdoor_seating":"yes","phone":"+33 9 67 86 08 19","shop":"bakery","toilets":"yes","website":"https://www.facebook.com/tenbellesbread/","wheelchair":"yes","id":"node/4858057864"},"geometry":{"type":"Point","coordinates":[2.3734779,48.8575489]},"id":"node/4858057864"},{"type":"Feature","properties":{"@id":"node/6168769248","addr:city":"Paris","addr:housenumber":"13","addr:postcode":"75011","addr:street":"Rue Boulle","opening_hours":"Mo-We 17:45-00:00; Th-Fr 17:45-01:00; Sa 11:00-15:00, 17:45-01:00; Su 11:00-15:00, 17:45-00:00","shop":"vacant","survey:date":"2025-09-07","id":"node/6168769248"},"geometry":{"type":"Point","coordinates":[2.3729462,48.8568652]},"id":"node/6168769248"},{"type":"Feature","properties":{"@id":"node/6440839674","addr:postcode":"75011","amenity":"bicycle_rental","bicycle_rental":"docking_station","brand":"Vélib' Métropole","brand:wikidata":"Q1120762","brand:wikipedia":"fr:Vélib' Métropole","capacity":"43","name":"Froment - Bréguet","network":"Vélib' Métropole","network:wikidata":"Q1120762","network:wikipedia":"fr:Vélib' Métropole","opening_hours":"24/7","operator":"Smovengo","operator:type":"private","operator:wikidata":"Q47008427","operator:wikipedia":"fr:Smovengo","ref":"11025","source":"Autolib Velib Métropole - 04/2020","unsigned_ref":"82405965","wikidata":"Q86254536","id":"node/6440839674"},"geometry":{"type":"Point","coordinates":[2.3728963,48.857041]},"id":"node/6440839674"},{"type":"Feature","properties":{"@id":"node/6976047797","name":"Pressing Boulle","ref:FR:SIRET":"79361761400011","shop":"dry_cleaning","source":"survey","id":"node/6976047797"},"geometry":{"type":"Point","coordinates":[2.3726748,48.8568993]},"id":"node/6976047797"},{"type":"Feature","properties":{"@id":"node/7046303007","amenity":"bar","name":"Le point Bar","id":"node/7046303007"},"geometry":{"type":"Point","coordinates":[2.3730354,48.857088]},"id":"node/7046303007"},{"type":"Feature","properties":{"@id":"node/7143418478","addr:city":"Paris","addr:housenumber":"17","addr:postcode":"75011","addr:street":"Rue Bréguet","air_conditioning":"yes","amenity":"restaurant","bar":"yes","check_date":"2025-07-02","contact:facebook":"LeGrandbreguet","contact:instagram":"legrandbreguet","diet:vegetarian":"yes","email":"reservation@legrandbreguet.com","indoor_seating":"yes","internet_access":"wlan","name":"Le Grand Bréguet","name:en":"Le Grand Bréguet","opening_hours":"Mo-We 08:00-00:00; Th-Sa 08:00-02:00; Su 10:00-18:00","organic":"yes","outdoor_seating":"no","payment:cash":"yes","payment:mastercard":"yes","payment:visa":"yes","phone":"+33 1 43 55 74 92","toilets":"yes","toilets:menstrual_products":"yes","website":"http://www.legrandbreguet.com/","id":"node/7143418478"},"geometry":{"type":"Point","coordinates":[2.3733433,48.8575108]},"id":"node/7143418478"},{"type":"Feature","properties":{"@id":"node/10086428039","addr:housenumber":"20","addr:postcode":"75011","addr:street":"Rue Bréguet","amenity":"restaurant","check_date":"2024-04-06","cuisine":"pizza","email":"amorebasta.paris11@gmail.com","happy_hours":"Mo-Su 18:00-20:00","indoor_seating":"yes","level":"0","name":"Amore & basta","outdoor_seating":"yes","phone":"+33 1 80 06 08 20","website":"https://www.amorebasta.fr/","id":"node/10086428039"},"geometry":{"type":"Point","coordinates":[2.3733351,48.857308]},"id":"node/10086428039"},{"type":"Feature","properties":{"@id":"node/11114591375","amenity":"waste_basket","id":"node/11114591375"},"geometry":{"type":"Point","coordinates":[2.3727366,48.8572011]},"id":"node/11114591375"},{"type":"Feature","properties":{"@id":"node/11114591399","leaf_cycle":"deciduous","leaf_type":"broadleaved","natural":"tree","id":"node/11114591399"},"geometry":{"type":"Point","coordinates":[2.3726982,48.8574296]},"id":"node/11114591399"},{"type":"Feature","properties":{"@id":"node/11114591402","amenity":"bar","check_date":"2025-06-19","name":"Le Génie sous les étoiles","id":"node/11114591402"},"geometry":{"type":"Point","coordinates":[2.3729865,48.8575774]},"id":"node/11114591402"},{"type":"Feature","properties":{"@id":"node/11861639869","addr:housenumber":"18","addr:postcode":"75011","addr:street":"Rue Bréguet","amenity":"restaurant","cuisine":"asian","name":"Le bol de Gautama","opening_hours":"Mo-Fr 12:00-15:00","phone":"+33 7 85 69 96 37","ref:FR:SIRET":"89439281000020","id":"node/11861639869"},"geometry":{"type":"Point","coordinates":[2.3730967,48.8572545]},"id":"node/11861639869"},{"type":"Feature","properties":{"@id":"node/12978106931","amenity":"bicycle_rental","bicycle_rental":"docking_station","brand":"Vélib' Métropole","brand:wikidata":"Q1120762","capacity":"43","name":"Froment - Bréguet","network":"Vélib' Métropole","network:wikidata":"Q1120762","note":"2ème partie de la station","operator":"Smovengo","operator:type":"private","operator:wikidata":"Q47008427","ref":"11025","wikidata":"Q86254536","id":"node/12978106931"},"geometry":{"type":"Point","coordinates":[2.3731544,48.8573029]},"id":"node/12978106931"}]}