{"type":"FeatureCollection","features":[{"type":"Feature","properties":{"@id":"way/63639113","building":"yes","building:levels":"5","source":"cadastre-dgi-fr source : Direction Générale des Impôts - Cadastre. Mise à jour : 2010","id":"way/63639113"},"geometry":{"type":"Polygon","coordinates":[[[2.3715768,48.8551702],[2.3718163,48.8550464],[2.3717622,48.854997],[2.3718085,48.8549764],[2.3718834,48.8550524],[2.3719016,48.8550708],[2.3719105,48.855108],[2.3716548,48.8552437],[2.3715768,48.8551702]]]},"id":"way/63639113"},{"type":"Feature","properties":{"@id":"way/63640136","architect":"Studio Vincent Eschalier","building":"office","building:levels":"6","roof:levels":"1","source":"cadastre-dgi-fr source : Direction Générale des Impôts - Cadastre. Mise à jour : 2010","start_date":"2022","id":"way/63640136"},"geometry":{"type":"Polygon","coordinates":[[[2.3722174,48.8548985],[2.3722294,48.8549035],[2.372208,48.8549282],[2.3723552,48.855068],[2.3723541,48.8550691],[2.3723581,48.8550707],[2.3723715,48.8550843],[2.3723204,48.8551333],[2.3722772,48.8551747],[2.3721162,48.8551036],[2.3721004,48.8551087],[2.3720665,48.8550742],[2.3719109,48.8549154],[2.3718246,48.8548273],[2.3719185,48.8547681],[2.3722215,48.8548953],[2.3722174,48.8548985]]]},"id":"way/63640136"},{"type":"Feature","properties":{"@id":"way/63640867","building":"yes","building:colour":"silver","building:levels":"12","source":"cadastre-dgi-fr source : Direction Générale des Impôts - Cadastre. Mise à jour : 2010","id":"way/63640867"},"geometry":{"type":"Polygon","coordinates":[[[2.3728071,48.8551304],[2.3726834,48.8550841],[2.3725693,48.8551801],[2.3725581,48.8551756],[2.3725116,48.8552164],[2.3723204,48.8551333],[2.3723715,48.8550843],[2.3723774,48.8550786],[2.3723581,48.8550707],[2.3723541,48.8550691],[2.3723552,48.855068],[2.3723988,48.8550243],[2.3723917,48.8550221],[2.3724295,48.8549872],[2.3724809,48.8549409],[2.3725763,48.8548461],[2.3726847,48.8548884],[2.3727273,48.8549051],[2.3729616,48.8549965],[2.3729845,48.8550054],[2.3730104,48.8550154],[2.3729087,48.8551033],[2.3728685,48.8551381],[2.3728531,48.8551512],[2.3728294,48.8551405],[2.3728071,48.8551304]]]},"id":"way/63640867"},{"type":"Feature","properties":{"@id":"way/63642759","building":"yes","building:levels":"7","source":"cadastre-dgi-fr source : Direction Générale des Impôts - Cadastre. Mise à jour : 2010","id":"way/63642759"},"geometry":{"type":"Polygon","coordinates":[[[2.3717547,48.8553375],[2.371801,48.8552918],[2.3717887,48.855281],[2.3717428,48.8553066],[2.3717523,48.8553163],[2.3717398,48.8553236],[2.3716911,48.8552778],[2.3716548,48.8552437],[2.3719105,48.855108],[2.3719345,48.8552134],[2.3719555,48.8553054],[2.3718924,48.8553662],[2.3718393,48.8554174],[2.3717547,48.8553375]]]},"id":"way/63642759"},{"type":"Feature","properties":{"@id":"way/63648610","building":"yes","building:levels":"7","source":"cadastre-dgi-fr source : Direction Générale des Impôts - Cadastre. Mise à jour : 2010","id":"way/63648610"},"geometry":{"type":"Polygon","coordinates":[[[2.3722247,48.8552248],[2.3721698,48.8552773],[2.3721031,48.8552676],[2.3720889,48.8551937],[2.372074,48.8551166],[2.3721004,48.8551087],[2.3721162,48.8551036],[2.3722772,48.8551747],[2.3722489,48.8552015],[2.3722041,48.8551815],[2.3721833,48.8551963],[2.3722264,48.8552232],[2.3722247,48.8552248]]]},"id":"way/63648610"},{"type":"Feature","properties":{"@id":"way/63648908","building":"apartments","building:levels":"8","source":"cadastre-dgi-fr source : Direction Générale des Impôts - Cadastre. Mise à jour : 2010","id":"way/63648908"},"geometry":{"type":"Polygon","coordinates":[[[2.3722535,48.8558829],[2.372154,48.855841],[2.3720406,48.8557933],[2.372149,48.8556998],[2.3722303,48.855732],[2.3721989,48.8557647],[2.3722036,48.8557667],[2.3722043,48.8557699],[2.3722643,48.8557943],[2.372264,48.8557974],[2.3722717,48.8558006],[2.3723,48.8557711],[2.3722836,48.8557646],[2.3722791,48.8557684],[2.3722362,48.85575],[2.3722466,48.8557391],[2.3723545,48.8557826],[2.3723144,48.8558227],[2.3723051,48.8558319],[2.3722535,48.8558829]]]},"id":"way/63648908"},{"type":"Feature","properties":{"@id":"way/4039340","cycleway:both":"no","highway":"residential","lit":"yes","maxspeed":"30","name":"Rue Saint-Sabin","name:etymology":"Charles Pierre Angelenne de Saint-Sabin était échevin de la Ville de Paris lorsque le tracé de cette voie fut rectifié en 1777.","oneway":"yes","oneway:bicycle":"no","sidewalk:both":"separate","smoothness":"good","surface":"asphalt","id":"way/4039340"},"geometry":{"type":"LineString","coordinates":[[2.3713714,48.8544152],[2.3714201,48.8544754],[2.3719839,48.8550777],[2.3720189,48.8553212],[2.3719958,48.8553482],[2.3716895,48.8556485],[2.3716475,48.8556896],[2.3716033,48.8557324],[2.3710593,48.8562673]]},"id":"way/4039340"},{"type":"Feature","properties":{"@id":"way/15276201","cycleway:both":"no","highway":"residential","lit":"yes","maxspeed":"30","name":"Rue Sedaine","name:etymology:wikidata":"Q367243","oneway":"yes","oneway:bicycle":"no","sidewalk:both":"separate","sidewalk:both:surface":"asphalt","smoothness":"good","surface":"asphalt","id":"way/15276201"},"geometry":{"type":"LineString","coordinates":[[2.378584,48.8587156],[2.3785094,48.8586794],[2.3784539,48.8586564],[2.3770624,48.8579674],[2.3769877,48.8579304],[2.3769245,48.8579039],[2.3763905,48.8576786],[2.3753905,48.8572554],[2.3742378,48.8567709],[2.3735457,48.8564741],[2.3734868,48.8564487],[2.3734041,48.8564138],[2.3730312,48.8562586],[2.3717096,48.855707],[2.3716475,48.8556896],[2.371581,48.8556635],[2.3705948,48.8554449],[2.3704872,48.855449]]},"id":"way/15276201"},{"type":"Feature","properties":{"@id":"way/1190407554","footway":"sidewalk","highway":"footway","surface":"asphalt","id":"way/1190407554"},"geometry":{"type":"LineString","coordinates":[[2.3719639,48.8553179],[2.3716387,48.8556282]]},"id":"way/1190407554"},{"type":"Feature","properties":{"@id":"way/1190407555","footway":"sidewalk","highway":"footway","surface":"asphalt","id":"way/1190407555"},"geometry":{"type":"LineString","coordinates":[[2.3713601,48.8544995],[2.3714349,48.8545648],[2.3715448,48.8546779],[2.3719146,48.8550673],[2.3719639,48.8553179],[2.371976,48.855319]]},"id":"way/1190407555"},{"type":"Feature","properties":{"@id":"way/1190407560","footway":"sidewalk","highway":"footway","lit":"yes","surface":"paving_stones","id":"way/1190407560"},"geometry":{"type":"LineString","coordinates":[[2.3716149,48.8556358],[2.3705789,48.8554062],[2.3705843,48.8554225]]},"id":"way/1190407560"},{"type":"Feature","properties":{"@id":"way/1190407561","footway":"sidewalk","highway":"footway","surface":"asphalt","id":"way/1190407561"},"geometry":{"type":"LineString","coordinates":[[2.3716059,48.8556446],[2.3716149,48.8556358],[2.3716387,48.8556282],[2.3716525,48.8556336]]},"id":"way/1190407561"},{"type":"Feature","properties":{"@id":"way/1190407562","footway":"sidewalk","highway":"footway","lit":"yes","surface":"asphalt","id":"way/1190407562"},"geometry":{"type":"LineString","coordinates":[[2.3706259,48.8555071],[2.3706681,48.8555061],[2.3715331,48.8557001]]},"id":"way/1190407562"},{"type":"Feature","properties":{"@id":"way/1190407566","footway":"sidewalk","highway":"footway","surface":"asphalt","id":"way/1190407566"},"geometry":{"type":"LineString","coordinates":[[2.3715472,48.8557185],[2.3712267,48.8560324],[2.3710064,48.8562442],[2.3710305,48.8562598]]},"id":"way/1190407566"},{"type":"Feature","properties":{"@id":"way/1190407567","footway":"sidewalk","highway":"footway","id":"way/1190407567"},"geometry":{"type":"LineString","coordinates":[[2.3715455,48.8556903],[2.3715331,48.8557001],[2.3715472,48.8557185],[2.3715589,48.8557214]]},"id":"way/1190407567"},{"type":"Feature","properties":{"@id":"way/1190407575","footway":"sidewalk","highway":"footway","surface":"asphalt","id":"way/1190407575"},"geometry":{"type":"LineString","coordinates":[[2.3720695,48.8553254],[2.3720773,48.8552299],[2.3720437,48.8550684],[2.3714479,48.854462],[2.3714349,48.8544686]]},"id":"way/1190407575"},{"type":"Feature","properties":{"@id":"way/1190407576","footway":"sidewalk","highway":"footway","surface":"asphalt","id":"way/1190407576"},"geometry":{"type":"LineString","coordinates":[[2.3717295,48.8556647],[2.3720276,48.8553788],[2.3720387,48.8553678],[2.3720665,48.8553375],[2.3720695,48.8553254],[2.3720531,48.855323]]},"id":"way/1190407576"},{"type":"Feature","properties":{"@id":"way/1190407577","footway":"sidewalk","highway":"footway","surface":"asphalt","id":"way/1190407577"},"geometry":{"type":"LineString","coordinates":[[2.3717367,48.8556781],[2.3717295,48.8556647],[2.3717195,48.8556607]]},"id":"way/1190407577"},{"type":"Feature","properties":{"@id":"way/1190407578","footway":"sidewalk","highway":"footway","surface":"asphalt","id":"way/1190407578"},"geometry":{"type":"LineString","coordinates":[[2.3734284,48.8563891],[2.3730548,48.8562347],[2.3727076,48.8560851],[2.3717367,48.8556781],[2.3717299,48.8556847]]},"id":"way/1190407578"},{"type":"Feature","properties":{"@id":"way/1190407597","footway":"sidewalk","highway":"footway","surface":"asphalt","id":"way/1190407597"},"geometry":{"type":"LineString","coordinates":[[2.3716475,48.855743],[2.3712414,48.8561383],[2.3711093,48.8562636],[2.3711029,48.8562828],[2.3710865,48.8562744]]},"id":"way/1190407597"},{"type":"Feature","properties":{"@id":"way/1190407598","footway":"sidewalk","highway":"footway","surface":"asphalt","id":"way/1190407598"},"geometry":{"type":"LineString","coordinates":[[2.3716823,48.8557361],[2.3716475,48.855743],[2.371633,48.8557397]]},"id":"way/1190407598"},{"type":"Feature","properties":{"@id":"way/1190407599","footway":"sidewalk","highway":"footway","surface":"asphalt","id":"way/1190407599"},"geometry":{"type":"LineString","coordinates":[[2.3733725,48.8564491],[2.3724766,48.8560717],[2.3718808,48.8558224],[2.3716823,48.8557361],[2.3716897,48.8557289]]},"id":"way/1190407599"},{"type":"Feature","properties":{"@id":"way/1190765046","crossing":"uncontrolled","crossing:markings":"yes","footway":"crossing","highway":"footway","lit":"yes","surface":"asphalt","id":"way/1190765046"},"geometry":{"type":"LineString","coordinates":[[2.371976,48.855319],[2.3720189,48.8553212],[2.3720531,48.855323]]},"id":"way/1190765046"},{"type":"Feature","properties":{"@id":"way/1190765062","crossing":"uncontrolled","crossing:markings":"yes","footway":"crossing","highway":"footway","lit":"yes","surface":"asphalt","id":"way/1190765062"},"geometry":{"type":"LineString","coordinates":[[2.371633,48.8557397],[2.3716033,48.8557324],[2.3715589,48.8557214]]},"id":"way/1190765062"},{"type":"Feature","properties":{"@id":"way/1190765063","crossing":"uncontrolled","crossing:markings":"yes","footway":"crossing","highway":"footway","lit":"yes","surface":"asphalt","id":"way/1190765063"},"geometry":{"type":"LineString","coordinates":[[2.3717299,48.8556847],[2.3717096,48.855707],[2.3716897,48.8557289]]},"id":"way/1190765063"},{"type":"Feature","properties":{"@id":"way/1190765064","crossing":"uncontrolled","crossing:markings":"yes","footway":"crossing","highway":"footway","lit":"yes","surface":"asphalt","id":"way/1190765064"},"geometry":{"type":"LineString","coordinates":[[2.3716525,48.8556336],[2.3716895,48.8556485],[2.3717195,48.8556607]]},"id":"way/1190765064"},{"type":"Feature","properties":{"@id":"way/1190765065","crossing":"uncontrolled","crossing:markings":"yes","footway":"crossing","highway":"footway","lit":"yes","surface":"asphalt","id":"way/1190765065"},"geometry":{"type":"LineString","coordinates":[[2.3715455,48.8556903],[2.371581,48.8556635],[2.3716059,48.8556446]]},"id":"way/1190765065"},{"type":"Feature","properties":{"@id":"node/1301155724","addr:housenumber":"10","addr:street":"Rue Saint-Sabin","amenity":"restaurant","check_date":"2026-01-23","check_date:opening_hours":"2026-01-23","cuisine":"pizza","name":"Verace Bastille","opening_hours":"Mo-Fr 12:00-15:00,19:00-23:00; Sa 19:00-23:00; Su off","phone":"+33 9 52 51 37 90","ref:FR:SIRET":"84317620700010","website":"https://verace.fr","id":"node/1301155724"},"geometry":{"type":"Point","coordinates":[2.3721148,48.8551848]},"id":"node/1301155724"},{"type":"Feature","properties":{"@id":"node/2367580061","addr:housenumber":"7","addr:street":"Rue Sedaine","check_date":"2024-09-27","email":"frappeboulangerie@outlook.com","name":"Frappe","opening_hours":"Tu-Sa 08:00-20:00; Su 08:00-18:00","shop":"bakery","website":"https://www.frappeboulangerie.fr/","wheelchair":"yes","id":"node/2367580061"},"geometry":{"type":"Point","coordinates":[2.3714309,48.8557351]},"id":"node/2367580061"},{"type":"Feature","properties":{"@id":"node/3377707578","addr:city":"Paris","addr:housenumber":"9","addr:postcode":"75011","addr:street":"Rue Sedaine","amenity":"cafe","check_date":"2024-04-06","musical_instrument:piano":"yes","name":"Le Café des Chats","opening_hours":"Tu-Th 12:00-22:30, Fr-Sa 12:00-23:00, Su 12:00-22:30","outdoor_seating":"no","theme":"cat","website":"https://www.lecafedeschats.fr/","id":"node/3377707578"},"geometry":{"type":"Point","coordinates":[2.3718267,48.8558415]},"id":"node/3377707578"},{"type":"Feature","properties":{"@id":"node/3637290899","addr:city":"Paris","addr:postcode":"75011","amenity":"restaurant","changing_table":"no","cuisine":"french","email":"contact@lescomperesparis.fr","level":"0","name":"Les Compères","opening_hours":"Mo-Su 08:00-01:00","outdoor_seating":"yes","phone":"+33 1 48 05 63 96","smoking":"outside","toilets":"yes","toilets:access":"customers","toilets:disposal":"flush","toilets:position":"seated","toilets:wheelchair":"no","website":"https://lescomperesparis.fr","wheelchair":"limited","id":"node/3637290899"},"geometry":{"type":"Point","coordinates":[2.3715913,48.8555674]},"id":"node/3637290899"},{"type":"Feature","properties":{"@id":"node/3639091000","addr:city":"Paris","addr:housenumber":"16","addr:postcode":"75011","addr:street":"Rue Saint-Sabin","amenity":"restaurant","check_date":"2024-04-06","cuisine":"french","name":"Café de l'Industrie","opening_hours":"Mo-Su 10:00-2:00","outdoor_seating":"no","phone":"+331 47 00 13 53","wheelchair":"limited","id":"node/3639091000"},"geometry":{"type":"Point","coordinates":[2.3718228,48.8556578]},"id":"node/3639091000"},{"type":"Feature","properties":{"@id":"node/4529746054","addr:city":"Paris","addr:housenumber":"13","addr:postcode":"75011","addr:street":"Rue Saint-Sabin","amenity":"bar","check_date":"2026-01-23","check_date:opening_hours":"2026-01-23","description":"Vins et fromages","email":"contact@lespetitscrus.com","name":"Les Petits Crus","opening_hours":"Mo-Sa 18:00-24:00","phone":"+33 9 67 29 89 33","ref:FR:SIRET":"81764187100014","website":"https://lespetitscrus.com/","wheelchair":"no","id":"node/4529746054"},"geometry":{"type":"Point","coordinates":[2.3719092,48.8552959]},"id":"node/4529746054"},{"type":"Feature","properties":{"@id":"node/4784240721","addr:city":"Paris","addr:housenumber":"11","addr:postcode":"75011","addr:street":"Rue Saint-Sabin","name":"Born Bad Records","name:fr":"Born Bad Records","opening_hours":"Mo-Sa 12:00-19:30","phone":"+33 9 53 07 84 58","ref:FR:SIRET":"79287328300016","shop":"music","website":"https://www.bornbad.fr/","wheelchair":"yes","id":"node/4784240721"},"geometry":{"type":"Point","coordinates":[2.3718829,48.8552113]},"id":"node/4784240721"},{"type":"Feature","properties":{"@id":"node/5280709427","check_date":"2026-01-09","check_date:opening_hours":"2025-11-15","name":"Papeterie Saint-Sabin","opening_hours":"Tu-Sa 12:00-20:00","phone":"+33 1 47 00 78 63","ref:FR:SIRET":"59205351600015","shop":"stationery","wheelchair":"yes","id":"node/5280709427"},"geometry":{"type":"Point","coordinates":[2.3719307,48.8555445]},"id":"node/5280709427"},{"type":"Feature","properties":{"@id":"node/7046303006","delivery":"only","description":"dark store","name":"Flink","note":"à tagguer comme entrepôt ? cf. https://www.banquedesterritoires.fr/dark-stores-le-conseil-detat-donne-raison-la-ville-de-paris","shop":"convenience","id":"node/7046303006"},"geometry":{"type":"Point","coordinates":[2.3713995,48.8555431]},"id":"node/7046303006"},{"type":"Feature","properties":{"@id":"node/7124178116","addr:city":"Paris","addr:housenumber":"9","addr:postcode":"75011","addr:street":"Rue Saint-Sabin","amenity":"restaurant","cuisine":"chinese","internet_access":"wlan","internet_access:fee":"no","name":"锅内锅外 Fondue Le Festin","name:fr":"Fondue Le Festin","name:zh":"锅内锅外","opening_hours":"Mo 18:30-23:00; Tu-Su 12:00-15:00,18:30-23:00","phone":"+33 1 55 28 88 88","smoking":"no","toilets":"yes","toilets:wheelchair":"yes","wheelchair":"yes","id":"node/7124178116"},"geometry":{"type":"Point","coordinates":[2.3718283,48.8550949]},"id":"node/7124178116"},{"type":"Feature","properties":{"@id":"node/10763780644","addr:city":"Paris","addr:housenumber":"12","addr:postcode":"75011","addr:street":"Rue Saint-Sabin","amenity":"cafe","level":"0","name":"La Manufacture de café Alain Ducasse","opening_hours":"Mo-Tu 11:00-19:00 ; We-Fr 10:00-19:00; Sa 10:00-19:30","smoking":"no","takeaway":"yes","toilets":"yes","toilets:access":"customers","id":"node/10763780644"},"geometry":{"type":"Point","coordinates":[2.3721185,48.8553462]},"id":"node/10763780644"},{"type":"Feature","properties":{"@id":"node/10763780647","addr:housenumber":"10","addr:street":"Rue Saint-Sabin","amenity":"restaurant","check_date":"2025-05-22","cuisine":"italian","name":"Costanza","old_name":"Mikuna","opening_hours":"Mo-Fr 11:30-15:00,18:00-23:00; Sa 18:00-23:00","phone":"+33 1 86 04 48 97","takeaway":"yes","id":"node/10763780647"},"geometry":{"type":"Point","coordinates":[2.372121,48.8552396]},"id":"node/10763780647"},{"type":"Feature","properties":{"@id":"node/10763780649","addr:city":"Paris","addr:housenumber":"13","addr:postcode":"75011","addr:street":"Rue Saint-Sabin","amenity":"restaurant","cuisine":"italian","name":"Piadineria","opening_hours":"Mo-Fr 11:30-15:00, 18:30-22:30; Sa 12:00-15:00, 19:00-23:00","phone":"+33 6 51 89 07 44","id":"node/10763780649"},"geometry":{"type":"Point","coordinates":[2.3718537,48.8553677]},"id":"node/10763780649"},{"type":"Feature","properties":{"@id":"node/10763780650","addr:city":"Paris","addr:housenumber":"7","addr:postcode":"75011","addr:street":"Rue Sedaine","check_date":"2026-01-09","check_date:opening_hours":"2026-01-09","email":"lepiceriedeloic.b@gmail.com","name":"L’épicerie de Loïc B","opening_hours":"Tu,We 10:30-19:00; Th-Sa 10:30-19:30; Su 10:30-14:00","phone":"+33 1 83 06 54 31","ref:FR:SIRET":"88197488500025","shop":"deli","website":"https://epiceriedeloicb.com/","id":"node/10763780650"},"geometry":{"type":"Point","coordinates":[2.3713221,48.8556952]},"id":"node/10763780650"},{"type":"Feature","properties":{"@id":"node/10769142097","addr:city":"Paris","addr:housenumber":"16","addr:postcode":"75011","addr:street":"Rue Sedaine","amenity":"restaurant","cuisine":"sushi","name":"Sushi Hiroshi","outdoor_seating":"no","website":"https://sushi-hiroshi.com","id":"node/10769142097"},"geometry":{"type":"Point","coordinates":[2.3720939,48.8557938]},"id":"node/10769142097"},{"type":"Feature","properties":{"@id":"node/11253914881","addr:housenumber":"20","addr:street":"Rue Saint-Sabin","check_date":"2024-10-15","name":"Simon Services","opening_hours":"Mo-Sa 09:00-19:00; PH off","shop":"shoe_repair","id":"node/11253914881"},"geometry":{"type":"Point","coordinates":[2.3716101,48.8558343]},"id":"node/11253914881"}]}