{"type":"FeatureCollection","features":[{"type":"Feature","properties":{"@id":"way/63199554","building":"yes","building:levels":"3","source":"cadastre-dgi-fr source : Direction Générale des Impôts - Cadastre. Mise à jour : 2010","id":"way/63199554"},"geometry":{"type":"Polygon","coordinates":[[[2.3674584,48.8810292],[2.3674234,48.8809985],[2.3674866,48.8809668],[2.3675597,48.8809299],[2.3676826,48.8808678],[2.3677688,48.8809678],[2.3677831,48.8809843],[2.3675775,48.8810855],[2.3675415,48.8811029],[2.3674584,48.8810292]]]},"id":"way/63199554"},{"type":"Feature","properties":{"@id":"way/63201336","addr:city":"Paris","addr:country":"FR","addr:full":"188 quai de Valmy 75010 Paris","addr:housenumber":"188","addr:postcode":"75010","addr:street":"Quai de Valmy","amenity":"fire_station","building":"yes","building:levels":"2","check_date":"2024-10-05","emergency:phone":"01 40 35 74 58","name":"Centre de secours Landon","official_name":"LANDON","operator":"BSPP","operator:en":"Paris Fire Brigade","operator:fr":"BSPP","operator:wikidata":"Q583422","phone":"+33 1 40 35 58 31","ref":"LAND","ref:FR:BSPP:CIE":"10","ref:FR:BSPP:EM_GRPT":"0","ref:FR:BSPP:GRPT":"1","ref:FR:BSPP:PC_CIE":"1","source":"cadastre-dgi-fr source : Direction Générale des Impôts - Cadastre. Mise à jour : 2010","source:BSPP":"data.gouv.fr","wikidata":"Q28445256","id":"way/63201336"},"geometry":{"type":"Polygon","coordinates":[[[2.3682346,48.8812396],[2.3681457,48.8811362],[2.3679762,48.8809392],[2.3678894,48.8808382],[2.3678292,48.8807682],[2.3677472,48.8806729],[2.3677829,48.8806598],[2.3677091,48.8805719],[2.3677709,48.8805481],[2.3678492,48.8806381],[2.3678592,48.8806342],[2.3678628,48.8806381],[2.3679045,48.8806234],[2.3681385,48.8808912],[2.3683893,48.8811783],[2.3682346,48.8812396]]]},"id":"way/63201336"},{"type":"Feature","properties":{"@id":"way/63202212","building":"apartments","building:levels":"7","source":"cadastre-dgi-fr source : Direction Générale des Impôts - Cadastre. Mise à jour : 2010","id":"way/63202212"},"geometry":{"type":"Polygon","coordinates":[[[2.367122,48.8805816],[2.3673396,48.8804692],[2.3674297,48.8805742],[2.3674497,48.8805975],[2.3674688,48.8806197],[2.367321,48.8806948],[2.3672499,48.8806348],[2.367182,48.8806623],[2.3671321,48.8806183],[2.3671516,48.8806064],[2.367122,48.8805816]]]},"id":"way/63202212"},{"type":"Feature","properties":{"@id":"way/780476041","barrier":"fence","leisure":"dog_park","opening_hours":"24/7","was:natural":"scrub","id":"way/780476041"},"geometry":{"type":"Polygon","coordinates":[[[2.368235,48.8802484],[2.3679078,48.8798674],[2.3679841,48.8798393],[2.3683045,48.8802179],[2.368257,48.8802387],[2.368235,48.8802484]]]},"id":"way/780476041"},{"type":"Feature","properties":{"@id":"way/48964578","cycleway":"on_street","highway":"cycleway","lit":"yes","name":"Quai de Valmy","name:etymology:wikidata":"Q4411","oneway":"yes","sidewalk":"separate","smoothness":"good","surface":"asphalt","id":"way/48964578"},"geometry":{"type":"LineString","coordinates":[[2.3690673,48.8823375],[2.3690078,48.8822956],[2.3689435,48.8822583],[2.3684807,48.881725],[2.3684777,48.8816882],[2.3682404,48.881415],[2.3682106,48.8814123],[2.3679259,48.8810834],[2.3672968,48.8803555]]},"id":"way/48964578"},{"type":"Feature","properties":{"@id":"way/78443927","foot":"yes","highway":"footway","lit":"no","smoothness":"intermediate","surface":"sett","id":"way/78443927"},"geometry":{"type":"LineString","coordinates":[[2.3678368,48.8804954],[2.367756,48.8805258]]},"id":"way/78443927"},{"type":"Feature","properties":{"@id":"way/310297255","cycleway:left":"no","cycleway:right":"separate","highway":"residential","lit":"yes","maxspeed":"30","motor_vehicle":"destination","name":"Quai de Valmy","name:etymology:wikidata":"Q4411","oneway":"yes","parking:left":"no","parking:right":"lane","parking:right:orientation":"parallel","sidewalk:both":"separate","smoothness":"good","source:motor_vehicle:access":"http://www.paris.fr/loisirs/se-promener-a-paris/paris-respire-et-vous/quartier-canal-saint-martin-10e/rub_9642_dossier_91813_port_24046_sheet_17154","surface":"asphalt","id":"way/310297255"},"geometry":{"type":"LineString","coordinates":[[2.3690673,48.8823375],[2.3673386,48.8803232],[2.3671424,48.880097],[2.3670903,48.8800361]]},"id":"way/310297255"},{"type":"Feature","properties":{"@id":"way/310297257","cycleway":"on_street","highway":"cycleway","lit":"yes","name":"Quai de Valmy","name:etymology:wikidata":"Q4411","note:highway:cycleway":"portion sans séparation, type cycleway=lane","oneway":"yes","sidewalk":"separate","smoothness":"good","surface":"asphalt","id":"way/310297257"},"geometry":{"type":"LineString","coordinates":[[2.3672968,48.8803555],[2.3670894,48.880114],[2.3670776,48.8800813],[2.3670903,48.8800361]]},"id":"way/310297257"},{"type":"Feature","properties":{"@id":"way/780476038","foot":"yes","footway":"sidewalk","highway":"footway","lit":"no","smoothness":"good","surface":"asphalt","id":"way/780476038"},"geometry":{"type":"LineString","coordinates":[[2.3676509,48.8805668],[2.3676326,48.8805739]]},"id":"way/780476038"},{"type":"Feature","properties":{"@id":"way/1191260091","footway":"sidewalk","highway":"footway","lit":"yes","surface":"asphalt","id":"way/1191260091"},"geometry":{"type":"LineString","coordinates":[[2.3672015,48.8800772],[2.3676326,48.8805739]]},"id":"way/1191260091"},{"type":"Feature","properties":{"@id":"way/1191268251","footway":"sidewalk","highway":"footway","id":"way/1191268251"},"geometry":{"type":"LineString","coordinates":[[2.3677923,48.8797519],[2.3679339,48.8797896],[2.3680184,48.8798404],[2.3683223,48.8802238],[2.3683745,48.8803809]]},"id":"way/1191268251"},{"type":"Feature","properties":{"@id":"way/1191268252","highway":"footway","id":"way/1191268252"},"geometry":{"type":"LineString","coordinates":[[2.3683745,48.8803809],[2.368226,48.8802635],[2.3678944,48.8798815],[2.3677462,48.8798172]]},"id":"way/1191268252"},{"type":"Feature","properties":{"@id":"way/1191268253","highway":"footway","id":"way/1191268253"},"geometry":{"type":"LineString","coordinates":[[2.3683745,48.8803809],[2.3684891,48.8805508],[2.3687764,48.8808389],[2.3690299,48.881162],[2.3692598,48.8814309],[2.3692893,48.8814657]]},"id":"way/1191268253"},{"type":"Feature","properties":{"@id":"way/1192361270","footway":"sidewalk","highway":"footway","lit":"yes","surface":"asphalt","id":"way/1192361270"},"geometry":{"type":"LineString","coordinates":[[2.3679027,48.8810928],[2.3674672,48.8805895]]},"id":"way/1192361270"},{"type":"Feature","properties":{"@id":"way/1192361271","footway":"sidewalk","highway":"footway","lit":"yes","surface":"asphalt","id":"way/1192361271"},"geometry":{"type":"LineString","coordinates":[[2.3674672,48.8805895],[2.3670648,48.8801218]]},"id":"way/1192361271"},{"type":"Feature","properties":{"@id":"way/1264066525","footway":"sidewalk","highway":"footway","lit":"yes","smoothness":"good","surface":"asphalt","id":"way/1264066525"},"geometry":{"type":"LineString","coordinates":[[2.3691727,48.8823675],[2.3676326,48.8805739]]},"id":"way/1264066525"},{"type":"Feature","properties":{"@id":"way/1385787488","footway":"sidewalk","highway":"footway","lit":"yes","surface":"asphalt","id":"way/1385787488"},"geometry":{"type":"LineString","coordinates":[[2.3674672,48.8805895],[2.3674497,48.8805975]]},"id":"way/1385787488"},{"type":"Feature","properties":{"@id":"way/1467054403","highway":"footway","id":"way/1467054403"},"geometry":{"type":"LineString","coordinates":[[2.368257,48.8802387],[2.3682655,48.8802472]]},"id":"way/1467054403"},{"type":"Feature","properties":{"@id":"way/1467054404","highway":"footway","id":"way/1467054404"},"geometry":{"type":"LineString","coordinates":[[2.368226,48.8802635],[2.3682655,48.8802472],[2.3683223,48.8802238],[2.3683624,48.8802097]]},"id":"way/1467054404"},{"type":"Feature","properties":{"@id":"node/11847237790","genus":"Platanus","leaf_type":"broadleaved","natural":"tree","species":"Platanus × hispanica","species:wikidata":"Q161374","id":"node/11847237790"},"geometry":{"type":"Point","coordinates":[2.3672905,48.8801682]},"id":"node/11847237790"},{"type":"Feature","properties":{"@id":"node/12149891224","amenity":"waste_basket","id":"node/12149891224"},"geometry":{"type":"Point","coordinates":[2.3676397,48.8805441]},"id":"node/12149891224"},{"type":"Feature","properties":{"@id":"node/13455982358","amenity":"bench","backrest":"yes","fixme":"position & number of benches","seats":"4","id":"node/13455982358"},"geometry":{"type":"Point","coordinates":[2.3682276,48.8801527]},"id":"node/13455982358"}]}