{"type":"FeatureCollection","features":[{"type":"Feature","properties":{"@id":"way/34393537","cycleway:both":"no","highway":"residential","lanes":"1","lit":"yes","maxspeed":"30","name":"Rue de Valenciennes","name:etymology:wikidata":"Q163795","oneway":"yes","oneway:bicycle":"no","sidewalk:both":"separate","smoothness":"good","source:maxspeed":"FR:urban","surface":"asphalt","id":"way/34393537"},"geometry":{"type":"LineString","coordinates":[[2.3543067,48.8782438],[2.3544148,48.87829],[2.3544578,48.8783028],[2.3545201,48.8783187],[2.355442,48.8782192],[2.3555521,48.8782082]]},"id":"way/34393537"},{"type":"Feature","properties":{"@id":"way/45401902","cycleway":"separate","highway":"secondary","lanes":"2","lit":"yes","maxspeed":"30","name":"Rue La Fayette","name:etymology:wikidata":"Q186652","name:zh":"老佛爷路","oneway":"yes","oneway:bicycle":"yes","sidewalk:both":"separate","sidewalk:both:surface":"asphalt","smoothness":"good","source:maxspeed":"FR:urban","surface":"asphalt","id":"way/45401902"},"geometry":{"type":"LineString","coordinates":[[2.3540762,48.8785122],[2.354298,48.8785674],[2.3543409,48.878578],[2.3548375,48.8787016],[2.3550929,48.8787651]]},"id":"way/45401902"},{"type":"Feature","properties":{"@id":"way/51110034","colour":"green","cycleway":"sidewalk","enforcement:operator":"Police nationale","foot":"no","highway":"cycleway","lit":"yes","name":"Boulevard de Magenta","name:etymology:wikidata":"Q681430","name:zh":"马真塔大道","oneway":"yes","operator":"Ville de Paris","operator:authority":"Maire de Paris après avis du préfet de police","operator:authority:related_law":"IV de l'article L. 2512-14 du code général des collectivités territoriales","operator:url":"https://cdn.paris.fr/paris/2020/02/26/5bf469a311d0beb9911e92d113781550.ai","smoothness":"good","surface":"asphalt","id":"way/51110034"},"geometry":{"type":"LineString","coordinates":[[2.3521897,48.8804341],[2.3523039,48.8803059],[2.3523954,48.8802202],[2.3529903,48.8795376],[2.3531087,48.8794077],[2.3532587,48.8792461],[2.3533283,48.879168],[2.3537527,48.8786918],[2.3538144,48.8786213],[2.353835,48.8785974],[2.3538912,48.8785317],[2.3539474,48.8784786],[2.3539938,48.878418],[2.3540155,48.8783963],[2.3540722,48.8783333],[2.354677,48.8776748],[2.3549111,48.8774116],[2.3550128,48.877289],[2.3556266,48.8766011],[2.3556688,48.8765557],[2.3556718,48.8765407]]},"id":"way/51110034"},{"type":"Feature","properties":{"@id":"way/1186701109","bicycle":"yes","highway":"cycleway","lit":"yes","name":"Rue La Fayette","name:etymology:wikidata":"Q186652","name:zh":"老佛爷路","oneway":"no","smoothness":"good","surface":"asphalt","id":"way/1186701109"},"geometry":{"type":"LineString","coordinates":[[2.35427,48.8786233],[2.3543042,48.8786346],[2.355575,48.8789691],[2.3557685,48.879014],[2.355912,48.8790551],[2.3567977,48.8792892],[2.3568689,48.879308],[2.3569523,48.8793311],[2.3571041,48.8793562]]},"id":"way/1186701109"},{"type":"Feature","properties":{"@id":"way/1192653437","footway":"sidewalk","highway":"footway","lit":"yes","smoothness":"good","surface":"asphalt","id":"way/1192653437"},"geometry":{"type":"LineString","coordinates":[[2.3554672,48.8782754],[2.355461,48.8782652],[2.3554465,48.8782625],[2.3548081,48.8783296],[2.3544644,48.8783587],[2.3544194,48.8783437]]},"id":"way/1192653437"},{"type":"Feature","properties":{"@id":"way/1192653438","footway":"sidewalk","highway":"footway","lit":"yes","smoothness":"good","surface":"asphalt","id":"way/1192653438"},"geometry":{"type":"LineString","coordinates":[[2.3543649,48.8785262],[2.3547913,48.8786466],[2.354947,48.8786847],[2.3554074,48.8788135],[2.3555796,48.8788552],[2.3555712,48.8788692]]},"id":"way/1192653438"},{"type":"Feature","properties":{"@id":"way/1192933651","footway":"sidewalk","highway":"footway","lit":"yes","smoothness":"good","surface":"asphalt","id":"way/1192933651"},"geometry":{"type":"LineString","coordinates":[[2.3544308,48.8787009],[2.3547048,48.8787707],[2.3553588,48.8789431],[2.3555731,48.8789952]]},"id":"way/1192933651"}]}