{"type":"FeatureCollection","features":[{"type":"Feature","properties":{"@id":"way/63224605","addr:city":"Paris","addr:housenumber":"18","addr:postcode":"75019","addr:street":"Boulevard Sérurier","alt_name":"La Gare Expérimentale","amenity":"arts_centre","building":"yes","building:levels":"3","height":"8","name":"La Gare XP","source":"cadastre-dgi-fr source : Direction Générale des Impôts - Cadastre. Mise à jour : 2010","website":"https://garexp.org/","wikidata":"Q58175243","id":"way/63224605"},"geometry":{"type":"Polygon","coordinates":[[[2.4064322,48.8783804],[2.4065492,48.8784338],[2.4064681,48.8785114],[2.4064049,48.8784825],[2.4063677,48.8785177],[2.4064028,48.8785341],[2.4063072,48.8786163],[2.4061882,48.8785564],[2.4063657,48.8784],[2.4063959,48.878414],[2.4064322,48.8783804]]]},"id":"way/63224605"},{"type":"Feature","properties":{"@id":"way/63234612","building":"yes","source":"cadastre-dgi-fr source : Direction Générale des Impôts - Cadastre. Mise à jour : 2010","id":"way/63234612"},"geometry":{"type":"Polygon","coordinates":[[[2.4067885,48.8787151],[2.4067645,48.8787182],[2.4067553,48.8787196],[2.4067338,48.8787192],[2.4067255,48.8787177],[2.4067084,48.8787114],[2.4067017,48.8787073],[2.4066892,48.8786956],[2.4066835,48.8786821],[2.4067015,48.8786731],[2.4067885,48.8787151]]]},"id":"way/63234612"},{"type":"Feature","properties":{"@id":"way/63243779","addr:city":"Paris","addr:housenumber":"18","addr:postcode":"75019","addr:street":"Boulevard Sérurier","building":"yes","check_date":"2023-10-12","government":"archive","name":"Archives de Paris","office":"government","opening_hours":"Mo 13:30-117:30; Tu-Fr 09:30-17:30; Sa 09:30-17:00","source":"cadastre-dgi-fr source : Direction Générale des Impôts - Cadastre. Mise à jour : 2010","website":"https://archives.paris.fr/","wikidata":"Q2860432","wikimedia_commons":"file:Archives de Paris 001.JPG","wikipedia":"fr:Archives de Paris","id":"way/63243779"},"geometry":{"type":"Polygon","coordinates":[[[2.4068964,48.879273],[2.4067489,48.8793608],[2.406512,48.879186],[2.4066137,48.8791341],[2.4065543,48.8790901],[2.4065404,48.879098],[2.4065331,48.8790926],[2.4064908,48.8791154],[2.4064826,48.8791083],[2.4064946,48.8791006],[2.4063144,48.8789692],[2.4064406,48.8789198],[2.406527,48.8788859],[2.4065504,48.8789014],[2.406573,48.8788877],[2.4065593,48.878879],[2.4066489,48.8788585],[2.4067105,48.8788458],[2.40678,48.8788872],[2.4068133,48.8788796],[2.406852,48.878903],[2.4067126,48.8790035],[2.4067587,48.8790298],[2.4068008,48.8789955],[2.4068677,48.8789201],[2.4070308,48.8789955],[2.4070389,48.8789881],[2.4071486,48.879032],[2.4071356,48.8790442],[2.4071652,48.8790579],[2.4072037,48.8790205],[2.4072624,48.8790202],[2.4070998,48.8791384],[2.4068964,48.879273]]]},"id":"way/63243779"},{"type":"Feature","properties":{"@id":"way/1421316323","highway":"footway","id":"way/1421316323"},"geometry":{"type":"LineString","coordinates":[[2.4047463,48.8785224],[2.4057508,48.8783365]]},"id":"way/1421316323"},{"type":"Feature","properties":{"@id":"node/11257971719","amenity":"waste_basket","id":"node/11257971719"},"geometry":{"type":"Point","coordinates":[2.4061772,48.8789305]},"id":"node/11257971719"},{"type":"Feature","properties":{"@id":"node/11257971721","highway":"street_lamp","id":"node/11257971721"},"geometry":{"type":"Point","coordinates":[2.4062001,48.878749]},"id":"node/11257971721"},{"type":"Feature","properties":{"@id":"node/11257971722","highway":"street_lamp","id":"node/11257971722"},"geometry":{"type":"Point","coordinates":[2.4060935,48.8786442]},"id":"node/11257971722"},{"type":"Feature","properties":{"@id":"node/11257971723","highway":"street_lamp","id":"node/11257971723"},"geometry":{"type":"Point","coordinates":[2.4059906,48.8785399]},"id":"node/11257971723"},{"type":"Feature","properties":{"@id":"node/11257971724","camera:mount":"street_lamp","camera:type":"fixed","highway":"street_lamp","man_made":"surveillance","surveillance":"public","surveillance:type":"camera","id":"node/11257971724"},"geometry":{"type":"Point","coordinates":[2.4058828,48.8784363]},"id":"node/11257971724"},{"type":"Feature","properties":{"@id":"node/11260376082","amenity":"bench","colour":"green","id":"node/11260376082"},"geometry":{"type":"Point","coordinates":[2.406381,48.8789378]},"id":"node/11260376082"},{"type":"Feature","properties":{"@id":"node/11260376083","amenity":"bench","colour":"green","id":"node/11260376083"},"geometry":{"type":"Point","coordinates":[2.4062246,48.8788309]},"id":"node/11260376083"},{"type":"Feature","properties":{"@id":"node/11260376084","amenity":"bench","colour":"green","id":"node/11260376084"},"geometry":{"type":"Point","coordinates":[2.4061668,48.8788483]},"id":"node/11260376084"},{"type":"Feature","properties":{"@id":"node/11260376096","amenity":"bench","colour":"green","id":"node/11260376096"},"geometry":{"type":"Point","coordinates":[2.4065719,48.8788736]},"id":"node/11260376096"},{"type":"Feature","properties":{"@id":"node/11260406555","leaf_type":"broadleaved","natural":"tree","id":"node/11260406555"},"geometry":{"type":"Point","coordinates":[2.4062263,48.8788004]},"id":"node/11260406555"}]}