{"type":"FeatureCollection","features":[{"type":"Feature","properties":{"@id":"way/25477293","busway:right":"lane","cycleway:left":"lane","cycleway:left:lane":"exclusive","cycleway:left:oneway":"-1","cycleway:right":"share_busway","highway":"residential","lanes":"2","lanes:bus":"1","maxspeed":"30","name":"Rue Louise Thuliez","oneway":"yes","oneway:bicycle":"no","parking:both":"no","sidewalk:both":"separate","smoothness":"excellent","surface":"asphalt","id":"way/25477293"},"geometry":{"type":"LineString","coordinates":[[2.3953531,48.8776188],[2.3951122,48.8775991],[2.3949633,48.8775859],[2.3948519,48.8775806],[2.3947612,48.8775741],[2.3945609,48.8775599],[2.394378,48.8775481],[2.3941709,48.8775357],[2.3941135,48.8775319],[2.3939765,48.8775211],[2.3939177,48.8775171],[2.3938077,48.8775088]]},"id":"way/25477293"},{"type":"Feature","properties":{"@id":"way/362917088","cycleway:left":"lane","cycleway:left:lane":"exclusive","cycleway:left:oneway":"-1","cycleway:right":"no","highway":"residential","lit":"yes","maxspeed":"30","name":"Rue des Lilas","name:etymology:wikidata":"Q256004","oneway":"yes","oneway:bicycle":"no","parking:left":"lane","parking:left:orientation":"parallel","parking:right":"no","sidewalk:both":"separate","smoothness":"good","surface":"asphalt","id":"way/362917088"},"geometry":{"type":"LineString","coordinates":[[2.3958181,48.8784666],[2.3957008,48.8782767],[2.3955335,48.877894],[2.3955124,48.8778452],[2.3955209,48.8777946],[2.3955449,48.8777593],[2.3956058,48.8776652]]},"id":"way/362917088"},{"type":"Feature","properties":{"@id":"way/744928062","busway:right":"lane","cycleway:left":"shared_lane","cycleway:left:lane":"pictogram","cycleway:left:oneway":"-1","cycleway:right":"lane","cycleway:right:lane":"exclusive","highway":"residential","lit":"yes","maxspeed":"30","name":"Rue du Pré Saint-Gervais","name:etymology:wikidata":"Q175999","oneway":"yes","oneway:bicycle":"no","sidewalk:both":"separate","smoothness":"good","surface":"asphalt","id":"way/744928062"},"geometry":{"type":"LineString","coordinates":[[2.3956058,48.8776652],[2.3958651,48.8778262],[2.3959064,48.8778456],[2.3962336,48.8779983],[2.3963643,48.8780593]]},"id":"way/744928062"},{"type":"Feature","properties":{"@id":"way/761770661","cycleway":"no","highway":"residential","lit":"yes","maxspeed":"30","name":"Rue des Bois","name:etymology:wikidata":"Q3241565","oneway":"yes","sidewalk:left":"separate","sidewalk:right":"no","smoothness":"excellent","surface":"asphalt","id":"way/761770661"},"geometry":{"type":"LineString","coordinates":[[2.3959656,48.8777818],[2.3956058,48.8776652]]},"id":"way/761770661"},{"type":"Feature","properties":{"@id":"way/761770662","cycleway:left":"lane","cycleway:left:lane":"exclusive","cycleway:left:oneway":"-1","cycleway:right":"no","highway":"residential","lanes":"2","lanes:bus":"1","lit":"yes","maxspeed":"30","name":"Rue Louise Thuliez","oneway":"yes","oneway:bicycle":"no","parking:both":"no","sidewalk:both":"separate","smoothness":"good","surface":"asphalt","id":"way/761770662"},"geometry":{"type":"LineString","coordinates":[[2.3956058,48.8776652],[2.3954514,48.8776335],[2.3953531,48.8776188]]},"id":"way/761770662"},{"type":"Feature","properties":{"@id":"way/1115336870","cycleway:left":"lane","cycleway:left:lane":"exclusive","cycleway:left:oneway":"-1","cycleway:right":"no","highway":"residential","lanes":"1","lit":"yes","maxspeed":"30","name":"Rue Henri Ribière","name:etymology:wikidata":"Q256004","oneway":"yes","oneway:bicycle":"no","sidewalk:both":"separate","smoothness":"excellent","surface":"asphalt","id":"way/1115336870"},"geometry":{"type":"LineString","coordinates":[[2.3947808,48.8760978],[2.3950517,48.8761891],[2.3951402,48.8762283],[2.3952945,48.8763328],[2.3953836,48.8764074],[2.395472,48.8765154],[2.3955157,48.8766054],[2.3955403,48.8767219],[2.3956022,48.8775274],[2.3956043,48.8775636],[2.3956058,48.8776652]]},"id":"way/1115336870"},{"type":"Feature","properties":{"@id":"way/1158869653","crossing":"traffic_signals","footway":"crossing","highway":"footway","lit":"yes","smoothness":"excellent","surface":"asphalt","tactile_paving":"yes","traffic_signals:sound":"yes","id":"way/1158869653"},"geometry":{"type":"LineString","coordinates":[[2.3955578,48.8775493],[2.3956043,48.8775636],[2.395667,48.877583]]},"id":"way/1158869653"},{"type":"Feature","properties":{"@id":"way/1190785472","crossing":"traffic_signals","crossing:markings":"yes","footway":"crossing","highway":"footway","smoothness":"good","surface":"asphalt","traffic_signals:sound":"yes","id":"way/1190785472"},"geometry":{"type":"LineString","coordinates":[[2.3953485,48.8776498],[2.3953531,48.8776188],[2.3953599,48.8775737]]},"id":"way/1190785472"},{"type":"Feature","properties":{"@id":"way/1190785913","footway":"sidewalk","highway":"footway","smoothness":"good","surface":"asphalt","id":"way/1190785913"},"geometry":{"type":"LineString","coordinates":[[2.3948418,48.8776264],[2.3943671,48.8775929]]},"id":"way/1190785913"},{"type":"Feature","properties":{"@id":"way/1190785914","footway":"sidewalk","highway":"footway","smoothness":"good","surface":"concrete","id":"way/1190785914"},"geometry":{"type":"LineString","coordinates":[[2.395343,48.8776754],[2.3952878,48.8776554],[2.3948418,48.8776264]]},"id":"way/1190785914"},{"type":"Feature","properties":{"@id":"way/1190785915","footway":"sidewalk","highway":"footway","smoothness":"excellent","surface":"concrete","id":"way/1190785915"},"geometry":{"type":"LineString","coordinates":[[2.3954205,48.8777057],[2.395343,48.8776754]]},"id":"way/1190785915"},{"type":"Feature","properties":{"@id":"way/1190785916","footway":"sidewalk","highway":"footway","lit":"yes","smoothness":"excellent","surface":"asphalt","id":"way/1190785916"},"geometry":{"type":"LineString","coordinates":[[2.3957585,48.8785211],[2.3956566,48.8783496],[2.3955975,48.8782314],[2.3954373,48.8778525],[2.3954205,48.8777057]]},"id":"way/1190785916"},{"type":"Feature","properties":{"@id":"way/1190785931","footway":"sidewalk","highway":"footway","smoothness":"good","surface":"asphalt","id":"way/1190785931"},"geometry":{"type":"LineString","coordinates":[[2.3956498,48.8778034],[2.3956471,48.8779425],[2.3958229,48.8783319],[2.3959181,48.8784708],[2.3958722,48.8784856]]},"id":"way/1190785931"},{"type":"Feature","properties":{"@id":"way/1190785932","footway":"sidewalk","highway":"footway","smoothness":"excellent","surface":"asphalt","id":"way/1190785932"},"geometry":{"type":"LineString","coordinates":[[2.3958577,48.8778905],[2.3957149,48.8778168],[2.3956498,48.8778034]]},"id":"way/1190785932"},{"type":"Feature","properties":{"@id":"way/1192039461","footway":"sidewalk","highway":"footway","lit":"yes","smoothness":"excellent","surface":"concrete","id":"way/1192039461"},"geometry":{"type":"LineString","coordinates":[[2.395629,48.8767294],[2.3956905,48.8775914]]},"id":"way/1192039461"},{"type":"Feature","properties":{"@id":"way/1192039462","footway":"sidewalk","highway":"footway","smoothness":"good","surface":"concrete","id":"way/1192039462"},"geometry":{"type":"LineString","coordinates":[[2.3956905,48.8775914],[2.395667,48.877583]]},"id":"way/1192039462"},{"type":"Feature","properties":{"@id":"way/1192039463","footway":"sidewalk","highway":"footway","surface":"asphalt","id":"way/1192039463"},"geometry":{"type":"LineString","coordinates":[[2.3956905,48.8775914],[2.3956964,48.8776073],[2.3957019,48.8776306],[2.3958569,48.8777023],[2.3959923,48.8777347]]},"id":"way/1192039463"},{"type":"Feature","properties":{"@id":"way/1192100382","footway":"sidewalk","highway":"footway","lit":"yes","surface":"concrete","id":"way/1192100382"},"geometry":{"type":"LineString","coordinates":[[2.3953151,48.8764661],[2.3953575,48.8765195],[2.3954022,48.8765948],[2.395419,48.8766468],[2.3954336,48.8767121],[2.3954794,48.8773017],[2.3954887,48.8773842],[2.3955045,48.8775399]]},"id":"way/1192100382"},{"type":"Feature","properties":{"@id":"way/1192100385","footway":"sidewalk","highway":"footway","smoothness":"good","surface":"asphalt","id":"way/1192100385"},"geometry":{"type":"LineString","coordinates":[[2.3955045,48.8775399],[2.3953641,48.8775454]]},"id":"way/1192100385"},{"type":"Feature","properties":{"@id":"way/1192100388","footway":"sidewalk","highway":"footway","smoothness":"good","surface":"asphalt","id":"way/1192100388"},"geometry":{"type":"LineString","coordinates":[[2.3955045,48.8775399],[2.3955578,48.8775493]]},"id":"way/1192100388"},{"type":"Feature","properties":{"@id":"way/1192100421","footway":"sidewalk","highway":"footway","smoothness":"excellent","surface":"asphalt","id":"way/1192100421"},"geometry":{"type":"LineString","coordinates":[[2.3943962,48.8774729],[2.3947713,48.8774952],[2.3948693,48.8775019]]},"id":"way/1192100421"},{"type":"Feature","properties":{"@id":"way/1192100423","crossing":"uncontrolled","crossing:markings":"yes","footway":"crossing","highway":"footway","smoothness":"excellent","surface":"asphalt","tactile_paving":"yes","id":"way/1192100423"},"geometry":{"type":"LineString","coordinates":[[2.3948613,48.8775382],[2.3948519,48.8775806],[2.3948453,48.8776107]]},"id":"way/1192100423"},{"type":"Feature","properties":{"@id":"way/1192100424","footway":"sidewalk","highway":"footway","smoothness":"good","surface":"asphalt","id":"way/1192100424"},"geometry":{"type":"LineString","coordinates":[[2.3948693,48.8775019],[2.3948613,48.8775382]]},"id":"way/1192100424"},{"type":"Feature","properties":{"@id":"way/1192100425","footway":"sidewalk","highway":"footway","smoothness":"good","surface":"asphalt","id":"way/1192100425"},"geometry":{"type":"LineString","coordinates":[[2.3948418,48.8776264],[2.3948453,48.8776107]]},"id":"way/1192100425"},{"type":"Feature","properties":{"@id":"way/1192100431","footway":"sidewalk","highway":"footway","smoothness":"good","surface":"asphalt","id":"way/1192100431"},"geometry":{"type":"LineString","coordinates":[[2.3948693,48.8775019],[2.3949292,48.8775071],[2.3953641,48.8775454]]},"id":"way/1192100431"},{"type":"Feature","properties":{"@id":"way/1192100432","highway":"footway","smoothness":"good","surface":"asphalt","id":"way/1192100432"},"geometry":{"type":"LineString","coordinates":[[2.3953641,48.8775454],[2.3951779,48.8774468],[2.3951916,48.8773562]]},"id":"way/1192100432"},{"type":"Feature","properties":{"@id":"way/1192100433","footway":"sidewalk","highway":"footway","smoothness":"excellent","surface":"concrete","id":"way/1192100433"},"geometry":{"type":"LineString","coordinates":[[2.3953641,48.8775454],[2.3953599,48.8775737]]},"id":"way/1192100433"},{"type":"Feature","properties":{"@id":"way/1192100434","footway":"sidewalk","highway":"footway","smoothness":"excellent","surface":"asphalt","id":"way/1192100434"},"geometry":{"type":"LineString","coordinates":[[2.395343,48.8776754],[2.3953485,48.8776498]]},"id":"way/1192100434"},{"type":"Feature","properties":{"@id":"way/1197957067","crossing":"traffic_signals","crossing:markings":"yes","footway":"crossing","highway":"footway","lit":"yes","smoothness":"good","surface":"asphalt","traffic_signals:sound":"yes","id":"way/1197957067"},"geometry":{"type":"LineString","coordinates":[[2.3954933,48.8777345],[2.3955449,48.8777593],[2.3955919,48.8777819]]},"id":"way/1197957067"},{"type":"Feature","properties":{"@id":"way/1221418385","footway":"sidewalk","highway":"footway","smoothness":"excellent","surface":"asphalt","id":"way/1221418385"},"geometry":{"type":"LineString","coordinates":[[2.3954205,48.8777057],[2.3954933,48.8777345]]},"id":"way/1221418385"},{"type":"Feature","properties":{"@id":"way/1221418400","footway":"sidewalk","highway":"footway","smoothness":"excellent","surface":"asphalt","id":"way/1221418400"},"geometry":{"type":"LineString","coordinates":[[2.3956498,48.8778034],[2.3955919,48.8777819]]},"id":"way/1221418400"},{"type":"Feature","properties":{"@id":"node/1847624708","addr:postcode":"75019","branch":"Place des Fêtes","brand":"Monoprix","brand:wikidata":"Q3321241","brand:wikipedia":"en:Monoprix","check_date":"2025-02-05","contact:housenumber":"9","contact:postcode":"75019","contact:street":"Rue Louise Thuliez","name":"Monoprix","opening_hours":"Mo-Sa 08:30-21:00; Su 09:00-19:00","operator":"Groupe Casino","phone":"+33 1 42 02 28 78","shop":"supermarket","website":"https://www.monoprix.fr/836.html","wheelchair":"yes","id":"node/1847624708"},"geometry":{"type":"Point","coordinates":[2.3948047,48.877692]},"id":"node/1847624708"},{"type":"Feature","properties":{"@id":"node/3671517763","check_date":"2026-02-06","check_date:opening_hours":"2026-02-06","description":"Centre Orthopédique","name":"Agire","opening_hours":"Mo-Fr 10:00-18:30","shop":"medical_supply","wheelchair":"yes","id":"node/3671517763"},"geometry":{"type":"Point","coordinates":[2.3954412,48.8780344]},"id":"node/3671517763"},{"type":"Feature","properties":{"@id":"node/3671517769","highway":"traffic_signals","id":"node/3671517769"},"geometry":{"type":"Point","coordinates":[2.3955209,48.8777946]},"id":"node/3671517769"},{"type":"Feature","properties":{"@id":"node/3709188429","circumference":"0.8","genus":"Tilia","height":"10","leaf_type":"broadleaved","natural":"tree","source":"opendata.paris.fr:DEVE - Ville de Paris - 2015-05-29","species":"Tilia × euchlora","id":"node/3709188429"},"geometry":{"type":"Point","coordinates":[2.3949562,48.8774477]},"id":"node/3709188429"},{"type":"Feature","properties":{"@id":"node/3709188432","circumference":"0.75","genus":"Tilia","height":"8","leaf_type":"broadleaved","natural":"tree","source":"opendata.paris.fr:DEVE - Ville de Paris - 2015-05-29","species":"Tilia × europaea","id":"node/3709188432"},"geometry":{"type":"Point","coordinates":[2.3950451,48.8774579]},"id":"node/3709188432"},{"type":"Feature","properties":{"@id":"node/3709188433","circumference":"0.4","genus":"Tilia","height":"8","leaf_type":"broadleaved","natural":"tree","source":"opendata.paris.fr:DEVE - Ville de Paris - 2015-05-29","species":"Tilia platyphyllos","id":"node/3709188433"},"geometry":{"type":"Point","coordinates":[2.395131,48.8774638]},"id":"node/3709188433"},{"type":"Feature","properties":{"@id":"node/3709188436","genus":"Quercus","leaf_cycle":"evergreen","leaf_type":"broadleaved","natural":"tree","species":"Quercus ilex","id":"node/3709188436"},"geometry":{"type":"Point","coordinates":[2.3945643,48.8775025]},"id":"node/3709188436"},{"type":"Feature","properties":{"@id":"node/3709188437","genus":"Quercus","leaf_cycle":"evergreen","leaf_type":"broadleaved","natural":"tree","species":"Quercus ilex","id":"node/3709188437"},"geometry":{"type":"Point","coordinates":[2.3946817,48.8775096]},"id":"node/3709188437"},{"type":"Feature","properties":{"@id":"node/3709188438","genus":"Quercus","leaf_cycle":"evergreen","leaf_type":"broadleaved","natural":"tree","species":"Quercus ilex","id":"node/3709188438"},"geometry":{"type":"Point","coordinates":[2.3948194,48.87752]},"id":"node/3709188438"},{"type":"Feature","properties":{"@id":"node/3709188439","genus":"Quercus","leaf_cycle":"evergreen","leaf_type":"broadleaved","natural":"tree","species":"Quercus ilex","id":"node/3709188439"},"geometry":{"type":"Point","coordinates":[2.3948987,48.877525]},"id":"node/3709188439"},{"type":"Feature","properties":{"@id":"node/3709188441","genus":"Quercus","leaf_cycle":"evergreen","leaf_type":"broadleaved","natural":"tree","species":"Quercus ilex","id":"node/3709188441"},"geometry":{"type":"Point","coordinates":[2.3952062,48.8775463]},"id":"node/3709188441"},{"type":"Feature","properties":{"@id":"node/3709188442","genus":"Quercus","leaf_cycle":"evergreen","leaf_type":"broadleaved","natural":"tree","species":"Quercus ilex","id":"node/3709188442"},"geometry":{"type":"Point","coordinates":[2.3950022,48.8775331]},"id":"node/3709188442"},{"type":"Feature","properties":{"@id":"node/3709188443","genus":"Quercus","leaf_cycle":"evergreen","leaf_type":"broadleaved","natural":"tree","species":"Quercus ilex","id":"node/3709188443"},"geometry":{"type":"Point","coordinates":[2.3951043,48.8775411]},"id":"node/3709188443"},{"type":"Feature","properties":{"@id":"node/6261924599","highway":"traffic_signals","traffic_signals":"signal","id":"node/6261924599"},"geometry":{"type":"Point","coordinates":[2.3956022,48.8775274]},"id":"node/6261924599"},{"type":"Feature","properties":{"@id":"node/10199058119","amenity":"bench","backrest":"no","material":"wood","survey:date":"2022-11-18","id":"node/10199058119"},"geometry":{"type":"Point","coordinates":[2.3949497,48.8774703]},"id":"node/10199058119"},{"type":"Feature","properties":{"@id":"node/10199058120","amenity":"bench","backrest":"no","material":"wood","survey:date":"2022-11-18","id":"node/10199058120"},"geometry":{"type":"Point","coordinates":[2.3952268,48.8774952]},"id":"node/10199058120"},{"type":"Feature","properties":{"@id":"node/10199058121","amenity":"waste_basket","survey:date":"2022-11-18","id":"node/10199058121"},"geometry":{"type":"Point","coordinates":[2.3952963,48.877554]},"id":"node/10199058121"},{"type":"Feature","properties":{"@id":"node/10199058122","genus":"Quercus","leaf_cycle":"evergreen","leaf_type":"broadleaved","natural":"tree","species":"Quercus ilex","id":"node/10199058122"},"geometry":{"type":"Point","coordinates":[2.3953208,48.8775542]},"id":"node/10199058122"},{"type":"Feature","properties":{"@id":"node/10199069518","amenity":"bench","backrest":"yes","material":"wood","survey:date":"2022-11-18","id":"node/10199069518"},"geometry":{"type":"Point","coordinates":[2.3950368,48.8774825]},"id":"node/10199069518"},{"type":"Feature","properties":{"@id":"node/10199069519","amenity":"bench","backrest":"yes","material":"wood","survey:date":"2022-11-18","id":"node/10199069519"},"geometry":{"type":"Point","coordinates":[2.3952601,48.8774236]},"id":"node/10199069519"},{"type":"Feature","properties":{"@id":"node/10199069521","amenity":"bench","backrest":"no","material":"wood","survey:date":"2022-11-18","id":"node/10199069521"},"geometry":{"type":"Point","coordinates":[2.3945134,48.877498]},"id":"node/10199069521"},{"type":"Feature","properties":{"@id":"node/10199070517","amenity":"bench","backrest":"yes","material":"wood","survey:date":"2022-11-18","id":"node/10199070517"},"geometry":{"type":"Point","coordinates":[2.3951502,48.8774662]},"id":"node/10199070517"},{"type":"Feature","properties":{"@id":"node/10199070518","amenity":"bench","backrest":"no","material":"wood","survey:date":"2022-11-18","id":"node/10199070518"},"geometry":{"type":"Point","coordinates":[2.3952551,48.8774492]},"id":"node/10199070518"},{"type":"Feature","properties":{"@id":"node/10199070519","access":"yes","amenity":"drinking_water","bottle":"yes","fee":"no","man_made":"water_tap","survey:date":"2022-11-18","wheelchair":"yes","id":"node/10199070519"},"geometry":{"type":"Point","coordinates":[2.3952623,48.8775515]},"id":"node/10199070519"},{"type":"Feature","properties":{"@id":"node/10199070520","genus":"Quercus","leaf_cycle":"evergreen","leaf_type":"broadleaved","natural":"tree","species":"Quercus ilex","id":"node/10199070520"},"geometry":{"type":"Point","coordinates":[2.3954383,48.8775625]},"id":"node/10199070520"},{"type":"Feature","properties":{"@id":"node/10199070817","amenity":"bench","backrest":"no","material":"wood","survey:date":"2022-11-18","id":"node/10199070817"},"geometry":{"type":"Point","coordinates":[2.395238,48.8774331]},"id":"node/10199070817"},{"type":"Feature","properties":{"@id":"node/10199070818","highway":"street_lamp","ref":"XIX-29641","survey:date":"2022-11-18","id":"node/10199070818"},"geometry":{"type":"Point","coordinates":[2.3952559,48.8774363]},"id":"node/10199070818"},{"type":"Feature","properties":{"@id":"node/10199070819","amenity":"waste_basket","survey:date":"2022-11-18","id":"node/10199070819"},"geometry":{"type":"Point","coordinates":[2.3946322,48.8775085]},"id":"node/10199070819"},{"type":"Feature","properties":{"@id":"node/10200467890","genus":"Betula","natural":"tree","id":"node/10200467890"},"geometry":{"type":"Point","coordinates":[2.3948318,48.877427]},"id":"node/10200467890"},{"type":"Feature","properties":{"@id":"node/10200467891","circumference":"0.5","genus":"Tilia","height":"8","leaf_type":"broadleaved","natural":"tree","species":"Tilia × euchlora","id":"node/10200467891"},"geometry":{"type":"Point","coordinates":[2.3954916,48.8775143]},"id":"node/10200467891"},{"type":"Feature","properties":{"@id":"node/10870664526","genus":"Ostrya","leaf_type":"broadleaved","natural":"tree","species":"Ostrya carpinifolia","id":"node/10870664526"},"geometry":{"type":"Point","coordinates":[2.3956465,48.877482]},"id":"node/10870664526"},{"type":"Feature","properties":{"@id":"node/10870673763","genus":"Corylus","leaf_type":"broadleaved","natural":"tree","species":"Corylus colurna","id":"node/10870673763"},"geometry":{"type":"Point","coordinates":[2.3956291,48.8778675]},"id":"node/10870673763"},{"type":"Feature","properties":{"@id":"node/10870673764","genus":"Corylus","leaf_type":"broadleaved","natural":"tree","species":"Corylus colurna","id":"node/10870673764"},"geometry":{"type":"Point","coordinates":[2.3956931,48.8778263]},"id":"node/10870673764"},{"type":"Feature","properties":{"@id":"node/10870695120","natural":"tree","species":"Platanus x hispanica","id":"node/10870695120"},"geometry":{"type":"Point","coordinates":[2.3957296,48.8780005]},"id":"node/10870695120"},{"type":"Feature","properties":{"@id":"node/10870695121","leaf_type":"broadleaved","natural":"tree","species":"Aesculus hippocastanum","id":"node/10870695121"},"geometry":{"type":"Point","coordinates":[2.3957565,48.8780596]},"id":"node/10870695121"},{"type":"Feature","properties":{"@id":"node/11134702107","highway":"street_lamp","ref":"XIX-18492","survey:date":"2023-08-20","id":"node/11134702107"},"geometry":{"type":"Point","coordinates":[2.3956145,48.8778848]},"id":"node/11134702107"},{"type":"Feature","properties":{"@id":"node/11958878616","circumference":"0.3","genus":"Carpinus","height":"6","natural":"tree","id":"node/11958878616"},"geometry":{"type":"Point","coordinates":[2.3955266,48.8774617]},"id":"node/11958878616"},{"type":"Feature","properties":{"@id":"node/11958878617","genus":"Carpinus","natural":"tree","id":"node/11958878617"},"geometry":{"type":"Point","coordinates":[2.3955232,48.8774125]},"id":"node/11958878617"},{"type":"Feature","properties":{"@id":"node/12684275802","natural":"tree","species":"Celtis australis","id":"node/12684275802"},"geometry":{"type":"Point","coordinates":[2.3948403,48.8782136]},"id":"node/12684275802"},{"type":"Feature","properties":{"@id":"node/12684275803","natural":"tree","species":"Celtis australis","id":"node/12684275803"},"geometry":{"type":"Point","coordinates":[2.3949893,48.878229]},"id":"node/12684275803"},{"type":"Feature","properties":{"@id":"node/12758193214","circumference":"0.3","height":"5","natural":"tree","species":"Tilia × euchlora","id":"node/12758193214"},"geometry":{"type":"Point","coordinates":[2.3952121,48.8774993]},"id":"node/12758193214"},{"type":"Feature","properties":{"@id":"node/13034487972","highway":"street_lamp","id":"node/13034487972"},"geometry":{"type":"Point","coordinates":[2.3946036,48.8775006]},"id":"node/13034487972"}]}