{"type":"FeatureCollection","features":[{"type":"Feature","properties":{"@id":"way/195220622","acoustic":"voice_description","addr:city":"Paris","addr:housenumber":"6","addr:postcode":"75020","addr:street":"Esplanade Claude Luter","alt_name":"CGR Paris - Lilas","amenity":"cinema","brand":"CGR","brand:website":"https://www.cgrcinemas.fr/","brand:wikidata":"Q2931406","brand:wikipedia":"fr:CGR Cinémas","building":"yes","name":"CGR Cinéma - Paris Les Lilas","operator":"Groupe CGR Cinémas","phone":"+33 8 92 68 85 88","ref:FR:CNC":"9950","source":"cadastre-dgi-fr source : Direction Générale des Impôts - Cadastre. Mise à jour : 2012","website":"https://www.cgrcinemas.fr/paris-lilas/","wheelchair":"yes","id":"way/195220622"},"geometry":{"type":"Polygon","coordinates":[[[2.409438,48.877181],[2.409449,48.877165],[2.409802,48.877269],[2.409791,48.877286],[2.409551,48.87764],[2.40951,48.877628],[2.409481,48.87767],[2.409522,48.877682],[2.409467,48.877762],[2.409358,48.877728],[2.409383,48.877692],[2.409268,48.877657],[2.409243,48.877693],[2.409116,48.877655],[2.409438,48.877181]]]},"id":"way/195220622"},{"type":"Feature","properties":{"@id":"way/421546153","building":"roof","layer":"1","source":"cadastre-dgi-fr source : Direction Générale des Impôts - Cadastre. Mise à jour : 2014","id":"way/421546153"},"geometry":{"type":"Polygon","coordinates":[[[2.4086455,48.878311],[2.4086024,48.8782999],[2.4086904,48.8781708],[2.4087318,48.8781848],[2.4086455,48.878311]]]},"id":"way/421546153"},{"type":"Feature","properties":{"@id":"way/1174746814","area":"yes","footway":"sidewalk","highway":"footway","lit":"yes","surface":"asphalt","id":"way/1174746814"},"geometry":{"type":"Polygon","coordinates":[[[2.408617,48.8775558],[2.4086317,48.8775349],[2.408645,48.8775149],[2.4087065,48.8775333],[2.408776,48.8775541],[2.409116,48.877655],[2.409243,48.877693],[2.409358,48.877728],[2.409467,48.877762],[2.4095047,48.8777645],[2.4095427,48.8777756],[2.4095286,48.8777941],[2.4095192,48.8778032],[2.4094971,48.8778131],[2.4094827,48.8778148],[2.4094672,48.8778142],[2.4094535,48.8778113],[2.4093483,48.8777791],[2.408679,48.8775745],[2.408617,48.8775558]]]},"id":"way/1174746814"},{"type":"Feature","properties":{"@id":"way/1267736778","area":"yes","area:highway":"footway","footway":"sidewalk","highway":"footway","lit":"yes","smoothness":"good","surface":"asphalt","id":"way/1267736778"},"geometry":{"type":"Polygon","coordinates":[[[2.409163,48.8782603],[2.408766,48.8781375],[2.4083166,48.8779954],[2.4083267,48.8779808],[2.4082606,48.8779685],[2.408209,48.8779582],[2.4082163,48.8779499],[2.408231,48.8779403],[2.4082526,48.8779334],[2.4082872,48.8779334],[2.4083148,48.877939],[2.4090775,48.8781723],[2.4091704,48.8782008],[2.4091894,48.8782083],[2.4092085,48.8782203],[2.409222,48.8782349],[2.4092307,48.8782511],[2.4092323,48.8782712],[2.4092262,48.8782885],[2.4091866,48.8782757],[2.409163,48.8782603]]]},"id":"way/1267736778"},{"type":"Feature","properties":{"@id":"way/25477396","cycleway:right":"no","destination":"Périphérique extérieur;Porte de Pantin;Porte de la Chapelle","destination:colour:to":"blue","destination:ref:to":"A 1","destination:symbol:to":"motorway","dual_carriageway":"yes","highway":"secondary","lanes":"1","lit":"yes","maxspeed":"30","name":"Avenue René Fonck","name:etymology:wikidata":"Q48674","oneway":"yes","sidewalk:left":"no","sidewalk:right":"separate","surface":"asphalt","id":"way/25477396"},"geometry":{"type":"LineString","coordinates":[[2.4094251,48.8781567],[2.4093795,48.8782299],[2.409327,48.8783171],[2.4089857,48.8788266],[2.4088611,48.8790164],[2.4084676,48.8795776],[2.4083963,48.87966]]},"id":"way/25477396"},{"type":"Feature","properties":{"@id":"way/73907061","highway":"footway","id":"way/73907061"},"geometry":{"type":"LineString","coordinates":[[2.408766,48.8781375],[2.4087297,48.8781908],[2.4085229,48.87846],[2.408311,48.8787648],[2.4082627,48.8788328]]},"id":"way/73907061"},{"type":"Feature","properties":{"@id":"way/165325820","highway":"secondary","lanes":"3","lit":"yes","maxspeed":"30","name":"Place du Maquis du Vercors","name:etymology:wikidata":"Q3287307","oneway":"yes","sidewalk":"separate","smoothness":"excellent","surface":"asphalt","id":"way/165325820"},"geometry":{"type":"LineString","coordinates":[[2.4094251,48.8781567],[2.4093361,48.8781461]]},"id":"way/165325820"},{"type":"Feature","properties":{"@id":"way/337976159","cycleway:right":"no","highway":"secondary","lanes":"5","lit":"yes","maxspeed":"30","name":"Place du Maquis du Vercors","name:etymology:wikidata":"Q3287307","oneway":"yes","sidewalk":"separate","smoothness":"excellent","surface":"asphalt","id":"way/337976159"},"geometry":{"type":"LineString","coordinates":[[2.4095393,48.8779687],[2.4094251,48.8781567]]},"id":"way/337976159"},{"type":"Feature","properties":{"@id":"way/362926535","cycleway:right":"no","dual_carriageway":"yes","highway":"tertiary","lanes":"1","lit":"yes","maxspeed":"30","name":"Avenue René Fonck","name:etymology:wikidata":"Q48674","oneway":"yes","sidewalk:left":"no","sidewalk:right":"separate","surface":"asphalt","id":"way/362926535"},"geometry":{"type":"LineString","coordinates":[[2.4082424,48.8796437],[2.40833,48.8795779],[2.4083781,48.8795372],[2.4084318,48.8794935],[2.4084767,48.8794502],[2.4087674,48.8789885],[2.4090621,48.8785594],[2.4092455,48.878294],[2.409281,48.8782284],[2.4093361,48.8781461]]},"id":"way/362926535"},{"type":"Feature","properties":{"@id":"way/362926547","highway":"secondary","lanes":"5","lit":"yes","maxspeed":"30","name":"Place du Maquis du Vercors","name:etymology:wikidata":"Q3287307","oneway":"yes","sidewalk:both":"separate","smoothness":"excellent","surface":"asphalt","id":"way/362926547"},"geometry":{"type":"LineString","coordinates":[[2.408188,48.877801],[2.4082947,48.8775787]]},"id":"way/362926547"},{"type":"Feature","properties":{"@id":"way/362926548","dual_carriageway":"yes","highway":"secondary","lanes":"3","lit":"yes","maxspeed":"30","name":"Place du Maquis du Vercors","name:etymology:wikidata":"Q3287307","oneway":"yes","sidewalk:left":"no","sidewalk:right":"separate","surface":"asphalt","id":"way/362926548"},"geometry":{"type":"LineString","coordinates":[[2.4082947,48.8775787],[2.4085236,48.8776173]]},"id":"way/362926548"},{"type":"Feature","properties":{"@id":"way/362926549","busway:right":"track","cycleway:right":"share_busway","dual_carriageway":"yes","highway":"secondary","lanes":"3","lit":"yes","maxspeed":"30","name":"Place du Maquis du Vercors","name:etymology:wikidata":"Q3287307","oneway":"yes","sidewalk:left":"no","sidewalk:right":"separate","surface":"asphalt","turn:lanes":"left|left;through|through","id":"way/362926549"},"geometry":{"type":"LineString","coordinates":[[2.408629,48.8776473],[2.4091716,48.8778126],[2.4092247,48.8778288],[2.4093008,48.877852]]},"id":"way/362926549"},{"type":"Feature","properties":{"@id":"way/362926550","dual_carriageway":"yes","highway":"secondary","lanes":"3","lit":"yes","maxspeed":"30","name":"Place du Maquis du Vercors","name:etymology:wikidata":"Q3287307","oneway":"yes","sidewalk:left":"no","sidewalk:right":"separate","surface":"asphalt","id":"way/362926550"},"geometry":{"type":"LineString","coordinates":[[2.4093361,48.8781461],[2.4091213,48.8781127]]},"id":"way/362926550"},{"type":"Feature","properties":{"@id":"way/362926556","cycleway":"no","highway":"residential","lanes":"1","lit":"yes","maxspeed":"30","name":"Rue des Glaïeuls","name:etymology:wikidata":"Q156207","oneway":"yes","sidewalk:left":"no","sidewalk:right":"separate","sidewalk:right:surface":"asphalt","smoothness":"excellent","surface":"asphalt","id":"way/362926556"},"geometry":{"type":"LineString","coordinates":[[2.4082947,48.8775787],[2.4083178,48.877518],[2.4083733,48.8773983]]},"id":"way/362926556"},{"type":"Feature","properties":{"@id":"way/362926565","footway":"traffic_island","highway":"footway","lit":"yes","smoothness":"good","surface":"asphalt","id":"way/362926565"},"geometry":{"type":"LineString","coordinates":[[2.4083809,48.8778086],[2.4084904,48.8776633]]},"id":"way/362926565"},{"type":"Feature","properties":{"@id":"way/362926567","footway":"sidewalk","highway":"footway","lit":"yes","smoothness":"excellent","surface":"asphalt","id":"way/362926567"},"geometry":{"type":"LineString","coordinates":[[2.4091621,48.878057],[2.4092704,48.8778985]]},"id":"way/362926567"},{"type":"Feature","properties":{"@id":"way/362926571","crossing":"traffic_signals","crossing:markings":"zebra","crossing:signals":"yes","footway":"crossing","highway":"footway","lit":"yes","surface":"asphalt","tactile_paving":"yes","id":"way/362926571"},"geometry":{"type":"LineString","coordinates":[[2.4092262,48.8782885],[2.4092455,48.878294],[2.4092638,48.8782992],[2.4092921,48.8783072],[2.409327,48.8783171],[2.4093592,48.8783262]]},"id":"way/362926571"},{"type":"Feature","properties":{"@id":"way/374923297","dual_carriageway":"yes","highway":"secondary","lanes":"3","lit":"yes","maxspeed":"30","name":"Place du Maquis du Vercors","name:etymology:wikidata":"Q3287307","oneway":"yes","sidewalk:left":"no","sidewalk:right":"separate","surface":"asphalt","id":"way/374923297"},"geometry":{"type":"LineString","coordinates":[[2.4083321,48.8778734],[2.408188,48.877801]]},"id":"way/374923297"},{"type":"Feature","properties":{"@id":"way/374923298","busway:right":"track","cycleway:right":"share_busway","highway":"secondary","lanes":"3","lit":"yes","maxspeed":"30","name":"Place du Maquis du Vercors","name:etymology:wikidata":"Q3287307","oneway":"yes","sidewalk:left":"no","sidewalk:right":"separate","surface":"asphalt","id":"way/374923298"},"geometry":{"type":"LineString","coordinates":[[2.4085236,48.8776173],[2.408629,48.8776473]]},"id":"way/374923298"},{"type":"Feature","properties":{"@id":"way/374923299","busway:left":"lane","cycleway:left":"share_busway","cycleway:right":"separate","dual_carriageway":"yes","highway":"secondary","lanes":"3","lit":"yes","maxspeed":"30","name":"Place du Maquis du Vercors","name:etymology:wikidata":"Q3287307","oneway":"yes","sidewalk:left":"no","sidewalk:right":"separate","sidewalk:right:surface":"asphalt","smoothness":"good","surface":"asphalt","id":"way/374923299"},"geometry":{"type":"LineString","coordinates":[[2.4091213,48.8781127],[2.4083321,48.8778734]]},"id":"way/374923299"},{"type":"Feature","properties":{"@id":"way/374923300","busway:right":"lane","cycleway:right":"share_busway","dual_carriageway":"yes","highway":"secondary","lanes":"3","lit":"yes","maxspeed":"30","name":"Place du Maquis du Vercors","name:etymology:wikidata":"Q3287307","oneway":"yes","sidewalk:left":"no","sidewalk:right":"separate","sidewalk:right:surface":"asphalt","smoothness":"excellent","surface":"asphalt","turn:lanes":"left|left;through|through","id":"way/374923300"},"geometry":{"type":"LineString","coordinates":[[2.4093008,48.877852],[2.4094007,48.8778909],[2.4095393,48.8779687]]},"id":"way/374923300"},{"type":"Feature","properties":{"@id":"way/669338117","highway":"footway","surface":"compacted","id":"way/669338117"},"geometry":{"type":"LineString","coordinates":[[2.4087314,48.8785226],[2.4087424,48.8784938],[2.4087638,48.8784735],[2.40879,48.8784585],[2.4088783,48.8784224],[2.4089123,48.8783911],[2.4089387,48.8783376],[2.4089504,48.8783142],[2.4089478,48.8782703],[2.408926,48.8782354],[2.4089134,48.8782177],[2.4088541,48.8781934],[2.4088161,48.8781934],[2.4087786,48.8782062],[2.4087297,48.8781908]]},"id":"way/669338117"},{"type":"Feature","properties":{"@id":"way/683616010","footway":"sidewalk","highway":"footway","lit":"yes","surface":"asphalt","id":"way/683616010"},"geometry":{"type":"LineString","coordinates":[[2.4085235,48.8774487],[2.4085331,48.8774525],[2.4085936,48.8775254],[2.4085785,48.877544]]},"id":"way/683616010"},{"type":"Feature","properties":{"@id":"way/683616011","footway":"sidewalk","highway":"footway","lit":"yes","source":"BDOrtho IGN","surface":"asphalt","id":"way/683616011"},"geometry":{"type":"LineString","coordinates":[[2.408558,48.8770689],[2.4085131,48.8770548],[2.4082809,48.8773683],[2.4082484,48.8774047],[2.4081811,48.8774629],[2.408162,48.8774868],[2.408143,48.8775104]]},"id":"way/683616011"},{"type":"Feature","properties":{"@id":"way/683616012","highway":"footway","lit":"yes","smoothness":"good","surface":"asphalt","id":"way/683616012"},"geometry":{"type":"LineString","coordinates":[[2.4082023,48.8780537],[2.4082606,48.8779685],[2.4082872,48.8779334]]},"id":"way/683616012"},{"type":"Feature","properties":{"@id":"way/1174776348","crossing":"traffic_signals","crossing:markings":"yes","footway":"crossing","highway":"footway","lit":"yes","surface":"asphalt","traffic_signals:sound":"yes","id":"way/1174776348"},"geometry":{"type":"LineString","coordinates":[[2.4080417,48.8779079],[2.4081291,48.8779342],[2.408209,48.8779582]]},"id":"way/1174776348"},{"type":"Feature","properties":{"@id":"way/1185647518","cycleway":"on_street","highway":"cycleway","lit":"yes","name":"Avenue de la Porte des Lilas","name:etymology:wikidata":"Q3399160","oneway":"yes","surface":"asphalt","id":"way/1185647518"},"geometry":{"type":"LineString","coordinates":[[2.4092202,48.8782092],[2.4090798,48.878163],[2.4082955,48.8779223],[2.4082627,48.8779125]]},"id":"way/1185647518"},{"type":"Feature","properties":{"@id":"way/1185647519","crossing":"unmarked","crossing:markings":"no","cycleway":"crossing","highway":"cycleway","lit":"yes","name":"Avenue de la Porte des Lilas","name:etymology:wikidata":"Q3399160","oneway":"yes","surface":"asphalt","id":"way/1185647519"},"geometry":{"type":"LineString","coordinates":[[2.4082158,48.8775254],[2.4083178,48.877518],[2.4084118,48.8775235],[2.4084889,48.8775321]]},"id":"way/1185647519"},{"type":"Feature","properties":{"@id":"way/1214816538","crossing":"unmarked","crossing:markings":"no","cycleway":"crossing","highway":"cycleway","lit":"yes","name":"Avenue de la Porte des Lilas","name:etymology:wikidata":"Q3399160","oneway":"yes","surface":"asphalt","id":"way/1214816538"},"geometry":{"type":"LineString","coordinates":[[2.4095005,48.8782111],[2.4094743,48.8782138],[2.4093795,48.8782299],[2.4093203,48.8782345],[2.409281,48.8782284],[2.4092202,48.8782092]]},"id":"way/1214816538"},{"type":"Feature","properties":{"@id":"way/1214816539","cycleway":"on_street","highway":"cycleway","lit":"yes","name":"Avenue de la Porte des Lilas","name:etymology:wikidata":"Q3399160","oneway":"yes","surface":"asphalt","id":"way/1214816539"},"geometry":{"type":"LineString","coordinates":[[2.4106622,48.8784491],[2.4104899,48.8784655],[2.4097144,48.8782458],[2.409688,48.8782384],[2.4096285,48.8782217],[2.4095825,48.8782105],[2.4095005,48.8782111]]},"id":"way/1214816539"},{"type":"Feature","properties":{"@id":"way/1214816540","cycleway":"on_street","highway":"cycleway","lit":"yes","name":"Avenue de la Porte des Lilas","name:etymology:wikidata":"Q3399160","oneway":"yes","surface":"asphalt","width":"2","id":"way/1214816540"},"geometry":{"type":"LineString","coordinates":[[2.408749,48.8776097],[2.4093422,48.8777893],[2.40948,48.8778298]]},"id":"way/1214816540"},{"type":"Feature","properties":{"@id":"way/1214816543","crossing":"unmarked","crossing:markings":"no","cycleway":"crossing","highway":"cycleway","lit":"yes","name":"Place du Maquis du Vercors","oneway":"yes","surface":"asphalt","id":"way/1214816543"},"geometry":{"type":"LineString","coordinates":[[2.4096398,48.8779525],[2.4095876,48.8780077],[2.4094989,48.8781615],[2.4094743,48.8782138]]},"id":"way/1214816543"},{"type":"Feature","properties":{"@id":"way/1239414014","footway":"sidewalk","highway":"footway","lit":"yes","surface":"asphalt","id":"way/1239414014"},"geometry":{"type":"LineString","coordinates":[[2.4093648,48.8777553],[2.4093483,48.8777791]]},"id":"way/1239414014"},{"type":"Feature","properties":{"@id":"way/1239414015","footway":"sidewalk","highway":"footway","lit":"yes","surface":"asphalt","id":"way/1239414015"},"geometry":{"type":"LineString","coordinates":[[2.4087703,48.8775752],[2.4093648,48.8777553],[2.4094522,48.8777791],[2.4095047,48.8777645],[2.4095427,48.8777756]]},"id":"way/1239414015"},{"type":"Feature","properties":{"@id":"way/1239414016","footway":"sidewalk","highway":"footway","lit":"yes","surface":"asphalt","id":"way/1239414016"},"geometry":{"type":"LineString","coordinates":[[2.4085331,48.8774525],[2.4087659,48.8771407]]},"id":"way/1239414016"},{"type":"Feature","properties":{"@id":"way/1239414018","footway":"sidewalk","highway":"footway","lit":"yes","surface":"asphalt","id":"way/1239414018"},"geometry":{"type":"LineString","coordinates":[[2.408162,48.8774868],[2.4080829,48.8774605]]},"id":"way/1239414018"},{"type":"Feature","properties":{"@id":"way/1239414019","footway":"sidewalk","highway":"footway","lit":"yes","surface":"asphalt","id":"way/1239414019"},"geometry":{"type":"LineString","coordinates":[[2.4071669,48.8771292],[2.4080091,48.8774038],[2.4081811,48.8774629]]},"id":"way/1239414019"},{"type":"Feature","properties":{"@id":"way/1239415624","footway":"sidewalk","highway":"footway","lit":"yes","surface":"asphalt","id":"way/1239415624"},"geometry":{"type":"LineString","coordinates":[[2.4098582,48.8772404],[2.4095047,48.8777645]]},"id":"way/1239415624"},{"type":"Feature","properties":{"@id":"way/1239448725","footway":"sidewalk","highway":"footway","lit":"yes","surface":"asphalt","id":"way/1239448725"},"geometry":{"type":"LineString","coordinates":[[2.4094914,48.878245],[2.410453,48.878515],[2.4104771,48.8785215],[2.4105318,48.878533]]},"id":"way/1239448725"},{"type":"Feature","properties":{"@id":"way/1239448726","footway":"sidewalk","highway":"footway","lit":"yes","surface":"asphalt","id":"way/1239448726"},"geometry":{"type":"LineString","coordinates":[[2.4084976,48.8797104],[2.4085614,48.879608],[2.4086263,48.8795143],[2.4086463,48.8794854],[2.4089525,48.8790427],[2.4094251,48.8783452],[2.4094914,48.878245]]},"id":"way/1239448726"},{"type":"Feature","properties":{"@id":"way/1239448735","footway":"sidewalk","highway":"footway","lit":"yes","surface":"asphalt","id":"way/1239448735"},"geometry":{"type":"LineString","coordinates":[[2.4091866,48.8782757],[2.408713,48.8789698],[2.4084031,48.8794251],[2.4083092,48.8795044],[2.4082306,48.8795644],[2.4081352,48.8796026]]},"id":"way/1239448735"},{"type":"Feature","properties":{"@id":"way/1239448736","footway":"sidewalk","highway":"footway","lit":"yes","surface":"asphalt","id":"way/1239448736"},"geometry":{"type":"LineString","coordinates":[[2.4087786,48.8781169],[2.408766,48.8781375]]},"id":"way/1239448736"},{"type":"Feature","properties":{"@id":"way/1239448737","footway":"sidewalk","highway":"footway","lit":"yes","smoothness":"excellent","surface":"asphalt","id":"way/1239448737"},"geometry":{"type":"LineString","coordinates":[[2.4087786,48.8781169],[2.4090562,48.8782013],[2.409187,48.8782411],[2.4091866,48.8782757],[2.4092262,48.8782885]]},"id":"way/1239448737"},{"type":"Feature","properties":{"@id":"way/1267736777","footway":"sidewalk","highway":"footway","lit":"yes","smoothness":"excellent","surface":"asphalt","id":"way/1267736777"},"geometry":{"type":"LineString","coordinates":[[2.4090562,48.8782013],[2.4090775,48.8781723]]},"id":"way/1267736777"},{"type":"Feature","properties":{"@id":"way/1284488222","crossing":"traffic_signals","crossing:markings":"zebra","crossing:signals":"yes","footway":"crossing","highway":"footway","lit":"yes","smoothness":"excellent","surface":"asphalt","id":"way/1284488222"},"geometry":{"type":"LineString","coordinates":[[2.4084392,48.8774205],[2.4084865,48.8774363],[2.4085235,48.8774487]]},"id":"way/1284488222"},{"type":"Feature","properties":{"@id":"way/1284488223","footway":"traffic_island","highway":"footway","lit":"yes","smoothness":"excellent","surface":"asphalt","id":"way/1284488223"},"geometry":{"type":"LineString","coordinates":[[2.4084098,48.8774106],[2.4084392,48.8774205]]},"id":"way/1284488223"},{"type":"Feature","properties":{"@id":"way/1287094256","footway":"sidewalk","highway":"footway","lit":"yes","smoothness":"excellent","surface":"asphalt","id":"way/1287094256"},"geometry":{"type":"LineString","coordinates":[[2.408209,48.8779582],[2.4082606,48.8779685],[2.4083267,48.8779808],[2.4087786,48.8781169]]},"id":"way/1287094256"},{"type":"Feature","properties":{"@id":"way/1323891710","crossing":"marked","crossing:markings":"pictograms","cycleway":"crossing","highway":"cycleway","lit":"yes","name":"Avenue de la Porte des Lilas","name:etymology:wikidata":"Q3399160","oneway":"yes","surface":"asphalt","id":"way/1323891710"},"geometry":{"type":"LineString","coordinates":[[2.4086071,48.8775655],[2.4086729,48.8775864]]},"id":"way/1323891710"},{"type":"Feature","properties":{"@id":"way/1323891711","crossing":"traffic_signals","crossing:markings":"zebra","crossing:signals":"yes","footway":"crossing","highway":"footway","lit":"yes","smoothness":"good","surface":"asphalt","id":"way/1323891711"},"geometry":{"type":"LineString","coordinates":[[2.4084904,48.8776633],[2.4085236,48.8776173],[2.4085706,48.8775546],[2.4085785,48.877544]]},"id":"way/1323891711"},{"type":"Feature","properties":{"@id":"way/1325115992","crossing":"marked","crossing:markings":"zebra","footway":"crossing","highway":"footway","lit":"yes","surface":"asphalt","id":"way/1325115992"},"geometry":{"type":"LineString","coordinates":[[2.4086317,48.8775349],[2.4086934,48.8775529],[2.4087703,48.8775752]]},"id":"way/1325115992"},{"type":"Feature","properties":{"@id":"way/1325115993","footway":"sidewalk","highway":"footway","lit":"yes","surface":"asphalt","id":"way/1325115993"},"geometry":{"type":"LineString","coordinates":[[2.4085936,48.8775254],[2.4086317,48.8775349]]},"id":"way/1325115993"},{"type":"Feature","properties":{"@id":"way/1325115994","crossing":"marked","crossing:markings":"pictograms","cycleway":"crossing","highway":"cycleway","lit":"yes","name":"Avenue de la Porte des Lilas","name:etymology:wikidata":"Q3399160","oneway":"yes","surface":"asphalt","width":"2","id":"way/1325115994"},"geometry":{"type":"LineString","coordinates":[[2.4086729,48.8775864],[2.408749,48.8776097]]},"id":"way/1325115994"},{"type":"Feature","properties":{"@id":"way/1325115995","crossing":"marked","crossing:markings":"zebra","footway":"crossing","highway":"footway","lit":"yes","smoothness":"excellent","surface":"asphalt","id":"way/1325115995"},"geometry":{"type":"LineString","coordinates":[[2.4092704,48.8778985],[2.4093008,48.877852],[2.409325,48.8778153]]},"id":"way/1325115995"},{"type":"Feature","properties":{"@id":"way/1325145887","crossing":"marked","crossing:markings":"zebra","footway":"crossing","highway":"footway","lit":"yes","smoothness":"excellent","surface":"asphalt","id":"way/1325145887"},"geometry":{"type":"LineString","coordinates":[[2.4090775,48.8781723],[2.4090798,48.878163],[2.4091213,48.8781127],[2.4091621,48.878057]]},"id":"way/1325145887"},{"type":"Feature","properties":{"@id":"way/1325145888","crossing":"marked","crossing:markings":"zebra","footway":"crossing","highway":"footway","lit":"yes","smoothness":"good","surface":"asphalt","id":"way/1325145888"},"geometry":{"type":"LineString","coordinates":[[2.4082872,48.8779334],[2.4082955,48.8779223],[2.4083321,48.8778734],[2.4083809,48.8778086]]},"id":"way/1325145888"},{"type":"Feature","properties":{"@id":"way/1325145891","crossing":"unmarked","crossing:markings":"no","cycleway":"crossing","highway":"cycleway","lit":"yes","name":"Avenue de la Porte des Lilas","name:etymology:wikidata":"Q3399160","oneway":"yes","surface":"asphalt","id":"way/1325145891"},"geometry":{"type":"LineString","coordinates":[[2.4082627,48.8779125],[2.4081534,48.87788],[2.4080438,48.8778316]]},"id":"way/1325145891"},{"type":"Feature","properties":{"@id":"way/1335997625","crossing":"unmarked","crossing:markings":"no","cycleway":"crossing","fixme":"Marked? imagery outdated","highway":"cycleway","lit":"yes","name":"Avenue de la Porte des Lilas","name:etymology:wikidata":"Q3399160","oneway":"yes","surface":"asphalt","id":"way/1335997625"},"geometry":{"type":"LineString","coordinates":[[2.40948,48.8778298],[2.4095338,48.8778664],[2.4095834,48.8778999],[2.4096279,48.8779318],[2.4096398,48.8779525]]},"id":"way/1335997625"},{"type":"Feature","properties":{"@id":"way/1422314579","cycleway":"crossing","highway":"cycleway","lit":"yes","name":"Avenue de la Porte des Lilas","name:etymology:wikidata":"Q3399160","oneway":"yes","surface":"asphalt","id":"way/1422314579"},"geometry":{"type":"LineString","coordinates":[[2.4084889,48.8775321],[2.4085706,48.8775546],[2.4086071,48.8775655]]},"id":"way/1422314579"},{"type":"Feature","properties":{"@id":"way/1422314580","cycleway":"crossing","highway":"cycleway","lit":"yes","name":"Avenue de la Porte des Lilas","name:etymology:wikidata":"Q3399160","oneway":"yes","surface":"asphalt","id":"way/1422314580"},"geometry":{"type":"LineString","coordinates":[[2.4081317,48.8775216],[2.4082158,48.8775254]]},"id":"way/1422314580"},{"type":"Feature","properties":{"@id":"way/1457795532","crossing":"marked","crossing:markings":"zebra","footway":"crossing","highway":"footway","lit":"yes","smoothness":"excellent","surface":"asphalt","id":"way/1457795532"},"geometry":{"type":"LineString","coordinates":[[2.4093371,48.8777971],[2.4093422,48.8777893],[2.4093483,48.8777791]]},"id":"way/1457795532"},{"type":"Feature","properties":{"@id":"way/1457795533","footway":"sidewalk","highway":"footway","lit":"yes","smoothness":"excellent","surface":"asphalt","id":"way/1457795533"},"geometry":{"type":"LineString","coordinates":[[2.409325,48.8778153],[2.4093371,48.8777971]]},"id":"way/1457795533"},{"type":"Feature","properties":{"@id":"way/1469804236","cycleway:right":"separate","dual_carriageway":"yes","highway":"secondary","lanes":"3","lit":"yes","maxspeed":"30","name":"Avenue de la Porte des Lilas","name:etymology:wikidata":"Q3399160","oneway":"yes","sidewalk:left":"no","sidewalk:right":"separate","surface":"asphalt","id":"way/1469804236"},"geometry":{"type":"LineString","coordinates":[[2.408188,48.877801],[2.4080015,48.8776786],[2.4079059,48.8776352]]},"id":"way/1469804236"},{"type":"Feature","properties":{"@id":"way/1469804239","cycleway:right":"separate","dual_carriageway":"yes","highway":"secondary","lanes":"3","lit":"yes","maxspeed":"30","name":"Avenue de la Porte des Lilas","name:etymology:wikidata":"Q3399160","oneway":"yes","sidewalk:left":"no","sidewalk:right":"separate","smoothness":"excellent","surface":"asphalt","id":"way/1469804239"},"geometry":{"type":"LineString","coordinates":[[2.4080226,48.8775579],[2.408085,48.8775802],[2.4081413,48.8775846],[2.4081883,48.877583],[2.4082523,48.8775788],[2.4082947,48.8775787]]},"id":"way/1469804239"},{"type":"Feature","properties":{"@id":"way/1469804240","cycleway:right":"separate","dual_carriageway":"yes","highway":"secondary","lanes":"2","lit":"yes","maxspeed":"30","name":"Avenue de la Porte des Lilas","name:etymology:wikidata":"Q3399160","oneway":"yes","sidewalk:right":"separate","smoothness":"excellent","surface":"asphalt","id":"way/1469804240"},"geometry":{"type":"LineString","coordinates":[[2.4097111,48.878196],[2.4095969,48.8781684],[2.4094989,48.8781615],[2.4094251,48.8781567]]},"id":"way/1469804240"},{"type":"Feature","properties":{"@id":"node/94131756","highway":"traffic_signals","id":"node/94131756"},"geometry":{"type":"Point","coordinates":[2.408188,48.877801]},"id":"node/94131756"},{"type":"Feature","properties":{"@id":"node/94132137","highway":"traffic_signals","id":"node/94132137"},"geometry":{"type":"Point","coordinates":[2.4082947,48.8775787]},"id":"node/94132137"},{"type":"Feature","properties":{"@id":"node/874389108","amenity":"drinking_water","check_date":"2023-08-03","man_made":"water_tap","id":"node/874389108"},"geometry":{"type":"Point","coordinates":[2.4088226,48.8782046]},"id":"node/874389108"},{"type":"Feature","properties":{"@id":"node/2042462307","STIF:zone":"2","bench":"yes","bin":"yes","bus":"yes","highway":"bus_stop","lit":"yes","name":"Porte des Lilas-Métro","public_transport":"platform","ref:FR:STIF":"39460","route_ref":"61;N12;N23","shelter":"yes","tactile_paving":"no","type:RATP":"bus","wheelchair":"yes","id":"node/2042462307"},"geometry":{"type":"Point","coordinates":[2.4091944,48.877758]},"id":"node/2042462307"},{"type":"Feature","properties":{"@id":"node/10884066319","circumference":"1.1","genus":"Pinus","height":"8","leaf_type":"needleleaved","natural":"tree","ref:FR:Paris:arbre":"2009258","species":"Pinus nigra","id":"node/10884066319"},"geometry":{"type":"Point","coordinates":[2.4091961,48.8779103]},"id":"node/10884066319"},{"type":"Feature","properties":{"@id":"node/12043528201","genus":"Pinus","leaf_type":"needleleaved","natural":"tree","species":"Pinus nigra","id":"node/12043528201"},"geometry":{"type":"Point","coordinates":[2.409248,48.878021]},"id":"node/12043528201"}]}