{"type":"FeatureCollection","features":[{"type":"Feature","properties":{"@id":"way/685508516","building":"yes","source":"cadastre-dgi-fr source : Direction Générale des Finances Publiques - Cadastre. Mise à jour : 2019","wall":"no","id":"way/685508516"},"geometry":{"type":"Polygon","coordinates":[[[2.4104937,48.8764743],[2.4105178,48.8764284],[2.4105472,48.876305],[2.4105732,48.8762584],[2.4106107,48.8762154],[2.4107001,48.8761464],[2.4107595,48.8760834],[2.4104937,48.8764743]]]},"id":"way/685508516"},{"type":"Feature","properties":{"@id":"way/1473240206","addr:city":"Paris","addr:postcode":"75020","addr:street":"Place du Maquis du Vercors","amenity":"theatre","building":"tent","contact:facebook":"CirqueElectrique.Paris","contact:instagram":"__cirque_electrique__","email":"reservation@cirque-electrique.com","name":"Cirque Electrique","opening_hours":"We-Sa 18:00-02:00; Su 16:00-00:00","theatre:genre":"circus","toilets:wheelchair":"yes","website":"https://cirque-electrique.com","wheelchair":"yes","id":"way/1473240206"},"geometry":{"type":"Polygon","coordinates":[[[2.4093881,48.8766436],[2.4093363,48.8766115],[2.4093089,48.8765683],[2.4093105,48.8765216],[2.4093409,48.8764793],[2.4093948,48.8764488],[2.409463,48.8764353],[2.4095331,48.8764416],[2.4094891,48.8763986],[2.4094819,48.8763469],[2.4095133,48.8762994],[2.4095756,48.8762676],[2.4096534,48.8762593],[2.4097277,48.8762767],[2.4097802,48.8763154],[2.409798,48.8763659],[2.4097768,48.8764158],[2.4097217,48.8764529],[2.4096463,48.876468],[2.4095712,48.8764553],[2.4095943,48.8764656],[2.4096348,48.876504],[2.409648,48.87655],[2.4096316,48.8765955],[2.4095885,48.8766327],[2.4095261,48.8766552],[2.4094552,48.876659],[2.4093881,48.8766436]]]},"id":"way/1473240206"},{"type":"Feature","properties":{"@id":"node/10967924995","highway":"street_lamp","id":"node/10967924995"},"geometry":{"type":"Point","coordinates":[2.4096854,48.8756295]},"id":"node/10967924995"},{"type":"Feature","properties":{"@id":"node/10967924997","highway":"street_lamp","id":"node/10967924997"},"geometry":{"type":"Point","coordinates":[2.4095956,48.8759342]},"id":"node/10967924997"},{"type":"Feature","properties":{"@id":"node/10967925002","highway":"street_lamp","id":"node/10967925002"},"geometry":{"type":"Point","coordinates":[2.4102798,48.8758204]},"id":"node/10967925002"},{"type":"Feature","properties":{"@id":"node/10967925003","highway":"street_lamp","id":"node/10967925003"},"geometry":{"type":"Point","coordinates":[2.4100301,48.8760641]},"id":"node/10967925003"},{"type":"Feature","properties":{"@id":"node/10967925004","highway":"street_lamp","id":"node/10967925004"},"geometry":{"type":"Point","coordinates":[2.4100817,48.8762267]},"id":"node/10967925004"},{"type":"Feature","properties":{"@id":"node/10967938311","highway":"street_lamp","id":"node/10967938311"},"geometry":{"type":"Point","coordinates":[2.4099814,48.8764312]},"id":"node/10967938311"},{"type":"Feature","properties":{"@id":"node/11514039330","natural":"tree","id":"node/11514039330"},"geometry":{"type":"Point","coordinates":[2.4105361,48.8765035]},"id":"node/11514039330"},{"type":"Feature","properties":{"@id":"node/11514039331","natural":"tree","id":"node/11514039331"},"geometry":{"type":"Point","coordinates":[2.4105649,48.8764656]},"id":"node/11514039331"},{"type":"Feature","properties":{"@id":"node/11514039332","natural":"tree","id":"node/11514039332"},"geometry":{"type":"Point","coordinates":[2.4105924,48.876425]},"id":"node/11514039332"},{"type":"Feature","properties":{"@id":"node/11514039333","natural":"tree","id":"node/11514039333"},"geometry":{"type":"Point","coordinates":[2.410628,48.876373]},"id":"node/11514039333"},{"type":"Feature","properties":{"@id":"node/11514039334","natural":"tree","id":"node/11514039334"},"geometry":{"type":"Point","coordinates":[2.4106461,48.8763478]},"id":"node/11514039334"},{"type":"Feature","properties":{"@id":"node/11514039335","natural":"tree","id":"node/11514039335"},"geometry":{"type":"Point","coordinates":[2.410689,48.8762843]},"id":"node/11514039335"},{"type":"Feature","properties":{"@id":"node/11514039336","natural":"tree","id":"node/11514039336"},"geometry":{"type":"Point","coordinates":[2.4107125,48.8762517]},"id":"node/11514039336"},{"type":"Feature","properties":{"@id":"node/11514039337","natural":"tree","id":"node/11514039337"},"geometry":{"type":"Point","coordinates":[2.4107333,48.8762191]},"id":"node/11514039337"},{"type":"Feature","properties":{"@id":"node/11514039338","natural":"tree","id":"node/11514039338"},"geometry":{"type":"Point","coordinates":[2.4107534,48.8761869]},"id":"node/11514039338"},{"type":"Feature","properties":{"@id":"node/11514039339","natural":"tree","id":"node/11514039339"},"geometry":{"type":"Point","coordinates":[2.4107809,48.8761476]},"id":"node/11514039339"},{"type":"Feature","properties":{"@id":"node/11514039340","natural":"tree","id":"node/11514039340"},"geometry":{"type":"Point","coordinates":[2.410805,48.8761132]},"id":"node/11514039340"},{"type":"Feature","properties":{"@id":"node/11514039341","natural":"tree","id":"node/11514039341"},"geometry":{"type":"Point","coordinates":[2.4108325,48.8760797]},"id":"node/11514039341"},{"type":"Feature","properties":{"@id":"node/11514039342","natural":"tree","id":"node/11514039342"},"geometry":{"type":"Point","coordinates":[2.4108472,48.8760541]},"id":"node/11514039342"}]}