{"type":"FeatureCollection","features":[{"type":"Feature","properties":{"@id":"way/81704877","building":"yes","building:levels":"1","name":"Folie Observatoire N4","id":"way/81704877"},"geometry":{"type":"Polygon","coordinates":[[[2.3883078,48.8939155],[2.388369,48.8938642],[2.3884781,48.8939205],[2.388417,48.8939718],[2.3883078,48.8939155]]]},"id":"way/81704877"},{"type":"Feature","properties":{"@id":"way/1197272919","building":"yes","id":"way/1197272919"},"geometry":{"type":"Polygon","coordinates":[[[2.3879108,48.8940194],[2.3879091,48.8939653],[2.3878752,48.8939657],[2.3878746,48.8939447],[2.3879405,48.8939438],[2.3879429,48.894019],[2.3879108,48.8940194]]]},"id":"way/1197272919"},{"type":"Feature","properties":{"@id":"way/22690171","highway":"footway","name":"All√©e du Cercle","surface":"asphalt","id":"way/22690171"},"geometry":{"type":"LineString","coordinates":[[2.3885736,48.8941612],[2.3885153,48.8941145],[2.3884772,48.8940252],[2.3884853,48.8939187],[2.3884328,48.8938115],[2.3884369,48.8937801],[2.3884693,48.8935334],[2.3885363,48.8933814],[2.388597,48.8932865],[2.3886714,48.8931953]]},"id":"way/22690171"},{"type":"Feature","properties":{"@id":"way/58162143","highway":"footway","source":"GPS + CG93-Aerodata2013","surface":"paving_stones","id":"way/58162143"},"geometry":{"type":"LineString","coordinates":[[2.3885363,48.8933814],[2.3887004,48.8934655],[2.3887697,48.8936247],[2.3889344,48.8936316],[2.388935,48.8937411],[2.3890934,48.8937384],[2.3890023,48.8939963],[2.389146,48.8941347],[2.3892427,48.8942036],[2.3893077,48.894227],[2.3895253,48.8942728],[2.3895733,48.8942813],[2.3896709,48.8942978],[2.3898892,48.8943239],[2.3900392,48.89438],[2.3901918,48.894442],[2.3902998,48.8945029],[2.3903059,48.8945578],[2.3902805,48.8945962],[2.3901261,48.8946115],[2.3900369,48.8946233],[2.3900061,48.894638],[2.3900036,48.8946667],[2.3900336,48.8947119],[2.3901347,48.8947811],[2.3903628,48.8948754],[2.390612,48.8949453],[2.3908029,48.8950013],[2.390848,48.8950288],[2.3908475,48.8950391],[2.3908469,48.895051],[2.3908176,48.8950665],[2.3907614,48.8950694],[2.3907232,48.8950768]]},"id":"way/58162143"},{"type":"Feature","properties":{"@id":"way/245796822","leaf_type":"broadleaved","natural":"tree_row","id":"way/245796822"},"geometry":{"type":"LineString","coordinates":[[2.3885384,48.8940596],[2.3884493,48.8938108],[2.3884963,48.8935337],[2.3886174,48.8932774]]},"id":"way/245796822"},{"type":"Feature","properties":{"@id":"way/245796823","leaf_type":"broadleaved","natural":"tree_row","id":"way/245796823"},"geometry":{"type":"LineString","coordinates":[[2.388387,48.893848],[2.3883793,48.8937976],[2.388425,48.893532],[2.3885587,48.8932538]]},"id":"way/245796823"},{"type":"Feature","properties":{"@id":"way/251641320","bridge":"yes","highway":"footway","layer":"2","surface":"paving_stones","id":"way/251641320"},"geometry":{"type":"LineString","coordinates":[[2.3885613,48.8941708],[2.3881687,48.8945238],[2.3879838,48.894677],[2.3877085,48.8949297]]},"id":"way/251641320"},{"type":"Feature","properties":{"@id":"way/271358933","highway":"footway","image":"https://photos.app.goo.gl/j1BwyciYnkZLBmmX7","incline":"up","surface":"asphalt","id":"way/271358933"},"geometry":{"type":"LineString","coordinates":[[2.3886106,48.8942265],[2.3886209,48.8942181]]},"id":"way/271358933"},{"type":"Feature","properties":{"@id":"way/271358935","highway":"footway","source":"Bing","surface":"paving_stones","id":"way/271358935"},"geometry":{"type":"LineString","coordinates":[[2.3892777,48.8945281],[2.3892952,48.89452],[2.3892569,48.8945001],[2.3890557,48.8944017],[2.3888129,48.8942832],[2.3885736,48.8941612],[2.3885613,48.8941708]]},"id":"way/271358935"},{"type":"Feature","properties":{"@id":"way/753939489","highway":"footway","lit":"no","surface":"paving_stones","id":"way/753939489"},"geometry":{"type":"LineString","coordinates":[[2.3871565,48.8937329],[2.3873726,48.8938398],[2.3875174,48.8939226],[2.3875891,48.893935],[2.3876381,48.8939319],[2.3876998,48.8939002],[2.3877514,48.8937833],[2.3877782,48.8936912],[2.3877896,48.8936652],[2.3878017,48.8936564],[2.3884772,48.8940252]]},"id":"way/753939489"},{"type":"Feature","properties":{"@id":"way/1210091282","bridge":"yes","highway":"footway","layer":"2","surface":"paving_stones","id":"way/1210091282"},"geometry":{"type":"LineString","coordinates":[[2.3880632,48.8944755],[2.3880498,48.8944689]]},"id":"way/1210091282"},{"type":"Feature","properties":{"@id":"way/1210091284","bridge":"yes","highway":"footway","surface":"concrete","id":"way/1210091284"},"geometry":{"type":"LineString","coordinates":[[2.3880931,48.8944488],[2.3881192,48.8944598],[2.3881145,48.8944647]]},"id":"way/1210091284"},{"type":"Feature","properties":{"@id":"way/1210091285","bridge":"yes","highway":"footway","surface":"concrete","id":"way/1210091285"},"geometry":{"type":"LineString","coordinates":[[2.3880877,48.8944541],[2.3880931,48.8944488]]},"id":"way/1210091285"},{"type":"Feature","properties":{"@id":"way/1210091296","bridge":"yes","highway":"footway","surface":"paving_stones","id":"way/1210091296"},"geometry":{"type":"LineString","coordinates":[[2.3880966,48.8944907],[2.3880857,48.8944861],[2.3880632,48.8944755],[2.3880723,48.8944675]]},"id":"way/1210091296"},{"type":"Feature","properties":{"@id":"way/1210091310","highway":"footway","image":"https://photos.app.goo.gl/j1BwyciYnkZLBmmX7","incline":"up","surface":"paving_stones","id":"way/1210091310"},"geometry":{"type":"LineString","coordinates":[[2.3887181,48.8942636],[2.3887365,48.8942725]]},"id":"way/1210091310"},{"type":"Feature","properties":{"@id":"way/1210091312","highway":"footway","image":"https://photos.app.goo.gl/j1BwyciYnkZLBmmX7","incline":"up","surface":"paving_stones","id":"way/1210091312"},"geometry":{"type":"LineString","coordinates":[[2.3886669,48.894239],[2.3886822,48.8942463]]},"id":"way/1210091312"},{"type":"Feature","properties":{"@id":"way/1210091314","highway":"footway","image":"https://photos.app.goo.gl/j1BwyciYnkZLBmmX7","surface":"paving_stones","id":"way/1210091314"},"geometry":{"type":"LineString","coordinates":[[2.3887792,48.8942931],[2.3888129,48.8942832]]},"id":"way/1210091314"},{"type":"Feature","properties":{"@id":"way/1246980102","highway":"footway","surface":"metal","id":"way/1246980102"},"geometry":{"type":"LineString","coordinates":[[2.388159,48.8934522],[2.3884369,48.8937801]]},"id":"way/1246980102"},{"type":"Feature","properties":{"@id":"node/11210573015","natural":"tree","id":"node/11210573015"},"geometry":{"type":"Point","coordinates":[2.3890007,48.8937851]},"id":"node/11210573015"},{"type":"Feature","properties":{"@id":"node/11210573016","natural":"tree","id":"node/11210573016"},"geometry":{"type":"Point","coordinates":[2.3889893,48.8938583]},"id":"node/11210573016"},{"type":"Feature","properties":{"@id":"node/11210573017","natural":"tree","id":"node/11210573017"},"geometry":{"type":"Point","coordinates":[2.3889772,48.8939187]},"id":"node/11210573017"},{"type":"Feature","properties":{"@id":"node/11210573018","natural":"tree","id":"node/11210573018"},"geometry":{"type":"Point","coordinates":[2.3889591,48.894013]},"id":"node/11210573018"},{"type":"Feature","properties":{"@id":"node/11210573019","natural":"tree","id":"node/11210573019"},"geometry":{"type":"Point","coordinates":[2.3889457,48.8940994]},"id":"node/11210573019"},{"type":"Feature","properties":{"@id":"node/11210573020","natural":"tree","id":"node/11210573020"},"geometry":{"type":"Point","coordinates":[2.3889269,48.8941805]},"id":"node/11210573020"},{"type":"Feature","properties":{"@id":"node/11210573024","amenity":"bench","backrest":"no","id":"node/11210573024"},"geometry":{"type":"Point","coordinates":[2.388363,48.8944583]},"id":"node/11210573024"},{"type":"Feature","properties":{"@id":"node/11210573025","amenity":"bench","backrest":"no","id":"node/11210573025"},"geometry":{"type":"Point","coordinates":[2.388436,48.8943959]},"id":"node/11210573025"},{"type":"Feature","properties":{"@id":"node/11210573026","amenity":"bench","backrest":"no","id":"node/11210573026"},"geometry":{"type":"Point","coordinates":[2.3885065,48.8943342]},"id":"node/11210573026"},{"type":"Feature","properties":{"@id":"node/11210573027","amenity":"bench","backrest":"no","id":"node/11210573027"},"geometry":{"type":"Point","coordinates":[2.3885762,48.8942725]},"id":"node/11210573027"}]}