{"type":"FeatureCollection","features":[{"type":"Feature","properties":{"@id":"way/64037894","building":"yes","building:levels":"6","source":"cadastre-dgi-fr source : Direction Générale des Impôts - Cadastre. Mise à jour : 2010","id":"way/64037894"},"geometry":{"type":"Polygon","coordinates":[[[2.3827235,48.8948368],[2.3826923,48.8948104],[2.3826633,48.8947859],[2.3827567,48.8947339],[2.3827916,48.8947628],[2.3828179,48.8947483],[2.3827834,48.8947188],[2.3828275,48.894694],[2.3828877,48.8947449],[2.3827235,48.8948368]]]},"id":"way/64037894"},{"type":"Feature","properties":{"@id":"way/64038022","building":"yes","building:levels":"1","source":"cadastre-dgi-fr source : Direction Générale des Impôts - Cadastre. Mise à jour : 2010","id":"way/64038022"},"geometry":{"type":"Polygon","coordinates":[[[2.3834994,48.8946854],[2.3835232,48.894703],[2.383376,48.8947791],[2.3833529,48.8947592],[2.3834142,48.8947268],[2.3832029,48.8945684],[2.383283,48.8945233],[2.3833232,48.8945534],[2.3834169,48.8946236],[2.3834994,48.8946854]]]},"id":"way/64038022"},{"type":"Feature","properties":{"@id":"way/64038146","building":"yes","source":"cadastre-dgi-fr source : Direction Générale des Impôts - Cadastre. Mise à jour : 2010","id":"way/64038146"},"geometry":{"type":"Polygon","coordinates":[[[2.3827567,48.8947339],[2.3826633,48.8947859],[2.382628,48.894756],[2.3826059,48.8947373],[2.3825532,48.8946928],[2.3826416,48.8946211],[2.3827274,48.8946925],[2.3827444,48.894683],[2.3826522,48.8946123],[2.3827038,48.8945839],[2.3827905,48.8946552],[2.3828094,48.8946657],[2.3828377,48.8946887],[2.3828275,48.894694],[2.3827834,48.8947188],[2.3827567,48.8947339]]]},"id":"way/64038146"},{"type":"Feature","properties":{"@id":"way/64039251","building":"yes","source":"cadastre-dgi-fr source : Direction Générale des Impôts - Cadastre. Mise à jour : 2010","id":"way/64039251"},"geometry":{"type":"Polygon","coordinates":[[[2.383283,48.8945233],[2.3832029,48.8945684],[2.3830008,48.894417],[2.3830815,48.8943717],[2.383283,48.8945233]]]},"id":"way/64039251"},{"type":"Feature","properties":{"@id":"way/64039731","building":"yes","building:levels":"7","source":"cadastre-dgi-fr source : Direction Générale des Impôts - Cadastre. Mise à jour : 2010","id":"way/64039731"},"geometry":{"type":"Polygon","coordinates":[[[2.3829606,48.8945879],[2.3828876,48.8946292],[2.3828638,48.8946127],[2.3827905,48.8946552],[2.3827038,48.8945839],[2.3828745,48.8944891],[2.3829213,48.8944617],[2.3830118,48.8945306],[2.3829399,48.8945702],[2.3829606,48.8945879]]]},"id":"way/64039731"},{"type":"Feature","properties":{"@id":"way/64039986","building":"yes","building:levels":"4","source":"cadastre-dgi-fr source : Direction Générale des Impôts - Cadastre. Mise à jour : 2010","id":"way/64039986"},"geometry":{"type":"Polygon","coordinates":[[[2.3834994,48.8946854],[2.3834169,48.8946236],[2.3836127,48.8945185],[2.3836921,48.8945794],[2.3834994,48.8946854]]]},"id":"way/64039986"},{"type":"Feature","properties":{"@id":"way/64040765","building":"yes","source":"cadastre-dgi-fr source : Direction Générale des Impôts - Cadastre. Mise à jour : 2010","id":"way/64040765"},"geometry":{"type":"Polygon","coordinates":[[[2.3828877,48.8947449],[2.3828275,48.894694],[2.3828377,48.8946887],[2.383058,48.8945658],[2.3830118,48.8945306],[2.3829213,48.8944617],[2.3829609,48.8944394],[2.3831565,48.8945942],[2.3828877,48.8947449]]]},"id":"way/64040765"},{"type":"Feature","properties":{"@id":"way/282471674","building":"yes","source":"cadastre-dgi-fr source : Direction Générale des Impôts - Cadastre. Mise à jour : 2010","id":"way/282471674"},"geometry":{"type":"Polygon","coordinates":[[[2.3829296,48.8950106],[2.3829066,48.8949912],[2.3828466,48.8949406],[2.3827807,48.8948851],[2.3827235,48.8948368],[2.3828877,48.8947449],[2.3831565,48.8945942],[2.3832029,48.8945684],[2.3834142,48.8947268],[2.3833529,48.8947592],[2.383376,48.8947791],[2.3832888,48.8948246],[2.3830969,48.894924],[2.3829296,48.8950106]]]},"id":"way/282471674"},{"type":"Feature","properties":{"@id":"way/19435217","cycleway:both":"no","highway":"residential","maxspeed":"30","name":"Rue Rouvet","name:etymology:wikidata":"Q93486918","oneway":"yes","oneway:bicycle":"no","sidewalk":"separate","surface":"asphalt","id":"way/19435217"},"geometry":{"type":"LineString","coordinates":[[2.3851938,48.8931736],[2.3851215,48.8931813],[2.3850583,48.8931908],[2.3846834,48.8934147],[2.3846111,48.8934523],[2.3845156,48.8935017],[2.3837431,48.8939361],[2.3836661,48.8939774],[2.383592,48.8940212],[2.3826424,48.894549],[2.3824645,48.8946858],[2.3823917,48.8947423],[2.3823308,48.8947894]]},"id":"way/19435217"},{"type":"Feature","properties":{"@id":"way/50991318","cycleway":"sidewalk","highway":"cycleway","name":"Avenue Corentin Cariou","name:etymology:wikidata":"Q2997244","oneway":"yes","surface":"asphalt","id":"way/50991318"},"geometry":{"type":"LineString","coordinates":[[2.3823088,48.8946875],[2.3823917,48.8947423],[2.3824279,48.8947662],[2.382511,48.8947739],[2.3825175,48.8947795],[2.3825825,48.8948354],[2.3827217,48.8949549]]},"id":"way/50991318"},{"type":"Feature","properties":{"@id":"way/282471698","highway":"footway","layer":"-1","lit":"yes","surface":"asphalt","tunnel":"yes","id":"way/282471698"},"geometry":{"type":"LineString","coordinates":[[2.382526,48.8948135],[2.3823075,48.8949329]]},"id":"way/282471698"},{"type":"Feature","properties":{"@id":"way/338687786","cycleway":"on_street","highway":"cycleway","name":"Avenue Corentin Cariou","name:etymology:wikidata":"Q2997244","oneway":"yes","surface":"asphalt","id":"way/338687786"},"geometry":{"type":"LineString","coordinates":[[2.3826434,48.895127],[2.3823419,48.8948701],[2.382289,48.894825]]},"id":"way/338687786"},{"type":"Feature","properties":{"@id":"way/673062632","cycleway:right":"separate","highway":"primary","lanes":"3","lanes:backward":"1","lanes:forward":"2","lit":"yes","maxheight":"default","maxspeed":"30","name":"Avenue Corentin Cariou","name:etymology:wikidata":"Q2997244","sidewalk:right":"separate","surface":"asphalt","id":"way/673062632"},"geometry":{"type":"LineString","coordinates":[[2.3827408,48.8951429],[2.3825252,48.8949588],[2.3823914,48.8948445],[2.3823308,48.8947894],[2.3822734,48.8947381]]},"id":"way/673062632"},{"type":"Feature","properties":{"@id":"way/680266743","highway":"footway","id":"way/680266743"},"geometry":{"type":"LineString","coordinates":[[2.3825825,48.8948354],[2.3825631,48.8948475]]},"id":"way/680266743"},{"type":"Feature","properties":{"@id":"way/694164003","cycleway:right":"separate","dual_carriageway":"yes","highway":"primary","lanes":"2","lit":"yes","maxheight":"4","maxheight:signed":"no","maxspeed":"30","name":"Avenue de Flandre","name:etymology:wikidata":"Q157070","oneway":"yes","sidewalk:right":"separate","surface":"asphalt","id":"way/694164003"},"geometry":{"type":"LineString","coordinates":[[2.3822734,48.8947381],[2.382159,48.8946945],[2.3816152,48.8944877],[2.3814641,48.8944376]]},"id":"way/694164003"},{"type":"Feature","properties":{"@id":"way/700801789","cycleway:right":"separate","dual_carriageway":"yes","highway":"primary","lanes":"2","lit":"yes","maxspeed":"30","name":"Avenue de Flandre","name:etymology:wikidata":"Q157070","oneway":"yes","sidewalk:right":"separate","surface":"asphalt","id":"way/700801789"},"geometry":{"type":"LineString","coordinates":[[2.3817076,48.8943154],[2.3818064,48.894371],[2.3820409,48.8945426],[2.3822226,48.8946758],[2.3822734,48.8947381]]},"id":"way/700801789"},{"type":"Feature","properties":{"@id":"way/700801791","cycleway":"sidewalk","highway":"cycleway","name":"Avenue de Flandre","name:etymology:wikidata":"Q157070","oneway":"yes","surface":"asphalt","id":"way/700801791"},"geometry":{"type":"LineString","coordinates":[[2.3817076,48.8943154],[2.381879,48.8943178],[2.3818947,48.8943299],[2.3822382,48.8945931],[2.3822746,48.8946618],[2.3823088,48.8946875]]},"id":"way/700801791"},{"type":"Feature","properties":{"@id":"way/700801792","cycleway":"on_street","highway":"cycleway","lit":"yes","name":"Avenue de Flandre","name:etymology:wikidata":"Q157070","oneway":"yes","surface":"asphalt","id":"way/700801792"},"geometry":{"type":"LineString","coordinates":[[2.3822006,48.89477],[2.3821323,48.8947281],[2.3815751,48.8945134],[2.3815338,48.8944975],[2.3814641,48.8944376]]},"id":"way/700801792"},{"type":"Feature","properties":{"@id":"way/1193560528","footway":"sidewalk","highway":"footway","lit":"yes","surface":"paving_stones","id":"way/1193560528"},"geometry":{"type":"LineString","coordinates":[[2.382561,48.8951766],[2.3823322,48.8949945],[2.3822444,48.8949246],[2.3821862,48.8948901],[2.3821474,48.8948675]]},"id":"way/1193560528"},{"type":"Feature","properties":{"@id":"way/1193560566","footway":"sidewalk","highway":"footway","surface":"paving_stones","id":"way/1193560566"},"geometry":{"type":"LineString","coordinates":[[2.3824359,48.8946646],[2.3823193,48.894591],[2.3820692,48.894408],[2.3819391,48.8943401],[2.3819129,48.8943234]]},"id":"way/1193560566"},{"type":"Feature","properties":{"@id":"way/1193560567","footway":"sidewalk","highway":"footway","surface":"asphalt","id":"way/1193560567"},"geometry":{"type":"LineString","coordinates":[[2.3835491,48.8939923],[2.3835055,48.8940302],[2.3827759,48.8944398],[2.3825748,48.8945513],[2.3824359,48.8946646]]},"id":"way/1193560567"},{"type":"Feature","properties":{"@id":"way/1193560572","footway":"sidewalk","highway":"footway","surface":"asphalt","id":"way/1193560572"},"geometry":{"type":"LineString","coordinates":[[2.3825084,48.8947144],[2.3825285,48.8946968],[2.3825694,48.8946602],[2.3825989,48.8946456],[2.3826539,48.8945949],[2.3831917,48.894296],[2.3836329,48.8940505]]},"id":"way/1193560572"},{"type":"Feature","properties":{"@id":"way/1193560573","footway":"sidewalk","highway":"footway","surface":"paving_stones","id":"way/1193560573"},"geometry":{"type":"LineString","coordinates":[[2.3825627,48.8947576],[2.3825292,48.8947329],[2.3825084,48.8947144]]},"id":"way/1193560573"},{"type":"Feature","properties":{"@id":"way/1193560574","footway":"sidewalk","highway":"footway","surface":"paving_stones","id":"way/1193560574"},"geometry":{"type":"LineString","coordinates":[[2.3829731,48.8950838],[2.3825627,48.8947576]]},"id":"way/1193560574"},{"type":"Feature","properties":{"@id":"way/1193570136","footway":"sidewalk","highway":"footway","lit":"yes","surface":"paving_stones","id":"way/1193570136"},"geometry":{"type":"LineString","coordinates":[[2.3822444,48.8949246],[2.3823334,48.8948744]]},"id":"way/1193570136"},{"type":"Feature","properties":{"@id":"way/1193570137","crossing":"traffic_signals","crossing:markings":"yes","footway":"crossing","highway":"footway","lit":"yes","surface":"asphalt","id":"way/1193570137"},"geometry":{"type":"LineString","coordinates":[[2.3825258,48.8947753],[2.3825175,48.8947795],[2.3824542,48.8948122],[2.3823914,48.8948445],[2.3823419,48.8948701],[2.3823334,48.8948744]]},"id":"way/1193570137"},{"type":"Feature","properties":{"@id":"way/1193570138","crossing":"traffic_signals","crossing:markings":"yes","footway":"crossing","highway":"footway","surface":"asphalt","id":"way/1193570138"},"geometry":{"type":"LineString","coordinates":[[2.3824447,48.8946712],[2.3824645,48.8946858],[2.3824836,48.8946999]]},"id":"way/1193570138"},{"type":"Feature","properties":{"@id":"way/1225657535","footway":"sidewalk","highway":"footway","surface":"paving_stones","id":"way/1225657535"},"geometry":{"type":"LineString","coordinates":[[2.3825084,48.8947144],[2.3824836,48.8946999]]},"id":"way/1225657535"},{"type":"Feature","properties":{"@id":"way/1225657536","footway":"sidewalk","highway":"footway","id":"way/1225657536"},"geometry":{"type":"LineString","coordinates":[[2.3825627,48.8947576],[2.3825258,48.8947753]]},"id":"way/1225657536"},{"type":"Feature","properties":{"@id":"way/1225657545","footway":"sidewalk","highway":"footway","surface":"paving_stones","id":"way/1225657545"},"geometry":{"type":"LineString","coordinates":[[2.3824359,48.8946646],[2.3824447,48.8946712]]},"id":"way/1225657545"},{"type":"Feature","properties":{"@id":"way/1324834818","cycleway":"crossing","highway":"cycleway","name":"Avenue Corentin Cariou","name:etymology:wikidata":"Q2997244","oneway":"yes","surface":"asphalt","id":"way/1324834818"},"geometry":{"type":"LineString","coordinates":[[2.382289,48.894825],[2.3822006,48.89477]]},"id":"way/1324834818"},{"type":"Feature","properties":{"@id":"way/1327793109","footway":"sidewalk","highway":"footway","lit":"yes","surface":"asphalt","id":"way/1327793109"},"geometry":{"type":"LineString","coordinates":[[2.3823322,48.8949945],[2.3823649,48.8949783],[2.3823525,48.8949687]]},"id":"way/1327793109"},{"type":"Feature","properties":{"@id":"node/789992328","name":"L'Univers du Pain","shop":"bakery","id":"node/789992328"},"geometry":{"type":"Point","coordinates":[2.3826008,48.8946888]},"id":"node/789992328"},{"type":"Feature","properties":{"@id":"node/980154477","amenity":"restaurant","diet:vegetarian":"yes","name":"Chez Tofe","id":"node/980154477"},"geometry":{"type":"Point","coordinates":[2.3827102,48.8947991]},"id":"node/980154477"},{"type":"Feature","properties":{"@id":"node/2864175353","amenity":"restaurant","name":"Chez Felix","ref:FR:SIRET":"83377988700011","id":"node/2864175353"},"geometry":{"type":"Point","coordinates":[2.3826531,48.8947384]},"id":"node/2864175353"},{"type":"Feature","properties":{"@id":"node/5039279594","brand":"Naturalia","brand:wikidata":"Q3337081","brand:wikipedia":"fr:Naturalia","name":"Naturalia","opening_hours":"Mo-Sa 09:00-20:00","phone":"+33 1 42 00 40 03","ref:FR:SIRET":"30247464801522","shop":"supermarket","website":"https://magasins.naturalia.fr/naturalia/fr/store/france/ile-de-france/paris/paris/cariou/3970","wheelchair":"yes","id":"node/5039279594"},"geometry":{"type":"Point","coordinates":[2.3829259,48.8949367]},"id":"node/5039279594"},{"type":"Feature","properties":{"@id":"node/12691005296","genus":"Platanus","leaf_type":"broadleaved","natural":"tree","species":"Platanus x hispanica","id":"node/12691005296"},"geometry":{"type":"Point","coordinates":[2.3822552,48.8949515]},"id":"node/12691005296"},{"type":"Feature","properties":{"@id":"node/12691005298","genus":"Platanus","leaf_type":"broadleaved","natural":"tree","species":"Platanus x hispanica","id":"node/12691005298"},"geometry":{"type":"Point","coordinates":[2.3823739,48.8949453]},"id":"node/12691005298"},{"type":"Feature","properties":{"@id":"node/12691008301","genus":"Platanus","leaf_type":"broadleaved","natural":"tree","species":"Platanus x hispanica","id":"node/12691008301"},"geometry":{"type":"Point","coordinates":[2.382575,48.8949277]},"id":"node/12691008301"},{"type":"Feature","properties":{"@id":"node/12691008302","genus":"Platanus","leaf_type":"broadleaved","natural":"tree","species":"Platanus x hispanica","id":"node/12691008302"},"geometry":{"type":"Point","coordinates":[2.3827306,48.894929]},"id":"node/12691008302"},{"type":"Feature","properties":{"@id":"node/12691008303","genus":"Platanus","leaf_type":"broadleaved","natural":"tree","species":"Platanus x hispanica","id":"node/12691008303"},"geometry":{"type":"Point","coordinates":[2.3826562,48.8949955]},"id":"node/12691008303"},{"type":"Feature","properties":{"@id":"node/13013133189","addr:city":"Paris","addr:housenumber":"20","addr:postcode":"75019","addr:street":"Rue Rouvet","check_date":"2025-07-20","hairdresser":"barber","name":"Chocó Barber Shop","ref:FR:SIRET":"89224588700021","shop":"hairdresser","id":"node/13013133189"},"geometry":{"type":"Point","coordinates":[2.3828522,48.894518]},"id":"node/13013133189"},{"type":"Feature","properties":{"@id":"node/13013133190","addr:housenumber":"20","addr:street":"Rue Rouvet","amenity":"restaurant","check_date":"2025-07-20","cuisine":"sushi","name":"Osaka Sushi","phone":"+33 1 40 38 20 10; +33 1 40 38 20 17","id":"node/13013133190"},"geometry":{"type":"Point","coordinates":[2.3829046,48.8944886]},"id":"node/13013133190"},{"type":"Feature","properties":{"@id":"node/13013145611","addr:housenumber":"6","addr:street":"Avenue Corentin Cariou","check_date":"2025-07-20","name":"Koskas & Fils","shop":"deli","website":"https://koskas-fils.com/","id":"node/13013145611"},"geometry":{"type":"Point","coordinates":[2.3827982,48.8948636]},"id":"node/13013145611"}]}