{"type":"FeatureCollection","features":[{"type":"Feature","properties":{"@id":"way/10664567","cycleway:both":"no","highway":"residential","maxspeed":"30","name":"Rue de la Charbonnière","name:etymology":"un lieu-dit","oneway":"yes","oneway:bicycle":"no","sidewalk:left":"separate","surface":"sett","id":"way/10664567"},"geometry":{"type":"LineString","coordinates":[[2.3557178,48.8849752],[2.3552509,48.8848658],[2.3551239,48.8848366],[2.3543507,48.8846542],[2.354082,48.8846009],[2.3539368,48.8845804],[2.3538022,48.8845493],[2.3525234,48.8842495],[2.3524083,48.8842223]]},"id":"way/10664567"},{"type":"Feature","properties":{"@id":"way/224868777","cycleway":"on_street","highway":"cycleway","lit":"yes","name":"Boulevard de la Chapelle","name:etymology:wikidata":"Q13103683","name:zh":"拉沙佩勒大道","oneway":"yes","smoothness":"good","surface":"asphalt","id":"way/224868777"},"geometry":{"type":"LineString","coordinates":[[2.3553252,48.8843105],[2.354192,48.8842288],[2.3541341,48.8842244],[2.3541063,48.8842225],[2.352529,48.8841133],[2.3524169,48.8841055],[2.3517054,48.8840527],[2.3514143,48.8840317],[2.3512985,48.8840232],[2.3511553,48.8840137],[2.3508213,48.8839914]]},"id":"way/224868777"},{"type":"Feature","properties":{"@id":"way/756278752","cycleway:left":"no","cycleway:right":"separate","dual_carriageway":"yes","highway":"primary","lanes":"1","lit":"yes","maxspeed":"30","name":"Boulevard de la Chapelle","name:etymology:wikidata":"Q13103683","name:zh":"拉沙佩勒大道","oneway":"yes","sidewalk:right":"separate","source:maxspeed":"FR:urban","surface":"asphalt","id":"way/756278752"},"geometry":{"type":"LineString","coordinates":[[2.3544229,48.8839733],[2.3553057,48.8840431],[2.3555063,48.8840547],[2.3556464,48.8840644],[2.3560126,48.8840896],[2.3561627,48.8840989],[2.3564908,48.8841226]]},"id":"way/756278752"},{"type":"Feature","properties":{"@id":"way/756322880","cycleway:left":"no","cycleway:right":"separate","dual_carriageway":"yes","highway":"primary","lanes":"1","lit":"yes","maxspeed":"30","name":"Boulevard de la Chapelle","name:etymology:wikidata":"Q13103683","name:zh":"拉沙佩勒大道","oneway":"yes","sidewalk:both":"separate","smoothness":"good","source:maxspeed":"sign","surface":"asphalt","id":"way/756322880"},"geometry":{"type":"LineString","coordinates":[[2.3554587,48.8842837],[2.3553327,48.8842741],[2.3552568,48.8842678],[2.3542011,48.8841903]]},"id":"way/756322880"},{"type":"Feature","properties":{"@id":"way/764632581","cycleway:both":"no","highway":"residential","lit":"yes","maxspeed":"30","name":"Rue de Chartres","name:etymology:wikidata":"Q458688","oneway":"yes","oneway:bicycle":"no","sidewalk":"separate","surface":"sett","id":"way/764632581"},"geometry":{"type":"LineString","coordinates":[[2.3552259,48.8843987],[2.3543886,48.8845468],[2.354082,48.8846009]]},"id":"way/764632581"},{"type":"Feature","properties":{"@id":"way/1193714774","footway":"sidewalk","highway":"footway","smoothness":"good","surface":"asphalt","id":"way/1193714774"},"geometry":{"type":"LineString","coordinates":[[2.3553231,48.8843282],[2.3551877,48.8843179],[2.3549011,48.8842962],[2.3548568,48.8842925]]},"id":"way/1193714774"},{"type":"Feature","properties":{"@id":"way/1193714777","footway":"sidewalk","highway":"footway","smoothness":"good","surface":"asphalt","id":"way/1193714777"},"geometry":{"type":"LineString","coordinates":[[2.3560563,48.8843958],[2.3560367,48.8843805],[2.3555941,48.8843536],[2.3555305,48.8843664],[2.3552179,48.884442],[2.3548608,48.8845046],[2.3544183,48.8845831],[2.3543988,48.8845637]]},"id":"way/1193714777"},{"type":"Feature","properties":{"@id":"way/1355482951","footway":"sidewalk","highway":"footway","id":"way/1355482951"},"geometry":{"type":"LineString","coordinates":[[2.35438,48.8845328],[2.354376,48.8845178],[2.3548608,48.8844362],[2.3551894,48.8843769],[2.3553231,48.8843282],[2.3553242,48.8843154]]},"id":"way/1355482951"}]}