{"type":"FeatureCollection","features":[{"type":"Feature","properties":{"@id":"way/23041327","cycleway:right":"no","dual_carriageway":"yes","highway":"tertiary","lanes":"2","lit":"yes","maxspeed":"30","name":"Avenue de la Porte Chaumont","name:etymology:wikidata":"Q3398903","oneway":"yes","ref":"D 35bis","sidewalk:left":"no","sidewalk:right":"separate","sidewalk:right:surface":"asphalt","smoothness":"good","surface":"asphalt","id":"way/23041327"},"geometry":{"type":"LineString","coordinates":[[2.3984663,48.8859584],[2.3983148,48.8860191],[2.3981414,48.88607]]},"id":"way/23041327"},{"type":"Feature","properties":{"@id":"way/23041344","cycleway":"no","highway":"residential","lit":"yes","maxspeed":"30","name":"Rue Sigmund Freud","name:etymology:wikidata":"Q9215","sidewalk":"no","smoothness":"excellent","surface":"asphalt","id":"way/23041344"},"geometry":{"type":"LineString","coordinates":[[2.3980967,48.8859778],[2.3981203,48.8860271],[2.3981414,48.88607]]},"id":"way/23041344"},{"type":"Feature","properties":{"@id":"way/29179111","busway:left":"opposite_lane","cycleway:left":"share_busway","cycleway:left:oneway":"-1","cycleway:right":"no","highway":"residential","lanes":"2","lit":"yes","maxspeed":"30","name":"Rue de la Marseillaise","name:etymology:wikidata":"Q41180","oneway":"yes","oneway:bicycle":"no","oneway:bus":"no","sidewalk:both":"separate","surface":"asphalt","id":"way/29179111"},"geometry":{"type":"LineString","coordinates":[[2.3981375,48.8862141],[2.398136,48.8863083],[2.398135,48.8863697],[2.3981335,48.8864623]]},"id":"way/29179111"},{"type":"Feature","properties":{"@id":"way/29179690","cycleway:both":"no","highway":"tertiary","lanes":"4","lit":"yes","maxspeed":"30","name":"Avenue de la Porte Chaumont","name:etymology:wikidata":"Q3398903","ref":"D 35bis","sidewalk:both":"separate","surface":"asphalt","id":"way/29179690"},"geometry":{"type":"LineString","coordinates":[[2.3984663,48.8859584],[2.3988987,48.8859074],[2.399208,48.8858711]]},"id":"way/29179690"},{"type":"Feature","properties":{"@id":"way/156857299","cycleway:right":"no","dual_carriageway":"yes","highway":"tertiary","lanes":"2","lit":"yes","maxspeed":"30","name":"Avenue de la Porte Chaumont","name:etymology:wikidata":"Q3398903","oneway":"yes","sidewalk:left":"no","sidewalk:right":"separate","sidewalk:right:surface":"asphalt","smoothness":"good","surface":"asphalt","id":"way/156857299"},"geometry":{"type":"LineString","coordinates":[[2.3980967,48.8859778],[2.398294,48.8859515],[2.3984663,48.8859584]]},"id":"way/156857299"},{"type":"Feature","properties":{"@id":"way/156857308","busway:right":"lane","cycleway:right":"share_busway","dual_carriageway":"yes","highway":"tertiary","lanes":"3","maxheight":"4.5","maxspeed":"30","name":"Avenue de la Porte Chaumont","name:etymology:wikidata":"Q3398903","ref":"D 35bis","sidewalk:left":"separate","sidewalk:right":"no","surface":"asphalt","id":"way/156857308"},"geometry":{"type":"LineString","coordinates":[[2.3977151,48.886073],[2.3968884,48.8861855]]},"id":"way/156857308"},{"type":"Feature","properties":{"@id":"way/266573523","cycleway":"sidewalk","highway":"cycleway","lit":"yes","name":"Avenue de la Porte Chaumont","name:etymology:wikidata":"Q3398903","surface":"asphalt","id":"way/266573523"},"geometry":{"type":"LineString","coordinates":[[2.396682,48.8860171],[2.3966827,48.8860293],[2.3967812,48.8861128],[2.396818,48.8861182],[2.3968514,48.8861188],[2.3978123,48.8860048],[2.3978649,48.8859867],[2.3979127,48.8859671],[2.3979738,48.8859484]]},"id":"way/266573523"},{"type":"Feature","properties":{"@id":"way/866753743","crossing":"traffic_signals","crossing:markings":"zebra","crossing:signals":"yes","footway":"crossing","highway":"footway","lit":"yes","smoothness":"excellent","surface":"asphalt","tactile_paving":"yes","id":"way/866753743"},"geometry":{"type":"LineString","coordinates":[[2.3979649,48.8861393],[2.3979609,48.8861257],[2.3979519,48.8860954],[2.3979426,48.886064]]},"id":"way/866753743"},{"type":"Feature","properties":{"@id":"way/866753744","crossing":"traffic_signals","crossing:markings":"zebra","crossing:signals":"yes","footway":"crossing","highway":"footway","lit":"yes","smoothness":"excellent","surface":"asphalt","tactile_paving":"yes","id":"way/866753744"},"geometry":{"type":"LineString","coordinates":[[2.3983002,48.8859718],[2.398294,48.8859515],[2.3982808,48.8859086]]},"id":"way/866753744"},{"type":"Feature","properties":{"@id":"way/1193583228","footway":"sidewalk","highway":"footway","lit":"yes","surface":"asphalt","id":"way/1193583228"},"geometry":{"type":"LineString","coordinates":[[2.396708,48.8859772],[2.3967674,48.8859807],[2.3968779,48.8860721],[2.3977595,48.885971],[2.3978478,48.8859609],[2.397904,48.8859431],[2.3979827,48.8859182]]},"id":"way/1193583228"},{"type":"Feature","properties":{"@id":"way/1239467955","footway":"sidewalk","highway":"footway","lit":"yes","surface":"asphalt","id":"way/1239467955"},"geometry":{"type":"LineString","coordinates":[[2.3980417,48.8862084],[2.3980793,48.8862117]]},"id":"way/1239467955"},{"type":"Feature","properties":{"@id":"way/1239467956","footway":"sidewalk","highway":"footway","lit":"yes","surface":"asphalt","id":"way/1239467956"},"geometry":{"type":"LineString","coordinates":[[2.3974589,48.8897702],[2.3974799,48.8897368],[2.3976508,48.8894658],[2.3976977,48.8894279],[2.3977299,48.8894032],[2.3977581,48.8893723],[2.3977728,48.88933],[2.3978168,48.8887759],[2.3978251,48.8886626],[2.3978775,48.8879937],[2.3978911,48.8878468],[2.3979007,48.8877421],[2.3980238,48.8864112],[2.3980417,48.8862084],[2.3979649,48.8861393]]},"id":"way/1239467956"},{"type":"Feature","properties":{"@id":"way/1239467970","crossing":"traffic_signals","crossing:markings":"zebra","crossing:signals":"yes","footway":"crossing","highway":"footway","lit":"yes","surface":"asphalt","id":"way/1239467970"},"geometry":{"type":"LineString","coordinates":[[2.3980793,48.8862117],[2.3981375,48.8862141],[2.3982422,48.8862198]]},"id":"way/1239467970"},{"type":"Feature","properties":{"@id":"way/1239467971","footway":"sidewalk","highway":"footway","lit":"yes","surface":"asphalt","id":"way/1239467971"},"geometry":{"type":"LineString","coordinates":[[2.3988801,48.8847666],[2.3988519,48.8847952],[2.398834,48.8848133],[2.3984125,48.8852405],[2.398143,48.8856356],[2.3981436,48.8857749],[2.3981889,48.8858642],[2.3982348,48.8858794],[2.3982731,48.8858874],[2.3982808,48.8859086]]},"id":"way/1239467971"},{"type":"Feature","properties":{"@id":"way/1239515823","footway":"sidewalk","highway":"footway","lit":"yes","surface":"asphalt","id":"way/1239515823"},"geometry":{"type":"LineString","coordinates":[[2.397904,48.8859431],[2.3979127,48.8859671],[2.3979227,48.8859965]]},"id":"way/1239515823"},{"type":"Feature","properties":{"@id":"way/1239515837","footway":"sidewalk","highway":"footway","lit":"yes","surface":"asphalt","id":"way/1239515837"},"geometry":{"type":"LineString","coordinates":[[2.3977595,48.885971],[2.3979083,48.8856285],[2.3980115,48.8854508],[2.3981698,48.8852282],[2.3983374,48.8850271],[2.3986315,48.8847306],[2.3988336,48.8845493],[2.3990998,48.8843262],[2.3995124,48.8839982],[2.3995682,48.8839555],[2.3995853,48.8839419],[2.4003531,48.8833308],[2.4007434,48.8830186],[2.4013066,48.8825701],[2.4014528,48.8824533],[2.4016312,48.882362],[2.4022809,48.8820357]]},"id":"way/1239515837"},{"type":"Feature","properties":{"@id":"way/1239515838","crossing":"traffic_signals","crossing:markings":"zebra","crossing:signals":"yes","footway":"crossing","highway":"footway","lit":"yes","surface":"asphalt","id":"way/1239515838"},"geometry":{"type":"LineString","coordinates":[[2.3979827,48.8859182],[2.398062,48.8858988],[2.3981497,48.8858757]]},"id":"way/1239515838"},{"type":"Feature","properties":{"@id":"way/1239515839","footway":"sidewalk","highway":"footway","lit":"yes","surface":"asphalt","id":"way/1239515839"},"geometry":{"type":"LineString","coordinates":[[2.3981889,48.8858642],[2.3981497,48.8858757]]},"id":"way/1239515839"},{"type":"Feature","properties":{"@id":"way/1239515840","footway":"sidewalk","highway":"footway","lit":"yes","surface":"asphalt","id":"way/1239515840"},"geometry":{"type":"LineString","coordinates":[[2.3982731,48.8858874],[2.3987793,48.8858203],[2.3999442,48.885711],[2.4004775,48.8856698],[2.4005179,48.8856545],[2.400569,48.8856607]]},"id":"way/1239515840"},{"type":"Feature","properties":{"@id":"way/1239515844","footway":"sidewalk","highway":"footway","lit":"yes","surface":"asphalt","id":"way/1239515844"},"geometry":{"type":"LineString","coordinates":[[2.3989017,48.8860053],[2.3988837,48.8860078],[2.3983341,48.8860831]]},"id":"way/1239515844"},{"type":"Feature","properties":{"@id":"way/1239515845","footway":"sidewalk","highway":"footway","lit":"yes","surface":"asphalt","id":"way/1239515845"},"geometry":{"type":"LineString","coordinates":[[2.3982671,48.8862203],[2.3982422,48.8862198]]},"id":"way/1239515845"},{"type":"Feature","properties":{"@id":"way/1239515847","footway":"sidewalk","highway":"footway","lit":"yes","surface":"asphalt","id":"way/1239515847"},"geometry":{"type":"LineString","coordinates":[[2.3983254,48.8860534],[2.3983341,48.8860831],[2.3982777,48.8860977],[2.3982671,48.8862203],[2.3981426,48.8876495],[2.3981319,48.8877267],[2.3981292,48.8877577],[2.398129,48.8877676]]},"id":"way/1239515847"},{"type":"Feature","properties":{"@id":"way/1294680676","cycleway":"on_street","highway":"cycleway","lit":"yes","name":"Avenue de la porte Chaumont","oneway":"yes","surface":"asphalt","id":"way/1294680676"},"geometry":{"type":"LineString","coordinates":[[2.3981414,48.88607],[2.3979609,48.8861257],[2.3979103,48.8861354],[2.3969428,48.8862605],[2.396898,48.8862762]]},"id":"way/1294680676"},{"type":"Feature","properties":{"@id":"way/1294680677","busway:right":"track","cycleway:right":"share_busway","dual_carriageway":"yes","highway":"tertiary","lanes":"1","maxspeed":"30","name":"Avenue de la Porte Chaumont","name:etymology:wikidata":"Q3398903","oneway":"yes","ref":"D 35bis","sidewalk:both":"no","surface":"asphalt","id":"way/1294680677"},"geometry":{"type":"LineString","coordinates":[[2.3979519,48.8860954],[2.3978984,48.8860947],[2.3977151,48.886073]]},"id":"way/1294680677"},{"type":"Feature","properties":{"@id":"way/1294680678","dual_carriageway":"yes","highway":"tertiary","lanes":"1","maxspeed":"30","name":"Avenue de la Porte Chaumont","name:etymology:wikidata":"Q3398903","oneway":"yes","ref":"D 35bis","sidewalk:left":"no","sidewalk:right":"separate","surface":"asphalt","id":"way/1294680678"},"geometry":{"type":"LineString","coordinates":[[2.3977151,48.886073],[2.3978795,48.8860377],[2.3979311,48.886025],[2.3980967,48.8859778]]},"id":"way/1294680678"},{"type":"Feature","properties":{"@id":"way/1294680680","highway":"cycleway","lit":"yes","name":"Avenue de la Porte Chaumont","name:etymology:wikidata":"Q3398903","oneway":"yes","surface":"asphalt","id":"way/1294680680"},"geometry":{"type":"LineString","coordinates":[[2.3981703,48.8859046],[2.398294,48.8859515]]},"id":"way/1294680680"},{"type":"Feature","properties":{"@id":"way/1294680681","crossing":"traffic_signals","crossing:markings":"pictograms","crossing:signals":"yes","cycleway":"crossing","highway":"cycleway","lit":"yes","name":"Avenue de la Porte Chaumont","name:etymology:wikidata":"Q3398903","surface":"asphalt","id":"way/1294680681"},"geometry":{"type":"LineString","coordinates":[[2.3979103,48.8861354],[2.3978984,48.8860947],[2.3978795,48.8860377],[2.3978649,48.8859867]]},"id":"way/1294680681"},{"type":"Feature","properties":{"@id":"way/1314783340","busway:left":"opposite_lane","cycleway:left":"share_busway","cycleway:left:oneway":"-1","cycleway:right":"track","highway":"residential","lanes":"2","lit":"yes","maxspeed":"30","name":"Rue de la Marseillaise","name:etymology:wikidata":"Q41180","oneway":"yes","oneway:bicycle":"no","oneway:bus":"no","sidewalk:both":"separate","surface":"asphalt","id":"way/1314783340"},"geometry":{"type":"LineString","coordinates":[[2.3981414,48.88607],[2.3981375,48.8862141]]},"id":"way/1314783340"},{"type":"Feature","properties":{"@id":"way/1408810490","cycleway:both":"lane","cycleway:both:lane":"exclusive","highway":"residential","lit":"yes","maxspeed":"30","name":"Rue Sigmund Freud","name:etymology:wikidata":"Q9215","sidewalk:both":"separate","sidewalk:both:surface":"asphalt","smoothness":"good","surface":"sett","width":"9.5","id":"way/1408810490"},"geometry":{"type":"LineString","coordinates":[[2.3980967,48.8859778],[2.3980751,48.8859255],[2.398062,48.8858988],[2.3980375,48.8858429],[2.3980185,48.8857738],[2.3980154,48.8856648],[2.3980464,48.8855858],[2.3980913,48.8855055],[2.3983428,48.8851682],[2.3984531,48.8850414],[2.3987265,48.8847691],[2.398808,48.8846878]]},"id":"way/1408810490"},{"type":"Feature","properties":{"@id":"way/1422116000","busway:right":"track","cycleway:right":"share_busway","dual_carriageway":"yes","highway":"tertiary","lanes":"1","maxspeed":"30","name":"Avenue de la Porte Chaumont","name:etymology:wikidata":"Q3398903","oneway":"yes","ref":"D 35bis","sidewalk:left":"no","sidewalk:right":"separate","surface":"asphalt","id":"way/1422116000"},"geometry":{"type":"LineString","coordinates":[[2.3981414,48.88607],[2.3979519,48.8860954]]},"id":"way/1422116000"},{"type":"Feature","properties":{"@id":"way/1422116001","crossing":"traffic_signals","crossing:markings":"zebra","crossing:signals":"yes","footway":"crossing","highway":"footway","lit":"yes","smoothness":"excellent","surface":"asphalt","tactile_paving":"yes","id":"way/1422116001"},"geometry":{"type":"LineString","coordinates":[[2.3979376,48.8860471],[2.3979311,48.886025],[2.3979227,48.8859965]]},"id":"way/1422116001"},{"type":"Feature","properties":{"@id":"way/1422116002","footway":"traffic_island","highway":"footway","lit":"yes","smoothness":"excellent","surface":"asphalt","tactile_paving":"yes","id":"way/1422116002"},"geometry":{"type":"LineString","coordinates":[[2.3979426,48.886064],[2.3979376,48.8860471]]},"id":"way/1422116002"},{"type":"Feature","properties":{"@id":"way/1422116003","crossing":"traffic_signals","crossing:markings":"pictograms","crossing:signals":"yes","cycleway":"crossing","highway":"cycleway","lit":"yes","name":"Avenue de la Porte Chaumont","name:etymology:wikidata":"Q3398903","surface":"asphalt","id":"way/1422116003"},"geometry":{"type":"LineString","coordinates":[[2.3979738,48.8859484],[2.3980751,48.8859255],[2.3981703,48.8859046]]},"id":"way/1422116003"},{"type":"Feature","properties":{"@id":"way/1422116004","crossing":"traffic_signals","crossing:markings":"zebra","crossing:signals":"yes","footway":"crossing","highway":"footway","lit":"yes","smoothness":"excellent","surface":"asphalt","tactile_paving":"yes","id":"way/1422116004"},"geometry":{"type":"LineString","coordinates":[[2.3983254,48.8860534],[2.3983148,48.8860191],[2.3983069,48.8859936]]},"id":"way/1422116004"},{"type":"Feature","properties":{"@id":"way/1422116005","footway":"traffic_island","highway":"footway","lit":"yes","smoothness":"excellent","surface":"asphalt","tactile_paving":"yes","id":"way/1422116005"},"geometry":{"type":"LineString","coordinates":[[2.3983069,48.8859936],[2.3983002,48.8859718]]},"id":"way/1422116005"},{"type":"Feature","properties":{"@id":"node/203318837","highway":"traffic_signals","id":"node/203318837"},"geometry":{"type":"Point","coordinates":[2.3981414,48.88607]},"id":"node/203318837"},{"type":"Feature","properties":{"@id":"node/320901154","highway":"traffic_signals","id":"node/320901154"},"geometry":{"type":"Point","coordinates":[2.3980967,48.8859778]},"id":"node/320901154"},{"type":"Feature","properties":{"@id":"node/2042462357","STIF:zone":"1","bench":"yes","bin":"no","bus":"yes","highway":"bus_stop","name":"Marseillaise - Cheminets","note":"Plus aucune ligne de bus ne dessert cet arrêt dans cette direction. Mais comme il y a un abri, je laisse pour le moment. Sait-on jamais, il sera peut-être réutilisé plus tard.","public_transport":"platform","ref:FR:STIF":"24838","shelter":"yes","survey:date":"2020-12-29","tactile_paving":"no","id":"node/2042462357"},"geometry":{"type":"Point","coordinates":[2.3980447,48.8863045]},"id":"node/2042462357"},{"type":"Feature","properties":{"@id":"node/2042462358","STIF:zone":"1","bench":"yes","bin":"no","bus":"yes","highway":"bus_stop","lit":"yes","name":"Marseillaise - Cheminets","public_transport":"platform","ref:FR:STIF":"24837","route_ref":"170","shelter":"yes","survey:date":"2020-12-29","tactile_paving":"no","id":"node/2042462358"},"geometry":{"type":"Point","coordinates":[2.3982374,48.8863752]},"id":"node/2042462358"},{"type":"Feature","properties":{"@id":"node/8085659656","natural":"tree","id":"node/8085659656"},"geometry":{"type":"Point","coordinates":[2.398561,48.886036]},"id":"node/8085659656"},{"type":"Feature","properties":{"@id":"node/8085659657","natural":"tree","id":"node/8085659657"},"geometry":{"type":"Point","coordinates":[2.3984275,48.8860528]},"id":"node/8085659657"},{"type":"Feature","properties":{"@id":"node/8085659659","natural":"tree","id":"node/8085659659"},"geometry":{"type":"Point","coordinates":[2.3985194,48.8858666]},"id":"node/8085659659"},{"type":"Feature","properties":{"@id":"node/8085659660","natural":"tree","id":"node/8085659660"},"geometry":{"type":"Point","coordinates":[2.3983813,48.8858868]},"id":"node/8085659660"},{"type":"Feature","properties":{"@id":"node/8108756292","natural":"tree","id":"node/8108756292"},"geometry":{"type":"Point","coordinates":[2.398487,48.8857445]},"id":"node/8108756292"},{"type":"Feature","properties":{"@id":"node/10976620916","highway":"street_lamp","id":"node/10976620916"},"geometry":{"type":"Point","coordinates":[2.3978629,48.8856222]},"id":"node/10976620916"},{"type":"Feature","properties":{"@id":"node/10976650957","highway":"street_lamp","id":"node/10976650957"},"geometry":{"type":"Point","coordinates":[2.3972643,48.8857325]},"id":"node/10976650957"},{"type":"Feature","properties":{"@id":"node/10976650971","highway":"street_lamp","id":"node/10976650971"},"geometry":{"type":"Point","coordinates":[2.3977048,48.885914]},"id":"node/10976650971"},{"type":"Feature","properties":{"@id":"node/10976650972","highway":"street_lamp","id":"node/10976650972"},"geometry":{"type":"Point","coordinates":[2.3976106,48.886271]},"id":"node/10976650972"},{"type":"Feature","properties":{"@id":"node/11514361925","genus":"Sophora","height":"15","natural":"tree","species":"Sophora japonica","id":"node/11514361925"},"geometry":{"type":"Point","coordinates":[2.3978698,48.8857886]},"id":"node/11514361925"},{"type":"Feature","properties":{"@id":"node/11514361926","genus":"Platanus","height":"15","leaf_type":"broadleaved","natural":"tree","species":"Platanus × hispanica","species:wikidata":"Q161374","id":"node/11514361926"},"geometry":{"type":"Point","coordinates":[2.3981571,48.8858473]},"id":"node/11514361926"},{"type":"Feature","properties":{"@id":"node/11514361937","genus":"Sophora","height":"20","natural":"tree","species":"Sophora japonica","id":"node/11514361937"},"geometry":{"type":"Point","coordinates":[2.397897,48.8857053]},"id":"node/11514361937"},{"type":"Feature","properties":{"@id":"node/11514361944","genus":"Platanus","height":"15","leaf_type":"broadleaved","natural":"tree","species":"Platanus × hispanica","species:wikidata":"Q161374","id":"node/11514361944"},"geometry":{"type":"Point","coordinates":[2.3981083,48.8856707]},"id":"node/11514361944"},{"type":"Feature","properties":{"@id":"node/11514361947","genus":"Sophora","height":"5","natural":"tree","species":"Sophora japonica","id":"node/11514361947"},"geometry":{"type":"Point","coordinates":[2.3979777,48.8855324]},"id":"node/11514361947"},{"type":"Feature","properties":{"@id":"node/11514361954","genus":"Platanus","height":"15","leaf_type":"broadleaved","natural":"tree","species":"Platanus × hispanica","species:wikidata":"Q161374","id":"node/11514361954"},"geometry":{"type":"Point","coordinates":[2.3981144,48.885759]},"id":"node/11514361954"},{"type":"Feature","properties":{"@id":"node/11514361961","genus":"Platanus","height":"25","leaf_type":"broadleaved","natural":"tree","species":"Platanus × hispanica","species:wikidata":"Q161374","id":"node/11514361961"},"geometry":{"type":"Point","coordinates":[2.3981329,48.8855971]},"id":"node/11514361961"},{"type":"Feature","properties":{"@id":"node/11514361964","genus":"Sophora","height":"15","natural":"tree","species":"Sophora japonica","id":"node/11514361964"},"geometry":{"type":"Point","coordinates":[2.397841,48.885879]},"id":"node/11514361964"},{"type":"Feature","properties":{"@id":"node/11514468448","genus":"Platanus","leaf_type":"broadleaved","natural":"tree","source":"OpenData Paris","species":"Platanus × hispanica","species:wikidata":"Q161374","id":"node/11514468448"},"geometry":{"type":"Point","coordinates":[2.3980445,48.8863623]},"id":"node/11514468448"},{"type":"Feature","properties":{"@id":"node/11514468451","genus":"Betula","natural":"tree","source":"OpenData Paris","species":"Betula pendula","id":"node/11514468451"},"geometry":{"type":"Point","coordinates":[2.3979675,48.8862167]},"id":"node/11514468451"},{"type":"Feature","properties":{"@id":"node/11514468457","genus":"Pinus","natural":"tree","source":"OpenData Paris","species":"nigra subsp. nigra","id":"node/11514468457"},"geometry":{"type":"Point","coordinates":[2.3979515,48.8863378]},"id":"node/11514468457"},{"type":"Feature","properties":{"@id":"node/11514513374","genus":"Pinus","natural":"tree","source":"OpenData Paris","species":"nigra subsp. nigra","id":"node/11514513374"},"geometry":{"type":"Point","coordinates":[2.3979345,48.8863693]},"id":"node/11514513374"},{"type":"Feature","properties":{"@id":"node/11514513380","genus":"Platanus","leaf_type":"broadleaved","natural":"tree","source":"OpenData Paris","species":"Platanus × hispanica","species:wikidata":"Q161374","id":"node/11514513380"},"geometry":{"type":"Point","coordinates":[2.3980514,48.8862728]},"id":"node/11514513380"},{"type":"Feature","properties":{"@id":"node/11514513383","genus":"Pinus","natural":"tree","source":"OpenData Paris","species":"nigra subsp. nigra","id":"node/11514513383"},"geometry":{"type":"Point","coordinates":[2.3977866,48.8863555]},"id":"node/11514513383"},{"type":"Feature","properties":{"@id":"node/11514513386","genus":"Betula","natural":"tree","source":"OpenData Paris","species":"Betula pendula","id":"node/11514513386"},"geometry":{"type":"Point","coordinates":[2.3979256,48.8862184]},"id":"node/11514513386"},{"type":"Feature","properties":{"@id":"node/11514513387","genus":"Pinus","natural":"tree","source":"OpenData Paris","species":"nigra subsp. nigra","id":"node/11514513387"},"geometry":{"type":"Point","coordinates":[2.3979061,48.8863121]},"id":"node/11514513387"},{"type":"Feature","properties":{"@id":"node/11514513389","genus":"Pinus","natural":"tree","source":"OpenData Paris","species":"nigra subsp. nigra","id":"node/11514513389"},"geometry":{"type":"Point","coordinates":[2.3979642,48.886287]},"id":"node/11514513389"},{"type":"Feature","properties":{"@id":"node/11514513403","genus":"Pinus","natural":"tree","source":"OpenData Paris","species":"nigra subsp. nigra","id":"node/11514513403"},"geometry":{"type":"Point","coordinates":[2.3978226,48.8862012]},"id":"node/11514513403"},{"type":"Feature","properties":{"@id":"node/11514513409","genus":"Pinus","natural":"tree","source":"OpenData Paris","species":"nigra subsp. nigra","id":"node/11514513409"},"geometry":{"type":"Point","coordinates":[2.3979067,48.8863481]},"id":"node/11514513409"},{"type":"Feature","properties":{"@id":"node/11775421976","genus":"Celtis","leaf_type":"broadleaved","natural":"tree","species":"Celtis australis","id":"node/11775421976"},"geometry":{"type":"Point","coordinates":[2.3973313,48.8855254]},"id":"node/11775421976"},{"type":"Feature","properties":{"@id":"node/11775421977","genus":"Celtis","leaf_type":"broadleaved","natural":"tree","species":"Celtis australis","id":"node/11775421977"},"geometry":{"type":"Point","coordinates":[2.3972863,48.8855872]},"id":"node/11775421977"},{"type":"Feature","properties":{"@id":"node/11775421978","genus":"Celtis","leaf_type":"broadleaved","natural":"tree","species":"Celtis australis","id":"node/11775421978"},"geometry":{"type":"Point","coordinates":[2.3972414,48.8856604]},"id":"node/11775421978"},{"type":"Feature","properties":{"@id":"node/12941681392","bench":"no","bin":"no","bus":"yes","highway":"bus_stop","name":"Marseillaise - Cheminets","public_transport":"platform","ref:FR:STIF":"492717","route_ref":"170","shelter":"no","tactile_paving":"no","id":"node/12941681392"},"geometry":{"type":"Point","coordinates":[2.3979455,48.8855898]},"id":"node/12941681392"},{"type":"Feature","properties":{"@id":"node/13269972739","natural":"tree","id":"node/13269972739"},"geometry":{"type":"Point","coordinates":[2.398552,48.8856323]},"id":"node/13269972739"},{"type":"Feature","properties":{"@id":"node/13269972740","natural":"tree","id":"node/13269972740"},"geometry":{"type":"Point","coordinates":[2.3985773,48.8856003]},"id":"node/13269972740"}]}