{"type":"FeatureCollection","features":[{"type":"Feature","properties":{"@id":"way/1082419207","area":"yes","footway":"sidewalk","highway":"footway","lit":"yes","surface":"concrete:plates","id":"way/1082419207"},"geometry":{"type":"Polygon","coordinates":[[[2.3957839,48.8888204],[2.3958114,48.8887293],[2.3958196,48.8887023],[2.395858,48.8886086],[2.3958879,48.8885556],[2.3959121,48.8885275],[2.3959154,48.8885341],[2.3959173,48.8885437],[2.3959149,48.8885528],[2.395905,48.888564],[2.3958746,48.8886045],[2.3958666,48.8886273],[2.3958671,48.8886479],[2.3958784,48.8887115],[2.3958931,48.8887682],[2.3958965,48.8887907],[2.3958941,48.88881],[2.3958858,48.8888318],[2.395853,48.8888283],[2.3958229,48.8888248],[2.3957839,48.8888204]]]},"id":"way/1082419207"},{"type":"Feature","properties":{"@id":"way/29180253","bicycle":"no","cycleway:right":"no","highway":"primary","lanes":"2","layer":"-1","lit":"yes","maxheight":"default","maxheight:signed":"no","maxspeed":"30","motorcycle":"no","name":"Tunnel Chaumont Pantin","oneway":"yes","sidewalk:left":"no","sidewalk:right":"yes","surface":"asphalt","tunnel":"yes","unsigned_ref":"CX/19","id":"way/29180253"},"geometry":{"type":"LineString","coordinates":[[2.3968828,48.8863824],[2.3969722,48.886577],[2.39705,48.8867939],[2.3970902,48.887002],[2.3971028,48.8872219],[2.3966951,48.8888409],[2.3967177,48.8888999]]},"id":"way/29180253"},{"type":"Feature","properties":{"@id":"way/29180741","bicycle":"no","highway":"primary","lanes":"2","layer":"-1","lit":"24/7","maxheight":"default","maxspeed":"50","name":"Tunnel Villette Pantin","official_name":"Voie CZ/19","oneway":"yes","sidewalk:both":"no","surface":"asphalt","tunnel":"yes","id":"way/29180741"},"geometry":{"type":"LineString","coordinates":[[2.3952365,48.8921859],[2.3954344,48.8920083],[2.3959231,48.8902626],[2.3962981,48.8888744],[2.396042,48.888045]]},"id":"way/29180741"},{"type":"Feature","properties":{"@id":"way/56215163","highway":"tertiary","lanes":"1","lit":"yes","maxspeed":"30","name":"Boulevard Sérurier","name:etymology:wikidata":"Q376344","oneway":"yes","sidewalk:left":"no","sidewalk:right":"separate","surface":"asphalt","id":"way/56215163"},"geometry":{"type":"LineString","coordinates":[[2.3958606,48.8882821],[2.3958041,48.8882573],[2.3957759,48.8882488],[2.3957436,48.8882421],[2.3956944,48.888237],[2.3956462,48.8882312],[2.395554,48.8882198],[2.3954597,48.8881767],[2.3953825,48.8880605]]},"id":"way/56215163"},{"type":"Feature","properties":{"@id":"way/455708927","bicycle:backward":"use_sidepath","cycleway:right":"no","highway":"primary","lanes":"2","lit":"yes","maxspeed":"50","name":"Boulevard Sérurier","name:etymology:wikidata":"Q376344","oneway":"yes","sidewalk":"no","smoothness":"excellent","surface":"asphalt","id":"way/455708927"},"geometry":{"type":"LineString","coordinates":[[2.3959761,48.8889213],[2.3959947,48.8887457],[2.395994,48.8887017],[2.3959879,48.8886576],[2.3959584,48.8885608]]},"id":"way/455708927"},{"type":"Feature","properties":{"@id":"way/584120050","bicycle":"no","cycleway:right":"no","highway":"primary","lanes":"2","lit":"yes","maxspeed":"30","oneway":"yes","sidewalk:left":"yes","sidewalk:right":"no","surface":"asphalt","unsigned":"name","unsigned_ref":"CX/19","id":"way/584120050"},"geometry":{"type":"LineString","coordinates":[[2.3967177,48.8888999],[2.3968171,48.8891593]]},"id":"way/584120050"},{"type":"Feature","properties":{"@id":"way/584120055","bicycle:backward":"use_sidepath","cycleway:right":"no","highway":"primary","lanes":"3","lit":"yes","maxspeed":"50","name":"Boulevard Sérurier","name:etymology:wikidata":"Q376344","oneway":"yes","sidewalk:left":"separate","sidewalk:left:surface":"asphalt","sidewalk:right":"no","smoothness":"excellent","surface":"asphalt","turn:lanes:forward":"slight_left|through|through","id":"way/584120055"},"geometry":{"type":"LineString","coordinates":[[2.3958577,48.8893427],[2.3959761,48.8889213]]},"id":"way/584120055"},{"type":"Feature","properties":{"@id":"way/1272610166","bicycle:backward":"use_sidepath","cycleway:both":"no","highway":"primary","lanes":"2","lit":"yes","maxspeed":"50","name":"Boulevard d'Indochine","name:etymology:wikidata":"Q185682","oneway":"yes","sidewalk:left":"no","sidewalk:right":"separate","surface":"asphalt","id":"way/1272610166"},"geometry":{"type":"LineString","coordinates":[[2.3958606,48.8882821],[2.395852,48.8882082],[2.3958499,48.8881544],[2.3958887,48.8880124]]},"id":"way/1272610166"},{"type":"Feature","properties":{"@id":"way/1272924238","footway":"traffic_island","highway":"footway","lit":"yes","id":"way/1272924238"},"geometry":{"type":"LineString","coordinates":[[2.3961487,48.8886714],[2.396111,48.8887997],[2.3960923,48.8888635],[2.3959448,48.8893649]]},"id":"way/1272924238"},{"type":"Feature","properties":{"@id":"way/1408925822","bicycle:backward":"use_sidepath","cycleway:right":"no","highway":"primary","lanes":"2","lit":"yes","maxspeed":"50","name":"Boulevard Sérurier","name:etymology:wikidata":"Q376344","oneway":"yes","sidewalk:both":"no","smoothness":"excellent","surface":"asphalt","id":"way/1408925822"},"geometry":{"type":"LineString","coordinates":[[2.3959584,48.8885608],[2.3959238,48.8884856],[2.3959064,48.8884434],[2.3958752,48.8883447],[2.3958606,48.8882821]]},"id":"way/1408925822"},{"type":"Feature","properties":{"@id":"way/1422131638","footway":"sidewalk","highway":"footway","id":"way/1422131638"},"geometry":{"type":"LineString","coordinates":[[2.3962625,48.8885435],[2.3962902,48.8885669],[2.3963022,48.8885906],[2.3963008,48.8886137],[2.3960985,48.8893193],[2.3960757,48.8893987]]},"id":"way/1422131638"},{"type":"Feature","properties":{"@id":"node/8094723444","natural":"tree","id":"node/8094723444"},"geometry":{"type":"Point","coordinates":[2.3961278,48.8887065]},"id":"node/8094723444"},{"type":"Feature","properties":{"@id":"node/8094723445","natural":"tree","id":"node/8094723445"},"geometry":{"type":"Point","coordinates":[2.3961003,48.888789]},"id":"node/8094723445"},{"type":"Feature","properties":{"@id":"node/8094723446","natural":"tree","id":"node/8094723446"},"geometry":{"type":"Point","coordinates":[2.3960723,48.8889052]},"id":"node/8094723446"},{"type":"Feature","properties":{"@id":"node/8094723449","natural":"tree","id":"node/8094723449"},"geometry":{"type":"Point","coordinates":[2.3960395,48.8890023]},"id":"node/8094723449"},{"type":"Feature","properties":{"@id":"node/10976650966","highway":"street_lamp","id":"node/10976650966"},"geometry":{"type":"Point","coordinates":[2.3964026,48.8883001]},"id":"node/10976650966"},{"type":"Feature","properties":{"@id":"node/10976650967","highway":"street_lamp","id":"node/10976650967"},"geometry":{"type":"Point","coordinates":[2.3961391,48.8886591]},"id":"node/10976650967"},{"type":"Feature","properties":{"@id":"node/10976650968","highway":"street_lamp","id":"node/10976650968"},"geometry":{"type":"Point","coordinates":[2.3962782,48.8886274]},"id":"node/10976650968"},{"type":"Feature","properties":{"@id":"node/10976650969","highway":"street_lamp","id":"node/10976650969"},"geometry":{"type":"Point","coordinates":[2.3961718,48.8889692]},"id":"node/10976650969"},{"type":"Feature","properties":{"@id":"node/10976650970","highway":"street_lamp","id":"node/10976650970"},"geometry":{"type":"Point","coordinates":[2.3960773,48.8888752]},"id":"node/10976650970"},{"type":"Feature","properties":{"@id":"node/10976650979","highway":"street_lamp","id":"node/10976650979"},"geometry":{"type":"Point","coordinates":[2.3968423,48.8884241]},"id":"node/10976650979"},{"type":"Feature","properties":{"@id":"node/10976650980","highway":"street_lamp","id":"node/10976650980"},"geometry":{"type":"Point","coordinates":[2.396789,48.8887504]},"id":"node/10976650980"},{"type":"Feature","properties":{"@id":"node/11816562402","highway":"street_lamp","id":"node/11816562402"},"geometry":{"type":"Point","coordinates":[2.395869,48.8884342]},"id":"node/11816562402"},{"type":"Feature","properties":{"@id":"node/11816562409","highway":"street_lamp","id":"node/11816562409"},"geometry":{"type":"Point","coordinates":[2.3962163,48.8884149]},"id":"node/11816562409"},{"type":"Feature","properties":{"@id":"node/11817388721","highway":"street_lamp","id":"node/11817388721"},"geometry":{"type":"Point","coordinates":[2.3958618,48.8886775]},"id":"node/11817388721"},{"type":"Feature","properties":{"@id":"node/11817388733","highway":"street_lamp","id":"node/11817388733"},"geometry":{"type":"Point","coordinates":[2.3960359,48.88902]},"id":"node/11817388733"},{"type":"Feature","properties":{"@id":"node/11897857094","highway":"street_lamp","id":"node/11897857094"},"geometry":{"type":"Point","coordinates":[2.3961668,48.8884884]},"id":"node/11897857094"},{"type":"Feature","properties":{"@id":"node/11897857097","highway":"street_lamp","id":"node/11897857097"},"geometry":{"type":"Point","coordinates":[2.3959951,48.8884945]},"id":"node/11897857097"}]}