{"type":"FeatureCollection","features":[{"type":"Feature","properties":{"@id":"way/78009277","building":"yes","building:levels":"1","source":"extraction vectorielle v1 cadastre-dgi-fr source : Direction Générale des Impôts - Cadas. Mise à jour : 2010","id":"way/78009277"},"geometry":{"type":"Polygon","coordinates":[[[2.3564197,48.8900074],[2.3564976,48.89002],[2.3565025,48.890026],[2.3564675,48.8901257],[2.3564601,48.8901292],[2.3564154,48.8901224],[2.3564043,48.8901505],[2.356416,48.8901527],[2.3564073,48.890176],[2.3563657,48.8901696],[2.3564197,48.8900074]]]},"id":"way/78009277"},{"type":"Feature","properties":{"@id":"way/34675236","bridge":"yes","busway:right":"lane","cycleway:both":"no","highway":"secondary","lanes":"3","lanes:backward":"1","lanes:forward":"2","layer":"1","lit":"yes","maxspeed":"30","maxweight:signed":"no","maxweightrating:signed":"no","name":"Rue Ordener","name:etymology:wikidata":"Q539130","name:zh":"奥德纳路","note":"maxweight=* déprécié, utilisez maxweightrating=* à la place (https://forum.openstreetmap.fr/t/proposition-d-edition-automatisee-migration-de-maxweight-en-maxweightrating-pour-la-france/35439/71)","sidewalk:both":"separate","surface":"asphalt","id":"way/34675236"},"geometry":{"type":"LineString","coordinates":[[2.3578781,48.8903116],[2.3563153,48.8903525]]},"id":"way/34675236"},{"type":"Feature","properties":{"@id":"way/670689932","busway:right":"lane","cycleway:left":"no","cycleway:right":"share_busway","highway":"secondary","lanes":"2","lit":"yes","maxspeed":"30","name":"Rue Ordener","name:etymology:wikidata":"Q539130","name:zh":"奥德纳路","sidewalk:both":"separate","surface":"asphalt","id":"way/670689932"},"geometry":{"type":"LineString","coordinates":[[2.3563153,48.8903525],[2.3562764,48.8903555],[2.3560548,48.8903826],[2.3560189,48.890387],[2.3559831,48.8903914],[2.3558139,48.890409]]},"id":"way/670689932"},{"type":"Feature","properties":{"@id":"way/757932024","bridge":"yes","colour":"green","cycleway":"sidewalk","highway":"cycleway","lanes":"2","layer":"1","lit":"yes","name":"Rue Ordener","name:etymology:wikidata":"Q539130","name:zh":"奥德纳路","source":"Observations personnelles","surface":"asphalt","id":"way/757932024"},"geometry":{"type":"LineString","coordinates":[[2.3562969,48.8902993],[2.3577813,48.8902543],[2.3578818,48.8902605]]},"id":"way/757932024"},{"type":"Feature","properties":{"@id":"way/1193714749","bridge":"yes","footway":"sidewalk","highway":"footway","layer":"1","surface":"asphalt","id":"way/1193714749"},"geometry":{"type":"LineString","coordinates":[[2.3562898,48.890285],[2.3578804,48.8902379]]},"id":"way/1193714749"},{"type":"Feature","properties":{"@id":"way/1193714902","bridge":"yes","footway":"sidewalk","highway":"footway","layer":"1","surface":"asphalt","id":"way/1193714902"},"geometry":{"type":"LineString","coordinates":[[2.3579012,48.8903765],[2.3563783,48.8904217],[2.3563017,48.8904294]]},"id":"way/1193714902"},{"type":"Feature","properties":{"@id":"way/1289189788","footway":"sidewalk","highway":"footway","surface":"asphalt","id":"way/1289189788"},"geometry":{"type":"LineString","coordinates":[[2.3559659,48.8902897],[2.3562898,48.890285]]},"id":"way/1289189788"},{"type":"Feature","properties":{"@id":"way/1289189789","footway":"sidewalk","highway":"footway","surface":"asphalt","id":"way/1289189789"},"geometry":{"type":"LineString","coordinates":[[2.3563017,48.8904294],[2.3559827,48.8904613],[2.3559911,48.8904398]]},"id":"way/1289189789"},{"type":"Feature","properties":{"@id":"way/1327966943","cycleway":"sidewalk","highway":"cycleway","lanes":"2","lit":"yes","name":"Rue Ordener","name:etymology:wikidata":"Q539130","name:zh":"奥德纳路","source":"Observations personnelles","surface":"asphalt","id":"way/1327966943"},"geometry":{"type":"LineString","coordinates":[[2.3558983,48.8903088],[2.3559687,48.8903038],[2.3560294,48.8903057],[2.3562969,48.8902993]]},"id":"way/1327966943"},{"type":"Feature","properties":{"@id":"node/2168693553","genus":"Acer","leaf_type":"broadleaved","natural":"tree","source":"opendata.paris.fr","id":"node/2168693553"},"geometry":{"type":"Point","coordinates":[2.35627,48.890416]},"id":"node/2168693553"}]}