{"type":"FeatureCollection","features":[{"type":"Feature","properties":{"@id":"way/34675270","busway:right":"lane","cycleway:left":"no","cycleway:right":"share_busway","highway":"secondary","lanes":"2","lit":"yes","maxspeed":"30","name":"Rue Ordener","name:etymology:wikidata":"Q539130","name:zh":"奥德纳路","sidewalk:both":"separate","surface":"asphalt","id":"way/34675270"},"geometry":{"type":"LineString","coordinates":[[2.3558139,48.890409],[2.3556959,48.8904312],[2.355192,48.8905257],[2.3551501,48.8905346],[2.3551177,48.8905408],[2.3550173,48.8905597],[2.3545335,48.8906493],[2.3544046,48.8906738],[2.3532204,48.8908898],[2.3531109,48.8909089],[2.351819,48.8911418],[2.3517629,48.8911519],[2.3517329,48.8911573],[2.3516153,48.8911838]]},"id":"way/34675270"},{"type":"Feature","properties":{"@id":"way/1193714894","footway":"sidewalk","highway":"footway","surface":"asphalt","id":"way/1193714894"},"geometry":{"type":"LineString","coordinates":[[2.3548642,48.8903145],[2.3551069,48.890322],[2.3551083,48.8903328]]},"id":"way/1193714894"},{"type":"Feature","properties":{"@id":"way/1193714898","footway":"sidewalk","highway":"footway","lit":"yes","surface":"asphalt","id":"way/1193714898"},"geometry":{"type":"LineString","coordinates":[[2.3545809,48.8905688],[2.3546563,48.8905495],[2.3548427,48.890501],[2.355115,48.8904472],[2.3552781,48.8904234]]},"id":"way/1193714898"},{"type":"Feature","properties":{"@id":"way/1193714900","footway":"sidewalk","highway":"footway","surface":"asphalt","id":"way/1193714900"},"geometry":{"type":"LineString","coordinates":[[2.355174,48.8905958],[2.3549286,48.8906549],[2.3548494,48.8906686]]},"id":"way/1193714900"},{"type":"Feature","properties":{"@id":"way/1193790841","footway":"sidewalk","highway":"footway","lit":"yes","surface":"asphalt","id":"way/1193790841"},"geometry":{"type":"LineString","coordinates":[[2.355115,48.8904472],[2.3546255,48.8904155]]},"id":"way/1193790841"}]}