{"type":"FeatureCollection","features":[{"type":"Feature","properties":{"@id":"way/63971296","building":"yes","building:levels":"1","source":"cadastre-dgi-fr source : Direction Générale des Impôts - Cadastre. Mise à jour : 2010","id":"way/63971296"},"geometry":{"type":"Polygon","coordinates":[[[2.3836647,48.8900772],[2.3838371,48.8901624],[2.3837862,48.890203],[2.383744,48.890182],[2.3836464,48.8901335],[2.3836647,48.8900772]]]},"id":"way/63971296"},{"type":"Feature","properties":{"@id":"way/1456769254","area":"yes","area:highway":"footway","footway":"sidewalk","highway":"footway","highway:area":"footway","lit":"yes","smoothness":"good","surface":"asphalt","id":"way/1456769254"},"geometry":{"type":"Polygon","coordinates":[[[2.3847557,48.8906864],[2.3847796,48.8907035],[2.3847949,48.8907062],[2.384795,48.8907112],[2.3847906,48.8907162],[2.3847847,48.8907182],[2.3847797,48.890719],[2.3847725,48.8907182],[2.3847673,48.8907158],[2.3836268,48.890149],[2.3836191,48.890143],[2.3836161,48.8901327],[2.3836171,48.8901238],[2.3836212,48.8901082],[2.3836362,48.8901144],[2.3836464,48.8901335],[2.383744,48.890182],[2.3837862,48.890203],[2.383819,48.8902191],[2.3838601,48.8901834],[2.3838922,48.8901994],[2.3842345,48.8903695],[2.3842526,48.8903788],[2.3842692,48.8903873],[2.3845569,48.8905308],[2.3845835,48.8905442],[2.3846182,48.8905617],[2.3846131,48.8906142],[2.3847557,48.8906864]]]},"id":"way/1456769254"},{"type":"Feature","properties":{"@id":"way/19428649","bicycle:backward":"use_sidepath","cycleway:both":"separate","highway":"residential","lanes":"1","lit":"yes","maxheight":"3.5","maxspeed":"30","name":"Quai de l'Oise","name:etymology:wikidata":"Q200231","oneway":"yes","parking:left":"lane","parking:left:orientation":"parallel","parking:right":"no","sidewalk:both":"separate","surface":"asphalt","id":"way/19428649"},"geometry":{"type":"LineString","coordinates":[[2.3791114,48.8886473],[2.3791991,48.8885961],[2.379248,48.8885769],[2.3793165,48.8886089],[2.3796973,48.8887873],[2.3808186,48.8893436],[2.3809452,48.8894061],[2.381546,48.889702],[2.3818661,48.8898639],[2.3821434,48.8900038],[2.3821883,48.8900315],[2.3822139,48.8900473],[2.382899,48.8903893],[2.3830035,48.8904419],[2.3831484,48.890513],[2.3836545,48.8907661],[2.3837433,48.8908108],[2.3838773,48.8908791],[2.3845173,48.8911933]]},"id":"way/19428649"},{"type":"Feature","properties":{"@id":"way/19435101","cycleway:left":"opposite_lane","highway":"residential","lanes":"1","lit":"yes","maxspeed":"30","name":"Rue de Nantes","name:etymology:wikidata":"Q12191","oneway":"yes","oneway:bicycle":"no","sidewalk":"separate","smoothness":"good","surface":"asphalt","id":"way/19435101"},"geometry":{"type":"LineString","coordinates":[[2.3838773,48.8908791],[2.3838129,48.8909118],[2.3825077,48.8916031],[2.3823953,48.8916612],[2.3822797,48.8917179],[2.3818541,48.8919584],[2.3801415,48.8929928]]},"id":"way/19435101"},{"type":"Feature","properties":{"@id":"way/43184564","cycleway":"crossing","highway":"cycleway","lit":"yes","smoothness":"good","surface":"asphalt","id":"way/43184564"},"geometry":{"type":"LineString","coordinates":[[2.3839071,48.8908494],[2.3838773,48.8908791]]},"id":"way/43184564"},{"type":"Feature","properties":{"@id":"way/43184570","cycleway":"crossing","highway":"cycleway","lit":"yes","surface":"asphalt","id":"way/43184570"},"geometry":{"type":"LineString","coordinates":[[2.3848213,48.8908072],[2.384817,48.8907641]]},"id":"way/43184570"},{"type":"Feature","properties":{"@id":"way/72072074","cycleway:both":"no","highway":"residential","lit":"yes","maxspeed":"30","name":"Rue de la Marne","name:etymology:wikidata":"Q41983","oneway":"yes","oneway:bicycle":"no","sidewalk:both":"separate","surface":"asphalt","id":"way/72072074"},"geometry":{"type":"LineString","coordinates":[[2.3836975,48.8893598],[2.3837523,48.889462],[2.3837837,48.8895192],[2.3835691,48.8900828],[2.3835566,48.8901324]]},"id":"way/72072074"},{"type":"Feature","properties":{"@id":"way/74861070","highway":"footway","lit":"yes","surface":"sett","id":"way/74861070"},"geometry":{"type":"LineString","coordinates":[[2.3793754,48.8885574],[2.3808876,48.8892967],[2.3821965,48.8899576],[2.3830545,48.8903864],[2.3837959,48.8907546],[2.3844634,48.8910862],[2.3845009,48.8910939],[2.3848148,48.8912508],[2.3849331,48.8913144],[2.3853488,48.8915129],[2.3853971,48.891542],[2.3854387,48.8915874],[2.3854595,48.8916385],[2.3854588,48.8916808],[2.3853944,48.8918298],[2.3853891,48.8918616],[2.3853891,48.8918938],[2.3853971,48.8919251],[2.3855183,48.8921694],[2.385622,48.8923687],[2.3856908,48.8924806],[2.3857022,48.8925141],[2.3857047,48.8925542],[2.3857029,48.8925784],[2.3856881,48.8926217],[2.385318,48.893206]]},"id":"way/74861070"},{"type":"Feature","properties":{"@id":"way/74861074","bridge":"yes","highway":"footway","layer":"1","lit":"no","name":"Passerelle des Ardennes","surface":"asphalt","wikidata":"Q3368312","id":"way/74861074"},"geometry":{"type":"LineString","coordinates":[[2.3847589,48.8908111],[2.3847486,48.8908103],[2.384694,48.8912053],[2.3847035,48.8912107]]},"id":"way/74861074"},{"type":"Feature","properties":{"@id":"way/231265511","cycleway":"sidewalk","foot":"no","highway":"cycleway","lit":"yes","name":"Quai de la Marne","name:etymology:wikidata":"Q41983","oneway":"no","smoothness":"good","source:width":"ARCore","surface":"asphalt","width":"2.5","id":"way/231265511"},"geometry":{"type":"LineString","coordinates":[[2.3860568,48.8914208],[2.3858096,48.8912978],[2.3849261,48.890858],[2.3848213,48.8908072],[2.3835489,48.8901738],[2.3834047,48.8901019],[2.3825492,48.8896788],[2.3825109,48.8896598],[2.3807728,48.8887954],[2.3806947,48.888756],[2.3797124,48.8882692],[2.379678,48.8882518],[2.3796279,48.88818]]},"id":"way/231265511"},{"type":"Feature","properties":{"@id":"way/268662318","bicycle:backward":"use_sidepath","cycleway":"separate","highway":"residential","lit":"yes","maxheight":"3.5","maxspeed":"30","name":"Quai de la Marne","name:etymology:wikidata":"Q41983","oneway":"yes","sidewalk":"separate","smoothness":"intermediate","surface":"sett","id":"way/268662318"},"geometry":{"type":"LineString","coordinates":[[2.3845883,48.8906489],[2.3847493,48.89073]]},"id":"way/268662318"},{"type":"Feature","properties":{"@id":"way/268662320","bicycle:backward":"use_sidepath","cycleway":"separate","highway":"residential","lit":"yes","maxspeed":"30","name":"Quai de la Marne","name:etymology:wikidata":"Q41983","oneway":"yes","sidewalk":"separate","smoothness":"intermediate","surface":"sett","id":"way/268662320"},"geometry":{"type":"LineString","coordinates":[[2.3847493,48.89073],[2.384817,48.8907641]]},"id":"way/268662320"},{"type":"Feature","properties":{"@id":"way/268662321","bicycle:backward":"use_sidepath","cycleway":"separate","highway":"residential","lit":"yes","maxspeed":"30","name":"Quai de la Marne","name:etymology:wikidata":"Q41983","oneway":"yes","sidewalk":"separate","smoothness":"intermediate","surface":"sett","id":"way/268662321"},"geometry":{"type":"LineString","coordinates":[[2.3835566,48.8901324],[2.3845883,48.8906489]]},"id":"way/268662321"},{"type":"Feature","properties":{"@id":"way/714583369","cycleway":"sidewalk","foot":"no","highway":"cycleway","incline":"0%","lit":"yes","name":"Quai de l'Oise","name:etymology:wikidata":"Q200231","oneway":"no","surface":"asphalt","width":"2.2","id":"way/714583369"},"geometry":{"type":"LineString","coordinates":[[2.3822031,48.8899881],[2.3822434,48.8900159],[2.3822779,48.8900401],[2.3830311,48.8904142],[2.3831745,48.8904866],[2.3837713,48.8907819],[2.3839071,48.8908494],[2.3849039,48.8913434],[2.3850189,48.8914008],[2.3852917,48.8915371],[2.3853544,48.8915825],[2.3853774,48.8916386],[2.3853764,48.8916893],[2.3853394,48.8918002],[2.3853218,48.8918861],[2.3853202,48.8919952],[2.3853427,48.8921008],[2.3854,48.8922053],[2.3854741,48.8923171]]},"id":"way/714583369"},{"type":"Feature","properties":{"@id":"way/1193560442","footway":"sidewalk","highway":"footway","lit":"yes","surface":"asphalt","id":"way/1193560442"},"geometry":{"type":"LineString","coordinates":[[2.3851215,48.890087],[2.3851148,48.8901011],[2.3850967,48.8901339],[2.3849227,48.8903847],[2.3849,48.8907411]]},"id":"way/1193560442"},{"type":"Feature","properties":{"@id":"way/1193560463","footway":"sidewalk","highway":"footway","surface":"asphalt","id":"way/1193560463"},"geometry":{"type":"LineString","coordinates":[[2.3836362,48.8901144],[2.3836295,48.8901362],[2.3847557,48.8906988],[2.3847796,48.8907035]]},"id":"way/1193560463"},{"type":"Feature","properties":{"@id":"way/1193560464","footway":"sidewalk","highway":"footway","surface":"asphalt","id":"way/1193560464"},"geometry":{"type":"LineString","coordinates":[[2.3838947,48.8895275],[2.3838112,48.8895813],[2.3836362,48.8901144]]},"id":"way/1193560464"},{"type":"Feature","properties":{"@id":"way/1193560624","footway":"sidewalk","highway":"footway","surface":"asphalt","id":"way/1193560624"},"geometry":{"type":"LineString","coordinates":[[2.3836986,48.8908581],[2.3836463,48.8908445],[2.3831521,48.8905905],[2.3831011,48.8905782],[2.3830636,48.8905808]]},"id":"way/1193560624"},{"type":"Feature","properties":{"@id":"way/1193560625","footway":"sidewalk","highway":"footway","surface":"asphalt","id":"way/1193560625"},"geometry":{"type":"LineString","coordinates":[[2.3837214,48.8908789],[2.3837113,48.8908626],[2.3836986,48.8908581]]},"id":"way/1193560625"},{"type":"Feature","properties":{"@id":"way/1193560626","footway":"sidewalk","highway":"footway","surface":"asphalt","id":"way/1193560626"},"geometry":{"type":"LineString","coordinates":[[2.3824797,48.8915809],[2.3835913,48.8910023],[2.3836879,48.890949],[2.3837154,48.8909159],[2.3837214,48.8908789]]},"id":"way/1193560626"},{"type":"Feature","properties":{"@id":"way/1193570176","footway":"sidewalk","highway":"footway","lit":"yes","surface":"paving_stones","id":"way/1193570176"},"geometry":{"type":"LineString","coordinates":[[2.3848774,48.8909014],[2.3848991,48.8908812],[2.384915,48.8908668]]},"id":"way/1193570176"},{"type":"Feature","properties":{"@id":"way/1193570177","crossing":"uncontrolled","crossing:markings":"yes","footway":"crossing","highway":"footway","surface":"asphalt","id":"way/1193570177"},"geometry":{"type":"LineString","coordinates":[[2.3847949,48.8907062],[2.384823,48.890714],[2.3848491,48.8907214]]},"id":"way/1193570177"},{"type":"Feature","properties":{"@id":"way/1193570186","crossing":"uncontrolled","crossing:markings":"zebra","crossing:signals":"no","footway":"crossing","highway":"footway","lit":"yes","surface":"asphalt","id":"way/1193570186"},"geometry":{"type":"LineString","coordinates":[[2.3836212,48.8901082],[2.3835691,48.8900828],[2.3835256,48.8900615]]},"id":"way/1193570186"},{"type":"Feature","properties":{"@id":"way/1193792729","crossing":"uncontrolled","crossing:markings":"yes","footway":"crossing","highway":"footway","lit":"yes","surface":"asphalt","id":"way/1193792729"},"geometry":{"type":"LineString","coordinates":[[2.3837281,48.8908264],[2.3837433,48.8908108],[2.3837713,48.8907819],[2.38378,48.8907729]]},"id":"way/1193792729"},{"type":"Feature","properties":{"@id":"way/1193792730","highway":"footway","lit":"yes","smoothness":"good","surface":"asphalt","id":"way/1193792730"},"geometry":{"type":"LineString","coordinates":[[2.3837959,48.8907546],[2.38378,48.8907729]]},"id":"way/1193792730"},{"type":"Feature","properties":{"@id":"way/1222787558","bicycle:backward":"use_sidepath","cycleway":"separate","highway":"residential","lit":"yes","maxspeed":"30","name":"Quai de la Marne","name:etymology:wikidata":"Q41983","oneway":"yes","sidewalk:both":"separate","smoothness":"intermediate","surface":"sett","id":"way/1222787558"},"geometry":{"type":"LineString","coordinates":[[2.384817,48.8907641],[2.3849577,48.8908331],[2.3860663,48.8913809]]},"id":"way/1222787558"},{"type":"Feature","properties":{"@id":"way/1222787559","cycleway:both":"no","highway":"residential","lit":"yes","maxspeed":"30","name":"Rue des Ardennes","name:etymology:wikidata":"Q3164","oneway":"yes","oneway:bicycle":"no","sidewalk":"separate","surface":"asphalt","id":"way/1222787559"},"geometry":{"type":"LineString","coordinates":[[2.384817,48.8907641],[2.384823,48.890714],[2.3848626,48.8903715],[2.3850391,48.890113],[2.3850963,48.890028]]},"id":"way/1222787559"},{"type":"Feature","properties":{"@id":"way/1225657521","footway":"sidewalk","highway":"footway","surface":"asphalt","id":"way/1225657521"},"geometry":{"type":"LineString","coordinates":[[2.3837214,48.8908789],[2.383761,48.8908868]]},"id":"way/1225657521"},{"type":"Feature","properties":{"@id":"way/1225657522","footway":"sidewalk","highway":"footway","surface":"asphalt","id":"way/1225657522"},"geometry":{"type":"LineString","coordinates":[[2.3836986,48.8908581],[2.3837281,48.8908264]]},"id":"way/1225657522"},{"type":"Feature","properties":{"@id":"way/1225657588","footway":"sidewalk","highway":"footway","lit":"yes","surface":"asphalt","id":"way/1225657588"},"geometry":{"type":"LineString","coordinates":[[2.3861414,48.8913449],[2.3850146,48.8907855],[2.3849,48.8907411],[2.3848491,48.8907214]]},"id":"way/1225657588"},{"type":"Feature","properties":{"@id":"way/1225657598","footway":"sidewalk","highway":"footway","surface":"asphalt","id":"way/1225657598"},"geometry":{"type":"LineString","coordinates":[[2.3847796,48.8907035],[2.3847949,48.8907062]]},"id":"way/1225657598"},{"type":"Feature","properties":{"@id":"way/1225657600","footway":"sidewalk","highway":"footway","lit":"yes","surface":"asphalt","id":"way/1225657600"},"geometry":{"type":"LineString","coordinates":[[2.3847796,48.8907035],[2.3847866,48.8906135],[2.3847762,48.8905486],[2.3847929,48.8903635],[2.3849743,48.8900932],[2.3849891,48.8900573],[2.3850082,48.8900302]]},"id":"way/1225657600"},{"type":"Feature","properties":{"@id":"way/1225657603","footway":"sidewalk","highway":"footway","surface":"asphalt","id":"way/1225657603"},"geometry":{"type":"LineString","coordinates":[[2.3836362,48.8901144],[2.3836212,48.8901082]]},"id":"way/1225657603"},{"type":"Feature","properties":{"@id":"way/1237907492","footway":"sidewalk","highway":"footway","lit":"yes","surface":"sett","id":"way/1237907492"},"geometry":{"type":"LineString","coordinates":[[2.3848991,48.8908812],[2.3848748,48.890869]]},"id":"way/1237907492"},{"type":"Feature","properties":{"@id":"way/1408858782","crossing":"traffic_signals","crossing:markings":"zebra","crossing:signals":"yes","footway":"crossing","highway":"footway","lit":"yes","surface":"asphalt","id":"way/1408858782"},"geometry":{"type":"LineString","coordinates":[[2.3849349,48.8908511],[2.3849261,48.890858],[2.384915,48.8908668]]},"id":"way/1408858782"},{"type":"Feature","properties":{"@id":"node/406692819","contact:city":"Paris","contact:housenumber":"38 bis","contact:phone":"+33 1 43 43 40 74","contact:postcode":"75019","contact:street":"Quai de la Marne","description":"Association fondée sur un projet d'animation et une démarche sociale.","email":"aicv.paris19@gmail.com","mobile":"+33 6 29 20 98 03","name":"AICV","opening_hours":"Tu-Sa 09:45-12:30,13:30-17:15","service:bicycle:pump":"yes","service:bicycle:rental":"yes","service:bicycle:repair":"yes","service:bicycle:second_hand":"yes","service:bicycle:training":"yes","shop":"bicycle","training":"cycling","website":"http://www.aicv.net/","id":"node/406692819"},"geometry":{"type":"Point","coordinates":[2.3846099,48.8904844]},"id":"node/406692819"},{"type":"Feature","properties":{"@id":"node/3986299232","addr:city":"Paris","addr:housenumber":"34","addr:postcode":"75019","addr:street":"Quai de la Marne","amenity":"cafe","email":"contact@maisonbecquey.com","name":"Maison Becquey","opening_hours":"08:00-02:00","outdoor_seating":"sidewalk","phone":"+33 1 45 26 97 79","ref:FR:SIRET":"82082712900033","restaurant":"yes","smoking":"outside","id":"node/3986299232"},"geometry":{"type":"Point","coordinates":[2.3841995,48.8902868]},"id":"node/3986299232"},{"type":"Feature","properties":{"@id":"node/4701892930","addr:city":"Paris","addr:housenumber":"32","addr:postcode":"75019","addr:street":"Quai de la Marne","amenity":"restaurant","cuisine":"italian","diet:vegetarian":"yes","name":"Simonetta","opening_hours":"Mo-Fr 19:00-24:00, Sa,Su 12:00-24:00","outdoor_seating":"sidewalk","phone":"+33142813263","ref:FR:SIRET":"75297554000028","source":"Observations personnelles","website":"http://www.simonetta-paris.com","id":"node/4701892930"},"geometry":{"type":"Point","coordinates":[2.3840185,48.8902013]},"id":"node/4701892930"},{"type":"Feature","properties":{"@id":"node/10883917831","genus":"Celtis","leaf_type":"broadleaved","natural":"tree","species":"Celtis australis","id":"node/10883917831"},"geometry":{"type":"Point","coordinates":[2.3836802,48.890841]},"id":"node/10883917831"},{"type":"Feature","properties":{"@id":"node/10883917836","genus":"Celtis","leaf_type":"broadleaved","natural":"tree","species":"Celtis australis","id":"node/10883917836"},"geometry":{"type":"Point","coordinates":[2.3835857,48.890796]},"id":"node/10883917836"},{"type":"Feature","properties":{"@id":"node/12021738926","highway":"street_lamp","id":"node/12021738926"},"geometry":{"type":"Point","coordinates":[2.3848928,48.8902048]},"id":"node/12021738926"},{"type":"Feature","properties":{"@id":"node/12021738927","highway":"street_lamp","id":"node/12021738927"},"geometry":{"type":"Point","coordinates":[2.3847879,48.8903596]},"id":"node/12021738927"},{"type":"Feature","properties":{"@id":"node/12021738928","highway":"street_lamp","id":"node/12021738928"},"geometry":{"type":"Point","coordinates":[2.3849226,48.8905343]},"id":"node/12021738928"},{"type":"Feature","properties":{"@id":"node/12021738929","highway":"street_lamp","id":"node/12021738929"},"geometry":{"type":"Point","coordinates":[2.3847668,48.8906569]},"id":"node/12021738929"},{"type":"Feature","properties":{"@id":"node/12688475711","genus":"Celtis","leaf_type":"broadleaved","natural":"tree","species":"Celtis australis","id":"node/12688475711"},"geometry":{"type":"Point","coordinates":[2.3839346,48.8902568]},"id":"node/12688475711"},{"type":"Feature","properties":{"@id":"node/12688475712","genus":"Celtis","leaf_type":"broadleaved","natural":"tree","species":"Celtis australis","id":"node/12688475712"},"geometry":{"type":"Point","coordinates":[2.3840714,48.890326]},"id":"node/12688475712"},{"type":"Feature","properties":{"@id":"node/12688475713","genus":"Celtis","leaf_type":"broadleaved","natural":"tree","species":"Celtis australis","id":"node/12688475713"},"geometry":{"type":"Point","coordinates":[2.3845146,48.8905178]},"id":"node/12688475713"}]}