{"type":"FeatureCollection","features":[{"type":"Feature","properties":{"@id":"way/63971614","building":"sports_centre","building:material":"vinyl","name":"Folie des Vents et des Dunes L6","source":"cadastre-dgi-fr source : Direction Générale des Impôts - Cadastre. Mise à jour : 2010","id":"way/63971614"},"geometry":{"type":"Polygon","coordinates":[[[2.3889458,48.8915751],[2.3890387,48.891492],[2.3891529,48.891548],[2.38906,48.8916332],[2.3889458,48.8915751]]]},"id":"way/63971614"},{"type":"Feature","properties":{"@id":"way/135615153","highway":"footway","lit":"no","surface":"metal","id":"way/135615153"},"geometry":{"type":"LineString","coordinates":[[2.3895477,48.8911985],[2.3894816,48.8911427]]},"id":"way/135615153"},{"type":"Feature","properties":{"@id":"way/135615167","highway":"footway","lit":"yes","surface":"paving_stones","id":"way/135615167"},"geometry":{"type":"LineString","coordinates":[[2.3893668,48.8907218],[2.3893609,48.8907552],[2.3893613,48.8908254],[2.3893248,48.8908925],[2.3892721,48.8908912],[2.3892142,48.8908723],[2.3891904,48.8908755],[2.3891597,48.8909223],[2.3891481,48.8909736],[2.3891913,48.8910817],[2.389192,48.8911171],[2.3891607,48.8911413],[2.3890043,48.8911436],[2.3889582,48.8911386]]},"id":"way/135615167"},{"type":"Feature","properties":{"@id":"way/1225543001","highway":"footway","surface":"paving_stones","id":"way/1225543001"},"geometry":{"type":"LineString","coordinates":[[2.3893668,48.8907218],[2.3898205,48.8909401]]},"id":"way/1225543001"},{"type":"Feature","properties":{"@id":"way/1259757946","highway":"footway","lit":"no","surface":"metal","id":"way/1259757946"},"geometry":{"type":"LineString","coordinates":[[2.3893874,48.8913489],[2.3889582,48.8911386]]},"id":"way/1259757946"},{"type":"Feature","properties":{"@id":"way/1429252835","bicycle":"yes","covered":"yes","highway":"footway","lit":"yes","name":"Galerie de la Villette","smoothness":"good","surface":"paving_stones","id":"way/1429252835"},"geometry":{"type":"LineString","coordinates":[[2.3893874,48.8913489],[2.3889996,48.8917092],[2.3886887,48.8920031],[2.3884356,48.8922439],[2.3883134,48.8923663]]},"id":"way/1429252835"},{"type":"Feature","properties":{"@id":"way/1429252837","bicycle":"yes","covered":"yes","highway":"footway","lit":"yes","name":"Galerie de la Villette","smoothness":"good","surface":"paving_stones","id":"way/1429252837"},"geometry":{"type":"LineString","coordinates":[[2.3904092,48.8903824],[2.3898205,48.8909401],[2.3895477,48.8911985],[2.3893874,48.8913489]]},"id":"way/1429252837"},{"type":"Feature","properties":{"@id":"way/1456734312","bridge":"yes","highway":"footway","layer":"1","lit":"no","surface":"metal","id":"way/1456734312"},"geometry":{"type":"LineString","coordinates":[[2.3894816,48.8911427],[2.3890508,48.8907693]]},"id":"way/1456734312"},{"type":"Feature","properties":{"@id":"node/9840536016","check_date:opening_hours":"2025-06-29","contact:instagram":"https://www.instagram.com/librairieduparc/","email":"librairieduparc.actessud@orange.fr","name":"Librairie du Parc - Actes Sud","opening_hours":"Tu-Th 11:00-19:00; Fr-Su 11:00-20:00","phone":"+33 1 42 38 37 52","shop":"books","website":"https://www.librairieduparc-actessud.com","wheelchair":"yes","id":"node/9840536016"},"geometry":{"type":"Point","coordinates":[2.3898665,48.8911907]},"id":"node/9840536016"}]}