{"type":"FeatureCollection","features":[{"type":"Feature","properties":{"@id":"way/1189153589","cycleway":"on_street","enforcement:operator":"Police nationale","highway":"cycleway","lit":"yes","name":"Boulevard Saint-Denis","name:etymology:wikidata":"Q2174628","name:ja":"サン・ドニ通り","name:zh":"圣但尼大道","oneway":"yes","operator":"Ville de Paris","operator:authority":"Maire de Paris après avis du préfet de police","operator:authority:related_law":"IV de l'article L. 2512-14 du code général des collectivités territoriales","operator:url":"https://cdn.paris.fr/paris/2020/02/26/5bf469a311d0beb9911e92d113781550.ai","smoothness":"good","surface":"asphalt","id":"way/1189153589"},"geometry":{"type":"LineString","coordinates":[[2.3558544,48.8690249],[2.3557853,48.8690412],[2.3554504,48.8691195],[2.3553745,48.8691354],[2.3552228,48.869172],[2.3544603,48.8693467]]},"id":"way/1189153589"},{"type":"Feature","properties":{"@id":"way/1189428782","footway":"sidewalk","highway":"footway","lit":"yes","smoothness":"good","surface":"asphalt","id":"way/1189428782"},"geometry":{"type":"LineString","coordinates":[[2.3544967,48.8694526],[2.3545753,48.8695763],[2.3549319,48.8702509],[2.35507,48.870493],[2.3550324,48.8705016]]},"id":"way/1189428782"},{"type":"Feature","properties":{"@id":"way/1189428784","footway":"sidewalk","highway":"footway","id":"way/1189428784"},"geometry":{"type":"LineString","coordinates":[[2.3552112,48.8692285],[2.354717,48.8693677],[2.3545162,48.8694243],[2.3544706,48.8693661]]},"id":"way/1189428784"}]}