{"type":"FeatureCollection","features":[{"type":"Feature","properties":{"@id":"way/56435773","building":"apartments","building:levels":"7","source":"cadastre-dgi-fr source : Direction Générale des Impôts - Cadastre. Mise à jour : 2010","id":"way/56435773"},"geometry":{"type":"Polygon","coordinates":[[[2.35927,48.867051],[2.3593914,48.8670216],[2.359427,48.8670625],[2.359364,48.8670861],[2.3593576,48.8671021],[2.3593929,48.8671423],[2.3594702,48.8671138],[2.3595567,48.8672153],[2.3594768,48.867227],[2.3593997,48.8672383],[2.3592621,48.8670749],[2.3592807,48.8670671],[2.35927,48.867051]]]},"id":"way/56435773"},{"type":"Feature","properties":{"@id":"way/56435787","building":"apartments","source":"cadastre-dgi-fr source : Direction Générale des Impôts - Cadastre. Mise à jour : 2010","id":"way/56435787"},"geometry":{"type":"Polygon","coordinates":[[[2.3590535,48.8668275],[2.3591663,48.8669648],[2.359109,48.8669853],[2.3590871,48.8669583],[2.3590668,48.8669644],[2.3590571,48.8669495],[2.3590359,48.8669207],[2.3589786,48.8668428],[2.3590425,48.8668297],[2.3590535,48.8668275]]]},"id":"way/56435787"},{"type":"Feature","properties":{"@id":"way/56435792","building":"apartments","source":"cadastre-dgi-fr source : Direction Générale des Impôts - Cadastre. Mise à jour : 2010","id":"way/56435792"},"geometry":{"type":"Polygon","coordinates":[[[2.3598493,48.8671731],[2.3596774,48.866957],[2.3597996,48.8669138],[2.359994,48.8671534],[2.3599906,48.867154],[2.3599899,48.8671528],[2.3599293,48.8671615],[2.3598493,48.8671731]]]},"id":"way/56435792"},{"type":"Feature","properties":{"@id":"way/56435797","building":"apartments","source":"cadastre-dgi-fr source : Direction Générale des Impôts - Cadastre. Mise à jour : 2010","start_date":"before 1800","id":"way/56435797"},"geometry":{"type":"Polygon","coordinates":[[[2.3598959,48.866652],[2.3600342,48.8668214],[2.3599736,48.8668425],[2.3599244,48.8667832],[2.3599507,48.8667728],[2.359933,48.8667529],[2.3599284,48.8667546],[2.3599113,48.8667317],[2.3598874,48.8667384],[2.3598284,48.8666665],[2.3598391,48.8666642],[2.3598959,48.866652]]]},"id":"way/56435797"},{"type":"Feature","properties":{"@id":"way/56435807","building":"apartments","source":"cadastre-dgi-fr source : Direction Générale des Impôts - Cadastre. Mise à jour : 2010","id":"way/56435807"},"geometry":{"type":"Polygon","coordinates":[[[2.3596323,48.8667085],[2.3597996,48.8669138],[2.3596774,48.866957],[2.3596009,48.8668628],[2.3595012,48.8667379],[2.3595854,48.866719],[2.3596116,48.8667131],[2.3596323,48.8667085]]]},"id":"way/56435807"},{"type":"Feature","properties":{"@id":"way/56435813","amenity":"place_of_worship","architect":"J. A. Thierry","building":"yes","denomination":"sephardi","heritage":"2","heritage:operator":"mhs","mhs:inscription_date":"2019-04-29","name":"Synagogue Nazareth","ref:mhs":"PA00086234","religion":"jewish","source":"cadastre-dgi-fr source : Direction Générale des Impôts - Cadastre. Mise à jour : 2010","source:heritage":"data.gouv.fr:Ministère de la Culture - 2025-02","start_date":"1852","wikidata":"Q1567798","wikipedia":"fr:Synagogue Nazareth","id":"way/56435813"},"geometry":{"type":"Polygon","coordinates":[[[2.3598284,48.8666665],[2.3598874,48.8667384],[2.3599244,48.8667832],[2.3599736,48.8668425],[2.3600021,48.8668747],[2.3602146,48.867122],[2.3602092,48.8671224],[2.360209,48.8671208],[2.3600997,48.8671361],[2.3599968,48.8671512],[2.3599972,48.867153],[2.359994,48.8671534],[2.3597996,48.8669138],[2.3596323,48.8667085],[2.3596305,48.8667059],[2.3596496,48.8667019],[2.3598165,48.8666669],[2.3598269,48.8666647],[2.3598284,48.8666665]]]},"id":"way/56435813"},{"type":"Feature","properties":{"@id":"way/56435816","architect":"Petitpas","building":"apartments","building:levels":"7","source":"cadastre-dgi-fr source : Direction Générale des Impôts - Cadastre. Mise à jour : 2010","start_date":"1901","id":"way/56435816"},"geometry":{"type":"Polygon","coordinates":[[[2.3595012,48.8667379],[2.3596009,48.8668628],[2.3594696,48.8669117],[2.3594066,48.8668371],[2.3593572,48.8667691],[2.3593763,48.866765],[2.3595012,48.8667379]]]},"id":"way/56435816"},{"type":"Feature","properties":{"@id":"way/56435833","building":"apartments","source":"cadastre-dgi-fr source : Direction Générale des Impôts - Cadastre. Mise à jour : 2010","id":"way/56435833"},"geometry":{"type":"Polygon","coordinates":[[[2.3589786,48.8668428],[2.3590359,48.8669207],[2.3589906,48.8669303],[2.3590088,48.8669595],[2.3590571,48.8669495],[2.3590668,48.8669644],[2.3590863,48.8669934],[2.3589368,48.8670225],[2.3589222,48.8670071],[2.3589908,48.8669929],[2.3589107,48.8668566],[2.3589218,48.8668543],[2.3589786,48.8668428]]]},"id":"way/56435833"},{"type":"Feature","properties":{"@id":"way/56435840","building":"apartments","source":"cadastre-dgi-fr source : Direction Générale des Impôts - Cadastre. Mise à jour : 2010","id":"way/56435840"},"geometry":{"type":"Polygon","coordinates":[[[2.3595567,48.8672153],[2.3594702,48.8671138],[2.359427,48.8670625],[2.3593914,48.8670216],[2.3593855,48.8670136],[2.3595182,48.8669694],[2.3595853,48.8670478],[2.3595046,48.8670765],[2.3595272,48.8671045],[2.3595236,48.8671052],[2.3595311,48.8671129],[2.3595888,48.8670921],[2.3595877,48.8670719],[2.3595766,48.8670588],[2.3595903,48.8670536],[2.359709,48.8671929],[2.3596317,48.8672043],[2.3595567,48.8672153]]]},"id":"way/56435840"},{"type":"Feature","properties":{"@id":"way/1078326417","area":"yes","footway":"sidewalk","highway":"footway","lit":"yes","noname":"yes","surface":"paving_stones","id":"way/1078326417"},"geometry":{"type":"Polygon","coordinates":[[[2.3582748,48.8669283],[2.3582793,48.8669265],[2.3583063,48.8669027],[2.3583574,48.866892],[2.3584177,48.8668793],[2.3584294,48.8668983],[2.3584436,48.8668954],[2.3584941,48.8668849],[2.3585915,48.8668646],[2.3586187,48.8668589],[2.3586924,48.8668436],[2.3587523,48.8668309],[2.3588019,48.8668211],[2.3588792,48.8668046],[2.3588612,48.866774],[2.3589272,48.8667598],[2.3589614,48.8667524],[2.3589916,48.8667459],[2.3589962,48.866753],[2.3591636,48.8667159],[2.3591634,48.8667138],[2.3592999,48.8666843],[2.3594365,48.8666532],[2.3594388,48.8666567],[2.3597323,48.8665923],[2.3600962,48.8665131],[2.3600965,48.8664918],[2.3602187,48.8664877],[2.3602117,48.8664977],[2.3602031,48.8665067],[2.3601927,48.8665137],[2.3601731,48.8665207],[2.3601361,48.8665288],[2.3600577,48.8665461],[2.3597988,48.8666031],[2.3592907,48.8667105],[2.3590692,48.8667617],[2.359053,48.8667754],[2.3590419,48.8667836],[2.3590191,48.8667919],[2.3583291,48.866933],[2.3583168,48.8669357],[2.3582999,48.8669355],[2.3582873,48.866933],[2.3582748,48.8669283]]]},"id":"way/1078326417"},{"type":"Feature","properties":{"@id":"way/1082413406","area":"yes","footway":"sidewalk","highway":"footway","lit":"yes","noname":"yes","surface":"paving_stones","id":"way/1082413406"},"geometry":{"type":"Polygon","coordinates":[[[2.3583439,48.8670112],[2.3583223,48.8669955],[2.3583132,48.8669955],[2.3583242,48.8669759],[2.3583288,48.8669716],[2.358334,48.8669678],[2.3583457,48.8669629],[2.3590504,48.8668175],[2.3592741,48.8667635],[2.3594276,48.8667307],[2.3602189,48.8665629],[2.3602378,48.8665574],[2.3602549,48.8665494],[2.3602749,48.866537],[2.3602947,48.8665569],[2.3603012,48.8665635],[2.3602813,48.8665678],[2.3601489,48.866597],[2.3599392,48.8666426],[2.3598959,48.866652],[2.3598391,48.8666642],[2.3598284,48.8666665],[2.3598269,48.8666647],[2.3598165,48.8666669],[2.3596496,48.8667019],[2.3596305,48.8667059],[2.3596323,48.8667085],[2.3596116,48.8667131],[2.3595854,48.866719],[2.3595012,48.8667379],[2.3593763,48.866765],[2.3593572,48.8667691],[2.3593531,48.8667648],[2.3592751,48.8667809],[2.3592027,48.8667958],[2.3591177,48.8668139],[2.3590535,48.8668275],[2.3590425,48.8668297],[2.3589786,48.8668428],[2.3589218,48.8668543],[2.3589107,48.8668566],[2.3588467,48.86687],[2.3587835,48.8668833],[2.3587222,48.8668961],[2.358659,48.8669092],[2.3585981,48.8669218],[2.3585288,48.8669362],[2.3585352,48.8669476],[2.3584062,48.866976],[2.3583613,48.8669859],[2.3583439,48.8670112]]]},"id":"way/1082413406"},{"type":"Feature","properties":{"@id":"way/1123196389","area":"yes","footway":"sidewalk","highway":"footway","lit":"yes","noname":"yes","surface":"paving_stones","id":"way/1123196389"},"geometry":{"type":"Polygon","coordinates":[[[2.3585411,48.8673431],[2.3585781,48.8673568],[2.3586316,48.8673491],[2.3587582,48.8673308],[2.358862,48.8673159],[2.3589543,48.8673026],[2.3590509,48.8672883],[2.3591475,48.8672746],[2.3592501,48.8672598],[2.3593997,48.8672383],[2.3594768,48.867227],[2.3595567,48.8672153],[2.3596317,48.8672043],[2.359709,48.8671929],[2.3597738,48.8671837],[2.3598493,48.8671731],[2.3599293,48.8671615],[2.3599899,48.8671528],[2.3599906,48.867154],[2.359994,48.8671534],[2.3599972,48.867153],[2.3599968,48.8671512],[2.3600997,48.8671361],[2.360209,48.8671208],[2.3602092,48.8671224],[2.3602146,48.867122],[2.3603142,48.8671075],[2.3604493,48.8670885],[2.3605008,48.8670812],[2.3606276,48.8670631],[2.3607653,48.8670433],[2.3609059,48.8670232],[2.360991,48.8670103],[2.3611174,48.8669912],[2.3612183,48.8669778],[2.3613136,48.8669652],[2.3613133,48.8669637],[2.3613163,48.8669632],[2.3613202,48.8669626],[2.3614827,48.8669388],[2.3616975,48.8669075],[2.3617107,48.8669178],[2.3617233,48.8669267],[2.3603741,48.8671183],[2.3603681,48.8671199],[2.3603644,48.8671223],[2.360363,48.8671265],[2.3603617,48.867132],[2.3603597,48.8671351],[2.3603537,48.8671373],[2.3599548,48.8671947],[2.3599488,48.8671948],[2.3599446,48.8671937],[2.3599406,48.8671916],[2.3599372,48.8671868],[2.3599347,48.867184],[2.3599305,48.8671826],[2.3599259,48.8671825],[2.3589136,48.8673279],[2.3589016,48.8673459],[2.3586414,48.8673763],[2.3586045,48.8673806],[2.3585921,48.8673808],[2.3585824,48.867379],[2.3585383,48.8673636],[2.3585322,48.8673607],[2.3585271,48.8673568],[2.358523,48.8673526],[2.3585334,48.8673495],[2.3585411,48.8673431]]]},"id":"way/1123196389"},{"type":"Feature","properties":{"@id":"way/53793441","cycleway:both":"no","highway":"residential","lit":"yes","maxspeed":"30","name":"Rue Notre-Dame-de-Nazareth","oneway":"yes","oneway:bicycle":"no","service":"alley","sidewalk:both":"separate","smoothness":"good","source:maxspeed":"BMO Arrêté n o 2018 P 11503","surface":"asphalt","zone:maxspeed":"FR:30","id":"way/53793441"},"geometry":{"type":"LineString","coordinates":[[2.3619044,48.8668414],[2.3618726,48.8668899],[2.3618533,48.866915],[2.3618248,48.8669397],[2.3617804,48.8669563],[2.3590783,48.8673372],[2.3586471,48.8673929],[2.3585214,48.8674092],[2.3584211,48.8674275],[2.3580159,48.8675015],[2.3562832,48.8677467],[2.3551151,48.8679104],[2.3550421,48.8679183],[2.3549769,48.8679239]]},"id":"way/53793441"},{"type":"Feature","properties":{"@id":"way/1190148927","footway":"sidewalk","highway":"footway","lit":"yes","id":"way/1190148927"},"geometry":{"type":"LineString","coordinates":[[2.358334,48.8669678],[2.3583365,48.8669728],[2.3590001,48.8668325],[2.3594243,48.8667423],[2.3602947,48.8665569],[2.3603516,48.8665116],[2.3603013,48.8665071]]},"id":"way/1190148927"},{"type":"Feature","properties":{"@id":"way/1190148928","footway":"sidewalk","highway":"footway","lit":"yes","id":"way/1190148928"},"geometry":{"type":"LineString","coordinates":[[2.3601837,48.8664768],[2.360073,48.8665301],[2.3590763,48.8667432]]},"id":"way/1190148928"},{"type":"Feature","properties":{"@id":"way/1190381874","footway":"sidewalk","highway":"footway","lit":"yes","surface":"paving_stones","id":"way/1190381874"},"geometry":{"type":"LineString","coordinates":[[2.3586618,48.8674344],[2.3589019,48.8674006],[2.3594514,48.8673268],[2.3604784,48.8671781],[2.360527,48.8671711],[2.3610249,48.8671014]]},"id":"way/1190381874"},{"type":"Feature","properties":{"@id":"way/1190381916","footway":"sidewalk","highway":"footway","lit":"yes","surface":"paving_stones","id":"way/1190381916"},"geometry":{"type":"LineString","coordinates":[[2.358637,48.8673618],[2.3600683,48.8671532],[2.3603798,48.8671086],[2.3617107,48.8669178],[2.3617883,48.8668645],[2.3618155,48.8668728]]},"id":"way/1190381916"},{"type":"Feature","properties":{"@id":"way/1190381921","footway":"sidewalk","highway":"footway","lit":"yes","id":"way/1190381921"},"geometry":{"type":"LineString","coordinates":[[2.3583128,48.8669316],[2.3584446,48.8669031],[2.3589073,48.8668074],[2.3590763,48.8667432]]},"id":"way/1190381921"},{"type":"Feature","properties":{"@id":"node/4834548022","addr:city":"Paris","addr:housenumber":"32","addr:postcode":"75003","addr:street":"Rue Notre-Dame-de-Nazareth","amenity":"cafe","changing_table":"no","check_date":"2025-08-11","cuisine":"coffee","level":"0","name":"Anne Caron Le Café","opening_hours":"Tu-Sa 10:30-13:30, 14:30-19:00","outdoor_seating":"yes","phone":"+33 1 40 09 23 17","shop":"coffee","smoking":"outside","takeaway":"yes","toilets":"no","website":"https://www.cafecaron.com/torrefacteur-cafe-nous-contacter","wheelchair":"limited","id":"node/4834548022"},"geometry":{"type":"Point","coordinates":[2.3593076,48.8673934]},"id":"node/4834548022"},{"type":"Feature","properties":{"@id":"node/6722406685","addr:city":"Paris","addr:housenumber":"24","addr:postcode":"75003","addr:street":"Rue Notre-Dame-de-Nazareth","amenity":"bar","contact:phone":"+33 9 74 64 04 11","name":"L’Épicier","opening_hours":"Tu-Th 18:00-01:00; Fr-Sa 18:00-02:00","website":"https://www.lepicier.paris/","id":"node/6722406685"},"geometry":{"type":"Point","coordinates":[2.3599971,48.8672861]},"id":"node/6722406685"},{"type":"Feature","properties":{"@id":"node/6983462932","addr:city":"Paris","addr:housenumber":"30","addr:postcode":"75003","addr:street":"Rue Notre-Dame-de-Nazareth","amenity":"restaurant","check_date":"2025-06-02","check_date:opening_hours":"2024-12-23","name":"Elmer","opening_hours":"Tu-Fr 19:30-22:30, 12:15-14:15; Sa 19:00-22:45","opening_hours:signed":"no","phone":"+33 1 43 56 22 95","website":"https://elmer-restaurant.fr/","id":"node/6983462932"},"geometry":{"type":"Point","coordinates":[2.3595204,48.8673574]},"id":"node/6983462932"},{"type":"Feature","properties":{"@id":"node/6983537825","name":"Elmer - L'Épicerie","phone":"+33140098047","ref:FR:SIRET":"82991685700016","shop":"deli","website":"https://www.elmer-restaurant.fr/elmer-epicerie-cave-a-manger","id":"node/6983537825"},"geometry":{"type":"Point","coordinates":[2.3597267,48.8671683]},"id":"node/6983537825"},{"type":"Feature","properties":{"@id":"node/6987051315","shop":"hifi","id":"node/6987051315"},"geometry":{"type":"Point","coordinates":[2.3590868,48.8672548]},"id":"node/6987051315"},{"type":"Feature","properties":{"@id":"node/7069198186","check_date":"2024-12-23","name":"L'Atelier du Sourcil","shop":"beauty","id":"node/7069198186"},"geometry":{"type":"Point","coordinates":[2.3602455,48.8670864]},"id":"node/7069198186"},{"type":"Feature","properties":{"@id":"node/10222456821","addr:city":"Paris","addr:housenumber":"36","addr:postcode":"75003","addr:street":"Rue Notre-Dame-de-Nazareth","name":"Your flowers","shop":"yes","id":"node/10222456821"},"geometry":{"type":"Point","coordinates":[2.3590478,48.867428]},"id":"node/10222456821"},{"type":"Feature","properties":{"@id":"node/10222456822","addr:city":"Paris","addr:housenumber":"34","addr:postcode":"75003","addr:street":"Rue Notre-Dame-de-Nazareth","name":"Compil Store","opening_hours":"Tu-Sa 11:00-19:00; Su 12:00-19:00","second_hand":"only","shop":"clothes","id":"node/10222456822"},"geometry":{"type":"Point","coordinates":[2.3591188,48.8674178]},"id":"node/10222456822"},{"type":"Feature","properties":{"@id":"node/10222456825","shop":"vacant","id":"node/10222456825"},"geometry":{"type":"Point","coordinates":[2.3596425,48.8673362]},"id":"node/10222456825"},{"type":"Feature","properties":{"@id":"node/10222456827","addr:city":"Paris","addr:housenumber":"26","addr:postcode":"75003","addr:street":"Rue Notre-Dame-de-Nazareth","check_date":"2025-06-02","female:signed":"no","male:signed":"no","name":"Comptoir coiffure","opening_hours":"Tu,We,Fr 11:00-20:00; Th 11:00-21:00; Sa 10:00-20:00","phone":"+33 1 42 77 31 07","shop":"hairdresser","id":"node/10222456827"},"geometry":{"type":"Point","coordinates":[2.3598162,48.8673137]},"id":"node/10222456827"},{"type":"Feature","properties":{"@id":"node/10222456828","addr:city":"Paris","addr:housenumber":"26","addr:postcode":"75003","addr:street":"Rue Notre-Dame-de-Nazareth","check_date":"2025-06-02","description":"Concept Store \nEmerging Designers / High-End Fashion","name":"Isho Concept","opening_hours":"Tu-Sa 12:00-19:30 Su 13:00-19:00","phone":"+33982647470","shop":"clothes","id":"node/10222456828"},"geometry":{"type":"Point","coordinates":[2.3599061,48.8673014]},"id":"node/10222456828"},{"type":"Feature","properties":{"@id":"node/10222456830","check_date":"2025-08-11","name":"Lâm","shop":"pastry","id":"node/10222456830"},"geometry":{"type":"Point","coordinates":[2.3600737,48.8672745]},"id":"node/10222456830"},{"type":"Feature","properties":{"@id":"node/10222456831","addr:city":"Paris","addr:housenumber":"22","addr:postcode":"75003","addr:street":"Rue Notre-Dame-de-Nazareth","check_date":"2025-08-11","name":"Lechemiseur","opening_hours":"Mo-Fr 10:00-13:00,14:00-19:30; Sa 10:00-19:30; Su off","phone":"+33 1 84 17 30 35","shop":"clothes","website":"https://lechemiseur.fr","id":"node/10222456831"},"geometry":{"type":"Point","coordinates":[2.3601629,48.8672626]},"id":"node/10222456831"},{"type":"Feature","properties":{"@id":"node/10222456833","addr:city":"Paris","addr:housenumber":"22","addr:postcode":"75003","addr:street":"Rue Notre-Dame-de-Nazareth","check_date":"2025-08-11","name":"Alessio Pariggiano","opening_hours":"Mo-Sa 11:00-19:00","shop":"tattoo","id":"node/10222456833"},"geometry":{"type":"Point","coordinates":[2.3603024,48.8672423]},"id":"node/10222456833"},{"type":"Feature","properties":{"@id":"node/10272038772","addr:city":"Paris","addr:housenumber":"21","addr:postcode":"75003","addr:street":"Rue Notre-Dame de Nazareth","name":"Beaubien","phone":"+33 9 80 36 00 72","shop":"clothes","website":"https://beaubienstore.com/","id":"node/10272038772"},"geometry":{"type":"Point","coordinates":[2.3595814,48.8671819]},"id":"node/10272038772"},{"type":"Feature","properties":{"@id":"node/10289812612","name":"small","shop":"yes","survey:date":"2022-12-27","id":"node/10289812612"},"geometry":{"type":"Point","coordinates":[2.3597989,48.8671537]},"id":"node/10289812612"},{"type":"Feature","properties":{"@id":"node/10289812613","name":"Tailleur et retouches","shop":"tailor","id":"node/10289812613"},"geometry":{"type":"Point","coordinates":[2.3602924,48.8670811]},"id":"node/10289812613"},{"type":"Feature","properties":{"@id":"node/10289812713","addr:floor":"0","addr:housenumber":"17","addr:street":"Rue Notre-Dame-de-Nazareth","check_date":"2025-08-11","level":"0","name":"Bows & arrows","shop":"gift","survey:date":"2022-12-27","id":"node/10289812713"},"geometry":{"type":"Point","coordinates":[2.3598731,48.8671431]},"id":"node/10289812713"},{"type":"Feature","properties":{"@id":"node/10289812809","shop":"vacant","survey:date":"2022-12-27","id":"node/10289812809"},"geometry":{"type":"Point","coordinates":[2.3595056,48.867197]},"id":"node/10289812809"},{"type":"Feature","properties":{"@id":"node/10289812909","shop":"clothes","survey:date":"2022-12-27","id":"node/10289812909"},"geometry":{"type":"Point","coordinates":[2.3596592,48.8671709]},"id":"node/10289812909"},{"type":"Feature","properties":{"@id":"node/10289834512","name":"Winter Oddities","shop":"yes","survey:date":"2022-12-27","id":"node/10289834512"},"geometry":{"type":"Point","coordinates":[2.3589758,48.8672713]},"id":"node/10289834512"},{"type":"Feature","properties":{"@id":"node/10289834712","addr:housenumber":"25","addr:street":"Rue Notre-Dame-de-Nazareth","check_date":"2025-08-11","name":"La Bulle and Co","opening_hours":"Mo off; Tu-Th 11:00-19:00; Fr-Sa 11:00-20:00; Su 13:00-19:00","shop":"cosmetics","id":"node/10289834712"},"geometry":{"type":"Point","coordinates":[2.359304,48.8672193]},"id":"node/10289834712"},{"type":"Feature","properties":{"@id":"node/10973507706","natural":"tree","id":"node/10973507706"},"geometry":{"type":"Point","coordinates":[2.3602804,48.8671908]},"id":"node/10973507706"},{"type":"Feature","properties":{"@id":"node/10973507708","natural":"tree","id":"node/10973507708"},"geometry":{"type":"Point","coordinates":[2.3599434,48.867237]},"id":"node/10973507708"},{"type":"Feature","properties":{"@id":"node/10973507709","natural":"tree","id":"node/10973507709"},"geometry":{"type":"Point","coordinates":[2.359882,48.8672462]},"id":"node/10973507709"},{"type":"Feature","properties":{"@id":"node/10973507710","natural":"tree","id":"node/10973507710"},"geometry":{"type":"Point","coordinates":[2.359803,48.8672578]},"id":"node/10973507710"},{"type":"Feature","properties":{"@id":"node/10973507711","natural":"tree","id":"node/10973507711"},"geometry":{"type":"Point","coordinates":[2.3597118,48.8672705]},"id":"node/10973507711"},{"type":"Feature","properties":{"@id":"node/10973507712","natural":"tree","id":"node/10973507712"},"geometry":{"type":"Point","coordinates":[2.359617,48.8672855]},"id":"node/10973507712"},{"type":"Feature","properties":{"@id":"node/10973507713","natural":"tree","id":"node/10973507713"},"geometry":{"type":"Point","coordinates":[2.3595451,48.8672959]},"id":"node/10973507713"},{"type":"Feature","properties":{"@id":"node/10973507714","natural":"tree","id":"node/10973507714"},"geometry":{"type":"Point","coordinates":[2.3594415,48.867312]},"id":"node/10973507714"},{"type":"Feature","properties":{"@id":"node/10973507715","natural":"tree","id":"node/10973507715"},"geometry":{"type":"Point","coordinates":[2.3593503,48.8673247]},"id":"node/10973507715"},{"type":"Feature","properties":{"@id":"node/10973507716","natural":"tree","id":"node/10973507716"},"geometry":{"type":"Point","coordinates":[2.3592871,48.8673316]},"id":"node/10973507716"},{"type":"Feature","properties":{"@id":"node/10973507717","natural":"tree","id":"node/10973507717"},"geometry":{"type":"Point","coordinates":[2.3591993,48.867349]},"id":"node/10973507717"},{"type":"Feature","properties":{"@id":"node/10973507718","natural":"tree","id":"node/10973507718"},"geometry":{"type":"Point","coordinates":[2.3591274,48.8673582]},"id":"node/10973507718"},{"type":"Feature","properties":{"@id":"node/11554339022","addr:floor":"0","addr:housenumber":"4","addr:street":"Rue du Vertbois","check_date":"2025-06-02","level":"0","male":"yes","name":"Barbe À Bidou","shop":"hairdresser","id":"node/11554339022"},"geometry":{"type":"Point","coordinates":[2.3600308,48.8666455]},"id":"node/11554339022"},{"type":"Feature","properties":{"@id":"node/12891719044","check_date":"2025-06-06","shop":"vacant","id":"node/12891719044"},"geometry":{"type":"Point","coordinates":[2.3593714,48.8673656]},"id":"node/12891719044"},{"type":"Feature","properties":{"@id":"node/13243255059","name":"Vous Monsieur - Vous Madame","opening_hours":"Mo-Sa 10:00-20:00; Su 12:00-19:00","shop":"erotic","id":"node/13243255059"},"geometry":{"type":"Point","coordinates":[2.3590264,48.8668503]},"id":"node/13243255059"}]}