{"type":"FeatureCollection","features":[{"type":"Feature","properties":{"@id":"way/56456255","building":"apartments","building:levels":"7","source":"cadastre-dgi-fr source : Direction Générale des Impôts - Cadastre. Mise à jour : 2010","id":"way/56456255"},"geometry":{"type":"Polygon","coordinates":[[[2.3597212,48.8663839],[2.3596744,48.8664742],[2.3595248,48.866442],[2.3595347,48.8664223],[2.3595318,48.8664212],[2.35953,48.866423],[2.3595121,48.8664188],[2.3595087,48.8664272],[2.3594972,48.8664248],[2.3594922,48.866434],[2.359366,48.8664054],[2.3594173,48.8663138],[2.3595669,48.8663483],[2.3597212,48.8663839]]]},"id":"way/56456255"},{"type":"Feature","properties":{"@id":"way/56456256","building":"apartments","building:levels":"1","roof:levels":"0","source":"cadastre-dgi-fr source : Direction Générale des Impôts - Cadastre. Mise à jour : 2010","id":"way/56456256"},"geometry":{"type":"Polygon","coordinates":[[[2.3600978,48.8664539],[2.3600968,48.8664677],[2.3600095,48.8664488],[2.3600174,48.8664358],[2.3600978,48.8664539]]]},"id":"way/56456256"},{"type":"Feature","properties":{"@id":"way/56457503","building":"yes","building:levels":"4","source":"cadastre-dgi-fr source : Direction Générale des Impôts - Cadastre. Mise à jour : 2010","id":"way/56457503"},"geometry":{"type":"Polygon","coordinates":[[[2.3595806,48.8658834],[2.3596736,48.8658517],[2.3596948,48.8658443],[2.3597527,48.8659152],[2.3598131,48.8659861],[2.3596899,48.8660304],[2.3596565,48.8659877],[2.3595762,48.8658854],[2.3595806,48.8658834]]]},"id":"way/56457503"},{"type":"Feature","properties":{"@id":"way/56457513","building":"yes","building:levels":"5","source":"cadastre-dgi-fr source : Direction Générale des Impôts - Cadastre. Mise à jour : 2010","id":"way/56457513"},"geometry":{"type":"Polygon","coordinates":[[[2.3596899,48.8660304],[2.3598131,48.8659861],[2.3598278,48.8660035],[2.3598509,48.8660297],[2.3598202,48.8660397],[2.3598341,48.8660557],[2.3597363,48.8660891],[2.3597003,48.8660436],[2.3596899,48.8660304]]]},"id":"way/56457513"},{"type":"Feature","properties":{"@id":"way/56457516","building":"school","building:levels":"3","roof:levels":"0","source":"cadastre-dgi-fr source : Direction Générale des Impôts - Cadastre. Mise à jour : 2010","id":"way/56457516"},"geometry":{"type":"Polygon","coordinates":[[[2.3597363,48.8660891],[2.3598341,48.8660557],[2.3598653,48.8660467],[2.3598509,48.8660297],[2.3598278,48.8660035],[2.3599485,48.8659634],[2.3599713,48.8659936],[2.3598816,48.8660214],[2.3598764,48.8660302],[2.3598839,48.8660409],[2.3598883,48.8660398],[2.3599046,48.8660629],[2.3600003,48.8660321],[2.3600229,48.8660616],[2.3600257,48.8660615],[2.3600354,48.8660725],[2.3600738,48.8661262],[2.3599787,48.8661587],[2.3599978,48.8661807],[2.3600232,48.8661856],[2.3600311,48.866169],[2.3600613,48.8661757],[2.360055,48.8661918],[2.3600792,48.8661967],[2.360098,48.8661591],[2.3601483,48.8661704],[2.3601384,48.86619],[2.3601501,48.866193],[2.3601467,48.8662013],[2.3601342,48.8661988],[2.3601302,48.8662076],[2.3601359,48.8662089],[2.3601412,48.8662167],[2.3601334,48.8662356],[2.3601296,48.8662355],[2.3601203,48.8662403],[2.3601143,48.8662398],[2.3600981,48.8662788],[2.3600294,48.8662629],[2.3600097,48.8662584],[2.3599428,48.866243],[2.3598374,48.8662186],[2.3598292,48.8662081],[2.3597829,48.8661488],[2.3597363,48.8660891]]]},"id":"way/56457516"},{"type":"Feature","properties":{"@id":"way/56457517","building":"apartments","source":"cadastre-dgi-fr source : Direction Générale des Impôts - Cadastre. Mise à jour : 2010","id":"way/56457517"},"geometry":{"type":"Polygon","coordinates":[[[2.3606067,48.8658794],[2.3606301,48.8659139],[2.3606251,48.8659179],[2.360651,48.8659503],[2.3602807,48.8660691],[2.3602521,48.8660828],[2.3602245,48.8660996],[2.3602046,48.8661206],[2.3601322,48.866124],[2.3600821,48.8660568],[2.3600354,48.8660725],[2.3600257,48.8660615],[2.3606067,48.8658794]]]},"id":"way/56457517"},{"type":"Feature","properties":{"@id":"way/56460871","building":"yes","building:levels":"6","source":"cadastre-dgi-fr source : Direction Générale des Impôts - Cadastre. Mise à jour : 2010","id":"way/56460871"},"geometry":{"type":"Polygon","coordinates":[[[2.3593424,48.8657739],[2.3592187,48.8658091],[2.3591966,48.8657783],[2.359168,48.8657841],[2.3591773,48.8658065],[2.3591893,48.8658045],[2.3591932,48.8658161],[2.3591158,48.8658391],[2.3590912,48.8658091],[2.3590186,48.8657178],[2.359155,48.8656928],[2.3592381,48.8656776],[2.3592773,48.8656885],[2.3593039,48.8657235],[2.3593424,48.8657739]]]},"id":"way/56460871"},{"type":"Feature","properties":{"@id":"way/56460872","building":"apartments","source":"cadastre-dgi-fr source : Direction Générale des Impôts - Cadastre. Mise à jour : 2010","id":"way/56460872"},"geometry":{"type":"Polygon","coordinates":[[[2.3594227,48.8658783],[2.3592834,48.8659164],[2.359235,48.8658521],[2.3592382,48.8658492],[2.3592103,48.8658115],[2.3592187,48.8658091],[2.3593424,48.8657739],[2.3593803,48.8658231],[2.3594227,48.8658783]]]},"id":"way/56460872"},{"type":"Feature","properties":{"@id":"way/56460875","building":"apartments","building:levels":"7","source":"cadastre-dgi-fr source : Direction Générale des Impôts - Cadastre. Mise à jour : 2010","id":"way/56460875"},"geometry":{"type":"Polygon","coordinates":[[[2.3589793,48.8660235],[2.3590736,48.8658457],[2.3590826,48.8658479],[2.3591158,48.8658391],[2.3591956,48.8659406],[2.3591343,48.8660588],[2.358992,48.8660264],[2.3589793,48.8660235]]]},"id":"way/56460875"},{"type":"Feature","properties":{"@id":"way/1014469302","area":"yes","footway":"sidewalk","highway":"footway","lit":"yes","surface":"paving_stones","id":"way/1014469302"},"geometry":{"type":"Polygon","coordinates":[[[2.358138,48.8660224],[2.3581343,48.8660012],[2.3581288,48.8659702],[2.3581455,48.8659684],[2.3581774,48.8659726],[2.3582429,48.8659875],[2.360185,48.8664285],[2.3602061,48.866438],[2.3602206,48.8664529],[2.3602246,48.8664695],[2.3602232,48.8664799],[2.3602187,48.8664877],[2.3600965,48.8664918],[2.3600968,48.8664677],[2.3600978,48.8664539],[2.3600174,48.8664358],[2.3600095,48.8664488],[2.3598843,48.8664206],[2.3597212,48.8663839],[2.3595669,48.8663483],[2.3594173,48.8663138],[2.3589366,48.8662041],[2.3588634,48.8661875],[2.3587954,48.8661721],[2.358277,48.8660545],[2.3581902,48.8660348],[2.358138,48.8660224]]]},"id":"way/1014469302"},{"type":"Feature","properties":{"@id":"way/8058931","cycleway:both":"no","highway":"residential","lit":"yes","maxspeed":"30","maxspeed:type":"FR:zone30","name":"Rue du Vertbois","name:etymology:wikidata":"Q3241565","oneway":"yes","oneway:bicycle":"no","sidewalk":"separate","smoothness":"good","source:maxspeed":"BMO Arrêté n o 2018 P 11503","surface":"asphalt","zone:maxspeed":"FR:30","id":"way/8058931"},"geometry":{"type":"LineString","coordinates":[[2.3577465,48.8670776],[2.35781,48.8670636],[2.3582159,48.8669738],[2.3582667,48.8669626],[2.3583244,48.8669499],[2.3602119,48.8665456],[2.3602326,48.8665357],[2.3602419,48.8665263],[2.3602482,48.8665173],[2.3602619,48.8664978],[2.360296,48.8664388]]},"id":"way/8058931"},{"type":"Feature","properties":{"@id":"way/16877197","highway":"residential","lit":"yes","maxspeed":"30","name":"Rue Sainte-Élisabeth","oneway":"yes","oneway:bicycle":"no","service":"alley","sidewalk:both":"separate","source:maxspeed":"BMO Arrêté n o 2018 P 11503","surface":"asphalt","zone:maxspeed":"FR:30","id":"way/16877197"},"geometry":{"type":"LineString","coordinates":[[2.3598087,48.8663266],[2.3597837,48.8662759],[2.3597551,48.8662234],[2.3593498,48.8656623],[2.3593192,48.86562]]},"id":"way/16877197"},{"type":"Feature","properties":{"@id":"way/661091204","bicycle:backward":"use_sidepath","highway":"secondary","lanes":"1","lit":"yes","maxspeed":"30","name":"Rue de Turbigo","name:zh":"图尔比戈路","oneway":"yes","sidewalk":"separate","smoothness":"good","source:maxspeed":"BMO Arrêté n o 2018 P 11503","surface":"asphalt","zone:maxspeed":"FR:30","id":"way/661091204"},"geometry":{"type":"LineString","coordinates":[[2.3619044,48.8668414],[2.361609,48.8667488],[2.3615716,48.866738],[2.3615419,48.8667295],[2.3610824,48.8666124],[2.3604788,48.8664757],[2.3604358,48.866466],[2.3603719,48.866454],[2.360296,48.8664388],[2.360208,48.8664173]]},"id":"way/661091204"},{"type":"Feature","properties":{"@id":"way/670427268","bicycle:backward":"use_sidepath","highway":"secondary","lanes":"2","lit":"yes","maxspeed":"30","name":"Rue de Turbigo","name:etymology:wikidata":"Q698440","name:zh":"图尔比戈路","oneway":"yes","sidewalk:both":"separate","source:maxspeed":"BMO Arrêté n o 2018 P 11503","surface":"asphalt","zone:maxspeed":"FR:30","id":"way/670427268"},"geometry":{"type":"LineString","coordinates":[[2.360208,48.8664173],[2.3598087,48.8663266],[2.3582558,48.8659637],[2.3580911,48.8659249],[2.3577762,48.8658535],[2.3575338,48.8657981],[2.3574373,48.8657759],[2.3570654,48.8656931],[2.3568813,48.8656544],[2.3567725,48.865631],[2.3564547,48.865557],[2.3564227,48.8655491],[2.356392,48.865541],[2.3561675,48.8654869],[2.3560623,48.8654632]]},"id":"way/670427268"},{"type":"Feature","properties":{"@id":"way/701110201","cycleway":"on_street","foot":"no","highway":"cycleway","lit":"yes","name":"Rue de Turbigo","name:etymology:wikidata":"Q698440","name:zh":"图尔比戈路","oneway":"no","sidewalk":"separate","smoothness":"good","start_date":"2019-07","surface":"asphalt","width":"3.2","id":"way/701110201"},"geometry":{"type":"LineString","coordinates":[[2.3619265,48.8668091],[2.3617593,48.8667626],[2.3615548,48.8667098],[2.3612867,48.8666377],[2.3604508,48.8664323],[2.3603856,48.866417],[2.3603148,48.8664002],[2.3597837,48.8662759],[2.3582777,48.8659234],[2.3581249,48.865887],[2.3575585,48.8657585],[2.3574567,48.8657354],[2.3570874,48.8656516],[2.3569053,48.8656103],[2.3567934,48.8655849],[2.356417,48.8654995],[2.3562667,48.8654654],[2.3562441,48.8654588]]},"id":"way/701110201"},{"type":"Feature","properties":{"@id":"way/1014469301","crossing":"traffic_signals","crossing:markings":"yes","footway":"crossing","highway":"footway","lit":"yes","smoothness":"good","surface":"asphalt","traffic_signals:sound":"yes","id":"way/1014469301"},"geometry":{"type":"LineString","coordinates":[[2.3602187,48.8664877],[2.3602619,48.8664978],[2.3603013,48.8665071]]},"id":"way/1014469301"},{"type":"Feature","properties":{"@id":"way/1148292434","crossing":"uncontrolled","crossing:markings":"zebra","crossing:signals":"no","footway":"crossing","highway":"footway","lit":"yes","smoothness":"good","surface":"asphalt","id":"way/1148292434"},"geometry":{"type":"LineString","coordinates":[[2.3596277,48.8661954],[2.3597551,48.8662234],[2.3598075,48.8662352]]},"id":"way/1148292434"},{"type":"Feature","properties":{"@id":"way/1190148927","footway":"sidewalk","highway":"footway","lit":"yes","id":"way/1190148927"},"geometry":{"type":"LineString","coordinates":[[2.358334,48.8669678],[2.3583365,48.8669728],[2.3590001,48.8668325],[2.3594243,48.8667423],[2.3602947,48.8665569],[2.3603516,48.8665116],[2.3603013,48.8665071]]},"id":"way/1190148927"},{"type":"Feature","properties":{"@id":"way/1190148928","footway":"sidewalk","highway":"footway","lit":"yes","id":"way/1190148928"},"geometry":{"type":"LineString","coordinates":[[2.3601837,48.8664768],[2.360073,48.8665301],[2.3590763,48.8667432]]},"id":"way/1190148928"},{"type":"Feature","properties":{"@id":"way/1190148929","footway":"sidewalk","highway":"footway","lit":"yes","smoothness":"good","surface":"asphalt","id":"way/1190148929"},"geometry":{"type":"LineString","coordinates":[[2.3582283,48.8660185],[2.3601696,48.8664545],[2.3601837,48.8664768],[2.3602187,48.8664877]]},"id":"way/1190148929"},{"type":"Feature","properties":{"@id":"way/1190148988","footway":"sidewalk","highway":"footway","lit":"yes","smoothness":"good","surface":"asphalt","id":"way/1190148988"},"geometry":{"type":"LineString","coordinates":[[2.3595966,48.8661885],[2.3582934,48.8658934],[2.3582545,48.8658807]]},"id":"way/1190148988"},{"type":"Feature","properties":{"@id":"way/1190148989","footway":"sidewalk","highway":"footway","id":"way/1190148989"},"geometry":{"type":"LineString","coordinates":[[2.3592811,48.8656758],[2.3596372,48.8661365],[2.3595966,48.8661885],[2.3596277,48.8661954]]},"id":"way/1190148989"},{"type":"Feature","properties":{"@id":"way/1190148993","footway":"sidewalk","highway":"footway","id":"way/1190148993"},"geometry":{"type":"LineString","coordinates":[[2.3598404,48.8662421],[2.3593941,48.8656532],[2.3593889,48.8656547]]},"id":"way/1190148993"},{"type":"Feature","properties":{"@id":"way/1190148994","footway":"sidewalk","highway":"footway","lit":"yes","surface":"asphalt","id":"way/1190148994"},"geometry":{"type":"LineString","coordinates":[[2.3604693,48.8663888],[2.3604078,48.866375],[2.3598404,48.8662421],[2.3598075,48.8662352]]},"id":"way/1190148994"},{"type":"Feature","properties":{"@id":"way/1333235236","cycleway":"crossing","highway":"cycleway","lit":"yes","maxspeed":"30","maxspeed:type":"FR:zone30","name":"Rue du Vertbois","name:etymology:wikidata":"Q3241565","oneway:bicycle":"no","smoothness":"good","source:maxspeed":"BMO Arrêté n o 2018 P 11503","surface":"asphalt","zone:maxspeed":"FR:30","id":"way/1333235236"},"geometry":{"type":"LineString","coordinates":[[2.360296,48.8664388],[2.3603148,48.8664002]]},"id":"way/1333235236"},{"type":"Feature","properties":{"@id":"node/175036928","highway":"traffic_signals","traffic_signals":"signal","traffic_signals:direction":"forward","id":"node/175036928"},"geometry":{"type":"Point","coordinates":[2.3602482,48.8665173]},"id":"node/175036928"},{"type":"Feature","properties":{"@id":"node/707765139","addr:city":"Paris","addr:housenumber":"75","addr:postcode":"75003","addr:street":"Rue de Turbigo","amenity":"cafe","check_date":"2025-06-02","indoor_seating":"yes","name":"La Favorite","name:fr":"La Favorite","outdoor_seating":"yes","phone":"+33 1 42 71 80 53","smoking":"outside","wheelchair":"limited","id":"node/707765139"},"geometry":{"type":"Point","coordinates":[2.3599974,48.8664945]},"id":"node/707765139"},{"type":"Feature","properties":{"@id":"node/707922549","addr:housenumber":"70","addr:postcode":"75003","addr:street":"Rue de Turbigo","amenity":"restaurant","check_date":"2025-06-02","cuisine":"italian;pizza","food":"pizza","indoor_seating":"yes","name":"La Massara","outdoor_seating":"yes","phone":"+33 1 42 74 13 94","smoking":"no","source":"cadastre-dgi-fr source : Direction Générale des Impôts - Cadastre. Mise à jour : 2010","website":"https://www.la-massara.fr/","wheelchair":"limited","id":"node/707922549"},"geometry":{"type":"Point","coordinates":[2.3595353,48.866114]},"id":"node/707922549"},{"type":"Feature","properties":{"@id":"node/5275610298","addr:floor":"0","addr:housenumber":"70","addr:street":"Rue de Turbigo","brand":"Brighton Collectibles","brand:wikidata":"Q4967623","brand:wikipedia":"en:Brighton Collectibles","check_date":"2025-06-02","level":"0","name":"Brighton","shop":"clothes","wheelchair":"limited","id":"node/5275610298"},"geometry":{"type":"Point","coordinates":[2.3593929,48.866091]},"id":"node/5275610298"},{"type":"Feature","properties":{"@id":"node/5275610306","bicycle:rental":"yes","bicycle:repair":"yes","check_date":"2024-01-26","contact:phone":"+33 1 44 93 95 85","email":"hirondelle.republique@beastybike.com","name":"L'hirondelle","opening_hours":"Tu-Sa 11:00-19:30","shop":"bicycle","website":"https://www.beastybike.com/","id":"node/5275610306"},"geometry":{"type":"Point","coordinates":[2.3596637,48.8663924]},"id":"node/5275610306"},{"type":"Feature","properties":{"@id":"node/6389571744","amenity":"bicycle_rental","bicycle_rental":"docking_station","brand":"Vélib' Métropole","brand:wikidata":"Q1120762","brand:wikipedia":"fr:Vélib' Métropole","capacity":"33","name":"Sainte-Elisabeth - Turbigo","network":"Vélib' Métropole","network:wikidata":"Q1120762","network:wikipedia":"fr:Vélib' Métropole","operator":"Smovengo","operator:type":"private","operator:wikidata":"Q47008427","operator:wikipedia":"fr:Smovengo","ref":"3005","source":"Autolib Velib Métropole - 04/2020","wikidata":"Q86255129","id":"node/6389571744"},"geometry":{"type":"Point","coordinates":[2.3596278,48.8660926]},"id":"node/6389571744"},{"type":"Feature","properties":{"@id":"node/6847905686","addr:housenumber":"75","addr:street":"Rue de Turbigo","amenity":"restaurant","breakfast:brunch":"Su","check_date":"2026-02-08","check_date:opening_hours":"2026-02-08","cuisine":"italian","indoor_seating":"yes","name":"Pastificio Norma","opening_hours:signed":"no","outdoor_seating":"yes","payment:mastercard":"yes","payment:visa":"yes","smoking":"outside","wheelchair":"no","id":"node/6847905686"},"geometry":{"type":"Point","coordinates":[2.3597831,48.8664318]},"id":"node/6847905686"},{"type":"Feature","properties":{"@id":"node/7923610538","addr:floor":"0","addr:housenumber":"73","addr:street":"Rue de Turbigo","beauty":"cosmetics","brand":"Body Minute","brand:wikidata":"Q104972220","check_date":"2025-07-08","level":"0","name":"Body Minute","opening_hours":"Tu-Sa 10:00-18:00","phone":"+33 1 42 78 25 99","shop":"beauty","wheelchair":"yes","id":"node/7923610538"},"geometry":{"type":"Point","coordinates":[2.3594924,48.8663629]},"id":"node/7923610538"},{"type":"Feature","properties":{"@id":"node/7923610587","addr:floor":"0","addr:housenumber":"73","addr:street":"Rue de Turbigo","check_date":"2025-06-02","check_date:opening_hours":"2025-03-04","female":"yes","level":"0","male":"yes","name":"EM","opening_hours":"Tu-Fr 10:00-19:00; Sa 10:00-18:00","shop":"hairdresser","wheelchair":"yes","id":"node/7923610587"},"geometry":{"type":"Point","coordinates":[2.3595921,48.8663812]},"id":"node/7923610587"},{"type":"Feature","properties":{"@id":"node/9382417952","addr:floor":"0","addr:housenumber":"68","addr:street":"Rue de Turbigo","check_date":"2025-06-02","level":"0","name":"Brighton","shop":"clothes","wheelchair":"yes","id":"node/9382417952"},"geometry":{"type":"Point","coordinates":[2.3590806,48.8660222]},"id":"node/9382417952"},{"type":"Feature","properties":{"@id":"node/9920034718","addr:floor":"0","addr:housenumber":"4","addr:street":"Rue du Vertbois","amenity":"restaurant","check_date":"2025-06-02","cuisine":"vietnamese","level":"0","name":"Lo Af","wheelchair":"limited","id":"node/9920034718"},"geometry":{"type":"Point","coordinates":[2.3601193,48.8666212]},"id":"node/9920034718"},{"type":"Feature","properties":{"@id":"node/10973438982","natural":"tree","id":"node/10973438982"},"geometry":{"type":"Point","coordinates":[2.3590157,48.8661719]},"id":"node/10973438982"},{"type":"Feature","properties":{"@id":"node/10973438983","natural":"tree","id":"node/10973438983"},"geometry":{"type":"Point","coordinates":[2.3591004,48.8661912]},"id":"node/10973438983"},{"type":"Feature","properties":{"@id":"node/10973438984","natural":"tree","id":"node/10973438984"},"geometry":{"type":"Point","coordinates":[2.3592229,48.866217]},"id":"node/10973438984"},{"type":"Feature","properties":{"@id":"node/10973438985","natural":"tree","id":"node/10973438985"},"geometry":{"type":"Point","coordinates":[2.3593251,48.8662409]},"id":"node/10973438985"},{"type":"Feature","properties":{"@id":"node/10973438986","natural":"tree","id":"node/10973438986"},"geometry":{"type":"Point","coordinates":[2.3594303,48.8662639]},"id":"node/10973438986"},{"type":"Feature","properties":{"@id":"node/10973438987","natural":"tree","id":"node/10973438987"},"geometry":{"type":"Point","coordinates":[2.3595203,48.8662862]},"id":"node/10973438987"},{"type":"Feature","properties":{"@id":"node/10973438988","natural":"tree","id":"node/10973438988"},"geometry":{"type":"Point","coordinates":[2.3596206,48.8663108]},"id":"node/10973438988"},{"type":"Feature","properties":{"@id":"node/10973438989","natural":"tree","id":"node/10973438989"},"geometry":{"type":"Point","coordinates":[2.359731,48.8663361]},"id":"node/10973438989"},{"type":"Feature","properties":{"@id":"node/10973438990","natural":"tree","id":"node/10973438990"},"geometry":{"type":"Point","coordinates":[2.360039,48.8664076]},"id":"node/10973438990"},{"type":"Feature","properties":{"@id":"node/10973438991","natural":"tree","id":"node/10973438991"},"geometry":{"type":"Point","coordinates":[2.3599733,48.8663942]},"id":"node/10973438991"},{"type":"Feature","properties":{"@id":"node/10973438992","amenity":"bicycle_rental","bicycle_rental":"docking_station","brand":"Vélib' Métropole","brand:wikidata":"Q1120762","brand:wikipedia":"fr:Vélib' Métropole","capacity":"33","name":"Sainte-Elisabeth - Turbigo","network":"Vélib' Métropole","network:wikidata":"Q1120762","network:wikipedia":"fr:Vélib' Métropole","note":"2ème partie de la station","operator":"Smovengo","operator:type":"private","operator:wikidata":"Q47008427","operator:wikipedia":"fr:Smovengo","ref":"3005","source":"Autolib Velib Métropole - 04/2020","wikidata":"Q86255129","id":"node/10973438992"},"geometry":{"type":"Point","coordinates":[2.3598295,48.8663528]},"id":"node/10973438992"},{"type":"Feature","properties":{"@id":"node/10973438993","natural":"tree","id":"node/10973438993"},"geometry":{"type":"Point","coordinates":[2.3601383,48.8664314]},"id":"node/10973438993"}]}