{"type":"FeatureCollection","features":[{"type":"Feature","properties":{"@id":"way/63638134","building":"apartments","building:levels":"5","roof:levels":"1","source":"cadastre-dgi-fr source : Direction Générale des Impôts - Cadastre. Mise à jour : 2010","id":"way/63638134"},"geometry":{"type":"Polygon","coordinates":[[[2.3777357,48.8661153],[2.3778193,48.866],[2.3779379,48.8660372],[2.3779734,48.8659942],[2.3779903,48.8659882],[2.3779975,48.8659788],[2.3778812,48.8659509],[2.3778681,48.8659697],[2.3778461,48.8659635],[2.3779285,48.86585],[2.3780304,48.8658741],[2.3781073,48.8658922],[2.3778823,48.8661622],[2.3777357,48.8661153]]]},"id":"way/63638134"},{"type":"Feature","properties":{"@id":"way/63638438","building":"apartments","building:levels":"7","source":"cadastre-dgi-fr source : Direction Générale des Impôts - Cadastre. Mise à jour : 2010","id":"way/63638438"},"geometry":{"type":"Polygon","coordinates":[[[2.376985,48.8659327],[2.376862,48.8658802],[2.3766115,48.865824],[2.3765837,48.8658178],[2.3765984,48.8657864],[2.376626,48.8657343],[2.3766347,48.8657179],[2.3767976,48.8657553],[2.3768283,48.8657625],[2.3770808,48.8658215],[2.3770501,48.8658571],[2.376985,48.8659327]]]},"id":"way/63638438"},{"type":"Feature","properties":{"@id":"way/63638495","building":"yes","building:levels":"7","source":"cadastre-dgi-fr source : Direction Générale des Impôts - Cadastre. Mise à jour : 2010","id":"way/63638495"},"geometry":{"type":"Polygon","coordinates":[[[2.3776486,48.8662351],[2.3776951,48.8661709],[2.3778359,48.8662176],[2.377787,48.8662764],[2.377777,48.8662737],[2.3776486,48.8662351]]]},"id":"way/63638495"},{"type":"Feature","properties":{"@id":"way/63638705","building":"apartments","building:levels":"11","source":"cadastre-dgi-fr source : Direction Générale des Impôts - Cadastre. Mise à jour : 2010","id":"way/63638705"},"geometry":{"type":"Polygon","coordinates":[[[2.3770892,48.8664123],[2.3771027,48.866397],[2.3771299,48.8663663],[2.3771568,48.8663358],[2.3771917,48.8662968],[2.3772829,48.866193],[2.3773213,48.8661492],[2.3772139,48.8661194],[2.3771781,48.8661092],[2.3771459,48.8660975],[2.3771654,48.866074],[2.3772832,48.8659369],[2.3773312,48.8658818],[2.3774345,48.8658569],[2.3777079,48.8659231],[2.3776059,48.8660551],[2.377501,48.8661908],[2.3776451,48.8662357],[2.3776486,48.8662351],[2.377777,48.8662737],[2.3777183,48.866349],[2.3777157,48.8663489],[2.3776871,48.8663862],[2.3775542,48.8665545],[2.3770892,48.8664123]]]},"id":"way/63638705"},{"type":"Feature","properties":{"@id":"way/63639847","building":"office","building:levels":"4","roof:levels":"2","roof:shape":"gabled","source":"cadastre-dgi-fr source : Direction Générale des Impôts - Cadastre. Mise à jour : 2010","id":"way/63639847"},"geometry":{"type":"Polygon","coordinates":[[[2.3768929,48.8660399],[2.3767546,48.8660042],[2.376723,48.8659961],[2.3766736,48.8659831],[2.3766708,48.8659824],[2.3765213,48.8659427],[2.376542,48.8659014],[2.3765837,48.8658178],[2.3766115,48.865824],[2.376862,48.8658802],[2.376985,48.8659327],[2.3769688,48.8659515],[2.3769087,48.8660215],[2.3768929,48.8660399]]]},"id":"way/63639847"},{"type":"Feature","properties":{"@id":"way/63643085","building":"apartments","building:levels":"7","source":"cadastre-dgi-fr source : Direction Générale des Impôts - Cadastre. Mise à jour : 2010","id":"way/63643085"},"geometry":{"type":"Polygon","coordinates":[[[2.3767435,48.866213],[2.3765879,48.8661552],[2.376723,48.8659961],[2.3767546,48.8660042],[2.3768929,48.8660399],[2.3768203,48.866124],[2.3767435,48.866213]]]},"id":"way/63643085"},{"type":"Feature","properties":{"@id":"way/63646348","building":"retail","building:levels":"2","roof:shape":"saltbox","source":"cadastre-dgi-fr source : Direction Générale des Impôts - Cadastre. Mise à jour : 2010","id":"way/63646348"},"geometry":{"type":"Polygon","coordinates":[[[2.3776951,48.8661709],[2.3776486,48.8662351],[2.3776451,48.8662357],[2.377501,48.8661908],[2.3776059,48.8660551],[2.3777079,48.8659231],[2.3777894,48.865817],[2.3779133,48.8658464],[2.3779285,48.86585],[2.3778461,48.8659635],[2.3778193,48.866],[2.3777357,48.8661153],[2.3776951,48.8661709]]]},"id":"way/63646348"},{"type":"Feature","properties":{"@id":"way/63649294","architect":"Frédéric Borel","building":"apartments","building:levels":"7","source":"cadastre-dgi-fr source : Direction Générale des Impôts - Cadastre. Mise à jour : 2010","start_date":"1993","year_of_construction":"1990..1993","id":"way/63649294"},"geometry":{"type":"Polygon","coordinates":[[[2.3776602,48.8665862],[2.3775542,48.8665545],[2.3776871,48.8663862],[2.3777661,48.8664117],[2.3777945,48.8663757],[2.3777183,48.866349],[2.377777,48.8662737],[2.377787,48.8662764],[2.3778359,48.8662176],[2.3778823,48.8661622],[2.3781073,48.8658922],[2.3781557,48.8659039],[2.3782984,48.8659374],[2.3783467,48.865949],[2.3783736,48.8659555],[2.3783021,48.8660426],[2.3783004,48.8660446],[2.3778124,48.8666335],[2.3776602,48.8665862]]]},"id":"way/63649294"},{"type":"Feature","properties":{"@id":"way/113860701","area":"yes","highway":"footway","lit":"yes","noname":"yes","smoothness":"excellent","surface":"paving_stones","id":"way/113860701"},"geometry":{"type":"Polygon","coordinates":[[[2.3777894,48.865817],[2.3777079,48.8659231],[2.3774345,48.8658569],[2.3773312,48.8658818],[2.3772832,48.8659369],[2.3771654,48.866074],[2.3771459,48.8660975],[2.377073,48.8660709],[2.3770533,48.8660591],[2.3772983,48.865763],[2.377277,48.8657549],[2.3773107,48.8657148],[2.3773196,48.8657051],[2.3773252,48.8657006],[2.3773311,48.8656971],[2.3773381,48.865694],[2.3773493,48.8656912],[2.3773603,48.8656899],[2.3773695,48.8656902],[2.3773796,48.865692],[2.3773981,48.865696],[2.3778045,48.8657908],[2.3777956,48.8658062],[2.3777894,48.865817]]]},"id":"way/113860701"},{"type":"Feature","properties":{"@id":"way/1121685122","building":"retail","building:levels":"1","was:shop":"kiosk","id":"way/1121685122"},"geometry":{"type":"Polygon","coordinates":[[[2.3772332,48.8658581],[2.3772553,48.8658332],[2.3772769,48.8658415],[2.3772548,48.8658664],[2.3772332,48.8658581]]]},"id":"way/1121685122"},{"type":"Feature","properties":{"@id":"way/8119350","cycleway:right":"no","highway":"tertiary","lane_markings":"no","lit":"yes","maxspeed":"30","name":"Rue Oberkampf","name:etymology:wikidata":"Q74518","oneway":"yes","sidewalk:both":"separate","smoothness":"good","surface":"asphalt","id":"way/8119350"},"geometry":{"type":"LineString","coordinates":[[2.3751778,48.8651468],[2.3753095,48.8651757],[2.375432,48.865208],[2.3757895,48.8652948],[2.3772243,48.8656357],[2.3773308,48.8656609],[2.3774082,48.8656793],[2.3780126,48.8658228],[2.378537,48.8659474],[2.3791913,48.8661028],[2.3792661,48.8661205],[2.3793595,48.8661427],[2.3795622,48.8661909],[2.3800622,48.8663097],[2.3802491,48.866354],[2.3804832,48.8664096]]},"id":"way/8119350"},{"type":"Feature","properties":{"@id":"way/114720996","access":"private","highway":"footway","name":"Cité de l'Industrie","id":"way/114720996"},"geometry":{"type":"LineString","coordinates":[[2.3780497,48.8657522],[2.3780439,48.8657634],[2.3780378,48.8657751],[2.3780126,48.8658228]]},"id":"way/114720996"},{"type":"Feature","properties":{"@id":"way/114720998","access":"private","highway":"footway","name":"Cité de l'Industrie","tunnel":"building_passage","id":"way/114720998"},"geometry":{"type":"LineString","coordinates":[[2.3780998,48.8656554],[2.3780497,48.8657522]]},"id":"way/114720998"},{"type":"Feature","properties":{"@id":"way/1188662511","footway":"sidewalk","highway":"footway","lit":"yes","smoothness":"good","surface":"asphalt","id":"way/1188662511"},"geometry":{"type":"LineString","coordinates":[[2.3810879,48.8641407],[2.3804491,48.8642542],[2.3803917,48.8642534],[2.3795955,48.8644115],[2.3782974,48.8646586],[2.3780655,48.8647014],[2.3780194,48.8647343],[2.3779597,48.8648475],[2.3778385,48.8650229],[2.3776868,48.8652617],[2.3776742,48.8653061],[2.3775854,48.8654392],[2.3775263,48.8654908],[2.3774445,48.865622],[2.3775017,48.8656369],[2.3780439,48.8657634],[2.3785618,48.8658836]]},"id":"way/1188662511"},{"type":"Feature","properties":{"@id":"way/1188677357","footway":"sidewalk","highway":"footway","lit":"yes","smoothness":"good","surface":"asphalt","id":"way/1188677357"},"geometry":{"type":"LineString","coordinates":[[2.3749119,48.8663063],[2.3745942,48.8669011],[2.3746101,48.8669092],[2.375133,48.8670461],[2.3754238,48.8671227],[2.3758465,48.8672319],[2.3758688,48.867227],[2.3758911,48.8672215],[2.3763954,48.8666447],[2.3765189,48.8664996],[2.3765242,48.8664929],[2.3765823,48.8664192],[2.3770808,48.8658456],[2.377109,48.8658289],[2.3772371,48.8656918],[2.3772359,48.8656775],[2.3772247,48.8656695],[2.3772095,48.8656646],[2.3753411,48.8652372]]},"id":"way/1188677357"},{"type":"Feature","properties":{"@id":"way/1191762166","footway":"sidewalk","highway":"footway","lit":"yes","smoothness":"excellent","surface":"paving_stones","id":"way/1191762166"},"geometry":{"type":"LineString","coordinates":[[2.3770533,48.8660591],[2.3773096,48.865762],[2.3773603,48.865727],[2.3774819,48.8657748],[2.377679,48.8658167],[2.3777956,48.8658062]]},"id":"way/1191762166"},{"type":"Feature","properties":{"@id":"way/1212363087","footway":"sidewalk","highway":"footway","lit":"yes","smoothness":"good","surface":"asphalt","id":"way/1212363087"},"geometry":{"type":"LineString","coordinates":[[2.3777956,48.8658062],[2.3782188,48.8659018]]},"id":"way/1212363087"},{"type":"Feature","properties":{"@id":"way/1212363088","footway":"sidewalk","highway":"footway","lit":"yes","smoothness":"good","surface":"asphalt","id":"way/1212363088"},"geometry":{"type":"LineString","coordinates":[[2.3765197,48.8666931],[2.3767597,48.8663994],[2.3770533,48.8660591]]},"id":"way/1212363088"},{"type":"Feature","properties":{"@id":"node/332086570","amenity":"bar","check_date":"2025-07-02","contact:city":"Paris 11eme Arrondissement","contact:housenumber":"105","contact:phone":"+33 1 43 57 34 10","contact:postcode":"75011","contact:street":"Rue Oberkampf","name":"La Place verte","id":"node/332086570"},"geometry":{"type":"Point","coordinates":[2.3775773,48.8659333]},"id":"node/332086570"},{"type":"Feature","properties":{"@id":"node/416560238","addr:city":"Paris","addr:housenumber":"109","addr:postcode":"75011","addr:street":"Rue Oberkampf","amenity":"bar","description":"Brasserie Atypique","internet_access":"wlan","internet_access:ssid":"Cafe Charbon","level":"0","name":"Café Charbon","opening_hours":"Mo-Su 08:00-02:00","outdoor_seating":"yes","phone":"+33 1 43 57 55 13","source":"survey","website":"https://www.lecafecharbon.fr/","id":"node/416560238"},"geometry":{"type":"Point","coordinates":[2.3778299,48.8658567]},"id":"node/416560238"},{"type":"Feature","properties":{"@id":"node/416560239","addr:city":"Paris","addr:housenumber":"102","addr:postcode":"75011","addr:street":"Rue Saint-Maur","amenity":"pharmacy","check_date":"2025-07-12","dispensing":"yes","drive_through":"no","email":"pharmaober1@gmail.com","healthcare":"pharmacy","level":"0","name":"Pharmacie Saint-Maur Oberkampf","opening_hours":"Mo-Sa 09:00-20:00","phone":"+33149238825","ref:FR:FINESS":"750020117","source":"Celtipharm - 10/2014","wheelchair":"yes","id":"node/416560239"},"geometry":{"type":"Point","coordinates":[2.3774054,48.8658968]},"id":"node/416560239"},{"type":"Feature","properties":{"@id":"node/418079773","amenity":"restaurant","check_date":"2024-04-14","cuisine":"thai","name":"Taira","id":"node/418079773"},"geometry":{"type":"Point","coordinates":[2.3770745,48.8657923]},"id":"node/418079773"},{"type":"Feature","properties":{"@id":"node/3844404004","addr:city":"Paris","addr:housenumber":"113","addr:postcode":"75011","addr:street":"Rue Saint-Maur","brand":"Franprix","brand:wikidata":"Q2420096","brand:wikipedia":"fr:Franprix","check_date":"2025-07-12","level":"0","name":"Franprix","opening_hours":"Mo-Sa 08:30-22:00, Su 08:00+","payment:cash":"yes","payment:contactless":"yes","payment:credit_cards":"yes","payment:mastercard":"yes","payment:visa":"yes","payment:visa_debit":"yes","payment:visa_electron":"yes","shop":"convenience","toilets":"no","website":"https://www.franprix.fr/magasins/6748","wheelchair":"yes","id":"node/3844404004"},"geometry":{"type":"Point","coordinates":[2.3768853,48.8659767]},"id":"node/3844404004"},{"type":"Feature","properties":{"@id":"node/4197760447","addr:city":"Paris","addr:housenumber":"106","addr:street":"Rue Saint-Maur","check_date":"2025-07-12","check_date:opening_hours":"2024-11-16","name":"La Bague de Kenza","opening_hours:signed":"no","shop":"pastry","source":"survey","id":"node/4197760447"},"geometry":{"type":"Point","coordinates":[2.3769073,48.8663048]},"id":"node/4197760447"},{"type":"Feature","properties":{"@id":"node/4386878289","check_date":"2025-12-06","contact:facebook":"https://www.facebook.com/cisterninoruesaintmaur/","contact:phone":"+33 9 52 35 61 46","cuisine":"italian","internet_access":"no","name":"Cooperativa Latte Cisternino","opening_hours":"Tu,We,Fr,Sa 10:00-17:45; Th 11:30-17:45","payment:credit_cards":"yes","payment:credit_cards:min_payment":"15 EUR","payment:maestro":"yes","shop":"convenience","toilets":"no","id":"node/4386878289"},"geometry":{"type":"Point","coordinates":[2.3767827,48.8665857]},"id":"node/4386878289"},{"type":"Feature","properties":{"@id":"node/5959549885","amenity":"bar","check_date":"2025-08-24","name":"Café populaire","ref:FR:SIRET":"83091843900035","id":"node/5959549885"},"geometry":{"type":"Point","coordinates":[2.3772479,48.8660397]},"id":"node/5959549885"},{"type":"Feature","properties":{"@id":"node/6024439190","addr:housenumber":"104","addr:postcode":"75011","addr:street":"Rue Saint-Maur","check_date":"2025-07-12","name":"La Panifacture","opening_hours":"We-Sa 08:30-20:00; Su 08:30-18:00","shop":"bakery","id":"node/6024439190"},"geometry":{"type":"Point","coordinates":[2.3770012,48.8661975]},"id":"node/6024439190"},{"type":"Feature","properties":{"@id":"node/6932925047","amenity":"restaurant","check_date":"2025-08-24","check_date:opening_hours":"2024-11-16","contact:phone":"+33 1 49 23 44 85","cuisine":"chinese","name":"J'suis là","opening_hours":"\"Tous les soirs et mardi, samedi, dimanche midi\"","id":"node/6932925047"},"geometry":{"type":"Point","coordinates":[2.3768023,48.8660881]},"id":"node/6932925047"},{"type":"Feature","properties":{"@id":"node/6964519400","check_date":"2025-07-12","name":"CBD'AM","opening_hours":"Mo-Sa 13:00-20:00","shop":"e-cigarette","source":"survey","id":"node/6964519400"},"geometry":{"type":"Point","coordinates":[2.3770325,48.8661522]},"id":"node/6964519400"},{"type":"Feature","properties":{"@id":"node/6964519401","addr:housenumber":"106","addr:postcode":"75011","addr:street":"Rue Saint-Maur","amenity":"cafe","check_date":"2025-08-24","check_date:opening_hours":"2024-11-16","cuisine":"moroccan;tea","name":"La bague de Kenza","name:fr":"La bague de Kenza","opening_hours":"Mo-Su 10:00-22:00","opening_hours:signed":"no","source":"survey","website":"http://www.labaguedekenza.com/","id":"node/6964519401"},"geometry":{"type":"Point","coordinates":[2.3768264,48.8663951]},"id":"node/6964519401"},{"type":"Feature","properties":{"@id":"node/6964519792","amenity":"restaurant","check_date":"2025-07-12","check_date:opening_hours":"2024-10-06","cuisine":"italian","name":"Il covo","opening_hours":"Mo-Fr 11:30-14:30, Tu-Sa 19:00-22:30","source":"survey","id":"node/6964519792"},"geometry":{"type":"Point","coordinates":[2.3770735,48.8661152]},"id":"node/6964519792"},{"type":"Feature","properties":{"@id":"node/8751245027","amenity":"restaurant","check_date":"2025-08-24","check_date:opening_hours":"2024-11-16","name":"Bladi","opening_hours:signed":"no","website":"https://bladi-baracouscous.fr","id":"node/8751245027"},"geometry":{"type":"Point","coordinates":[2.3767413,48.8661709]},"id":"node/8751245027"},{"type":"Feature","properties":{"@id":"node/8751245029","amenity":"bar","check_date":"2025-08-24","check_date:opening_hours":"2024-11-16","contact:city":"Paris 11eme Arrondissement","contact:housenumber":"115","contact:phone":"+33 6 51 71 04 42","contact:postcode":"75011","contact:street":"Rue Saint-Maur","name":"Le Coq O Rico","opening_hours:signed":"no","id":"node/8751245029"},"geometry":{"type":"Point","coordinates":[2.3768345,48.8660555]},"id":"node/8751245029"},{"type":"Feature","properties":{"@id":"node/9978596644","natural":"tree","id":"node/9978596644"},"geometry":{"type":"Point","coordinates":[2.3776128,48.865844]},"id":"node/9978596644"},{"type":"Feature","properties":{"@id":"node/9978596645","natural":"tree","id":"node/9978596645"},"geometry":{"type":"Point","coordinates":[2.3776424,48.8657773]},"id":"node/9978596645"},{"type":"Feature","properties":{"@id":"node/9978596646","check_date":"2025-08-24","name:signed":"no","shop":"kiosk","id":"node/9978596646"},"geometry":{"type":"Point","coordinates":[2.377304,48.8657877]},"id":"node/9978596646"},{"type":"Feature","properties":{"@id":"node/9978596648","natural":"tree","id":"node/9978596648"},"geometry":{"type":"Point","coordinates":[2.3774427,48.8657354]},"id":"node/9978596648"},{"type":"Feature","properties":{"@id":"node/9978596649","natural":"tree","id":"node/9978596649"},"geometry":{"type":"Point","coordinates":[2.3774483,48.8658019]},"id":"node/9978596649"},{"type":"Feature","properties":{"@id":"node/9978596651","natural":"tree","id":"node/9978596651"},"geometry":{"type":"Point","coordinates":[2.3775478,48.8657577]},"id":"node/9978596651"},{"type":"Feature","properties":{"@id":"node/9978596652","natural":"tree","id":"node/9978596652"},"geometry":{"type":"Point","coordinates":[2.3773452,48.865762]},"id":"node/9978596652"}]}