{"type":"FeatureCollection","features":[{"type":"Feature","properties":{"@id":"way/63195438","building":"apartments","building:levels":"7","source":"cadastre-dgi-fr source : Direction Générale des Impôts - Cadastre. Mise à jour : 2010","id":"way/63195438"},"geometry":{"type":"Polygon","coordinates":[[[2.3636353,48.8821787],[2.3635875,48.8821562],[2.3635508,48.882139],[2.3635484,48.8820934],[2.3635518,48.8820917],[2.3636269,48.882051],[2.3636468,48.8820402],[2.363707,48.8820077],[2.3638032,48.882085],[2.3637564,48.8821111],[2.3637122,48.8821356],[2.3636865,48.8821132],[2.3636665,48.8821223],[2.363694,48.8821457],[2.3636353,48.8821787]]]},"id":"way/63195438"},{"type":"Feature","properties":{"@id":"way/63195608","building":"school","building:levels":"1","roof:levels":"0","roof:shape":"hipped","source":"cadastre-dgi-fr source : Direction Générale des Impôts - Cadastre. Mise à jour : 2010","id":"way/63195608"},"geometry":{"type":"Polygon","coordinates":[[[2.3634901,48.8822648],[2.3636712,48.8823498],[2.3635016,48.8824358],[2.3634584,48.8823613],[2.3634223,48.8822992],[2.3634901,48.8822648]]]},"id":"way/63195608"},{"type":"Feature","properties":{"@id":"way/63196297","building":"apartments","building:levels":"6","roof:levels":"1","source":"cadastre-dgi-fr source : Direction Générale des Impôts - Cadastre. Mise à jour : 2010","id":"way/63196297"},"geometry":{"type":"Polygon","coordinates":[[[2.3638801,48.8822936],[2.3639696,48.8822112],[2.3640208,48.882164],[2.3641415,48.8822251],[2.364182,48.8822453],[2.3640772,48.8823438],[2.3640473,48.8823719],[2.363966,48.8823338],[2.3638801,48.8822936]]]},"id":"way/63196297"},{"type":"Feature","properties":{"@id":"way/63198502","building":"apartments","building:levels":"7","source":"cadastre-dgi-fr source : Direction Générale des Impôts - Cadastre. Mise à jour : 2010","id":"way/63198502"},"geometry":{"type":"Polygon","coordinates":[[[2.3636353,48.8821787],[2.363694,48.8821457],[2.3637122,48.8821356],[2.3637564,48.8821111],[2.3638008,48.8821319],[2.3638289,48.8821056],[2.3638399,48.8821143],[2.363824,48.8821286],[2.363769,48.8821775],[2.3638118,48.8821978],[2.3637666,48.8822403],[2.3637052,48.8822115],[2.3636353,48.8821787]]]},"id":"way/63198502"},{"type":"Feature","properties":{"@id":"way/63200657","building":"retail","building:levels":"1","roof:levels":"0","source":"cadastre-dgi-fr source : Direction Générale des Impôts - Cadastre. Mise à jour : 2010","id":"way/63200657"},"geometry":{"type":"Polygon","coordinates":[[[2.3635518,48.8820917],[2.3635377,48.8820803],[2.3636128,48.8820397],[2.3636269,48.882051],[2.3635518,48.8820917]]]},"id":"way/63200657"},{"type":"Feature","properties":{"@id":"way/63201724","building":"service","building:colour":"#ff9e6b","source":"cadastre-dgi-fr source : Direction Générale des Impôts - Cadastre. Mise à jour : 2010","id":"way/63201724"},"geometry":{"type":"Polygon","coordinates":[[[2.3634363,48.8822411],[2.363403,48.8822582],[2.363364,48.8822259],[2.3633972,48.8822085],[2.3634363,48.8822411]]]},"id":"way/63201724"},{"type":"Feature","properties":{"@id":"way/63202767","building":"apartments","building:levels":"7","source":"cadastre-dgi-fr source : Direction Générale des Impôts - Cadastre. Mise à jour : 2010","id":"way/63202767"},"geometry":{"type":"Polygon","coordinates":[[[2.3637666,48.8822403],[2.3638118,48.8821978],[2.363769,48.8821775],[2.363824,48.8821286],[2.3638354,48.8821341],[2.3638257,48.8821428],[2.3639696,48.8822112],[2.3638801,48.8822936],[2.3638326,48.8822713],[2.3637666,48.8822403]]]},"id":"way/63202767"},{"type":"Feature","properties":{"@id":"way/1016421696","building":"school","building:levels":"2","source":"cadastre-dgi-fr source : Direction Générale des Impôts - Cadastre. Mise à jour : 2010","id":"way/1016421696"},"geometry":{"type":"Polygon","coordinates":[[[2.3637862,48.882894],[2.3636722,48.8827301],[2.3636063,48.8826165],[2.3637253,48.8825865],[2.3638379,48.8825321],[2.3639124,48.882463],[2.3639336,48.8824729],[2.364273,48.8826323],[2.3644844,48.8827316],[2.3648055,48.8828823],[2.3648736,48.8829143],[2.3647475,48.8829496],[2.3647403,48.8829516],[2.3639815,48.8825988],[2.3639672,48.8826122],[2.3637942,48.8826984],[2.3638926,48.8828296],[2.3638087,48.8828535],[2.3638281,48.8828821],[2.3637862,48.882894]]]},"id":"way/1016421696"},{"type":"Feature","properties":{"@id":"way/23823534","alt_name":"rue du Chemin des Potences","bicycle:forward":"use_sidepath","cycleway:both":"separate","highway":"residential","lane_markings":"no","lit":"yes","maxspeed":"30","name":"Rue du Château Landon","oneway":"yes","parking:both":"no","sidewalk:both":"separate","sidewalk:both:surface":"asphalt","smoothness":"intermediate","surface":"asphalt","zone:maxspeed":"FR:30","id":"way/23823534"},"geometry":{"type":"LineString","coordinates":[[2.363215,48.8821731],[2.3632745,48.8822432],[2.3634312,48.8824436],[2.363867,48.8831547],[2.3642336,48.8836873],[2.3642975,48.8837865]]},"id":"way/23823534"},{"type":"Feature","properties":{"@id":"way/670922690","cycleway":"on_street","highway":"cycleway","horse":"no","lit":"yes","motor_vehicle":"no","name":"Rue du Château Landon","oneway":"no","smoothness":"good","surface":"asphalt","width":"3.2","id":"way/670922690"},"geometry":{"type":"LineString","coordinates":[[2.364164,48.8836715],[2.3638168,48.8831658],[2.3638147,48.8831632],[2.3636563,48.882928],[2.3635618,48.8827504],[2.3633696,48.8824425],[2.3632849,48.8823415],[2.3632324,48.8822584],[2.3631682,48.8822001],[2.3631469,48.8821731],[2.3631451,48.8821475],[2.3631399,48.8821249],[2.3631169,48.8820985],[2.3631004,48.8820831],[2.3629838,48.881981],[2.3629455,48.8819437],[2.3629461,48.8819245],[2.3629832,48.8818689],[2.363001,48.8818304],[2.3629827,48.8817935],[2.3628196,48.8815154],[2.3626293,48.8811908],[2.3624106,48.8808178],[2.3623816,48.8807568]]},"id":"way/670922690"},{"type":"Feature","properties":{"@id":"way/675600152","cycleway:left":"separate","cycleway:right":"no","highway":"residential","lanes":"1","lit":"yes","maxspeed":"30","name":"Rue Louis Blanc","name:etymology:wikidata":"Q355112","oneway":"yes","parking:both":"no","sidewalk":"both","smoothness":"good","surface":"asphalt","zone:maxspeed":"FR:30","id":"way/675600152"},"geometry":{"type":"LineString","coordinates":[[2.3633587,48.8820981],[2.363215,48.8821731]]},"id":"way/675600152"},{"type":"Feature","properties":{"@id":"way/825144679","footway":"traffic_island","highway":"footway","lit":"yes","surface":"asphalt","id":"way/825144679"},"geometry":{"type":"LineString","coordinates":[[2.3631378,48.8820849],[2.3632309,48.8820318]]},"id":"way/825144679"},{"type":"Feature","properties":{"@id":"way/1155388176","alt_name":"rue du Chemin des Potences","highway":"residential","lit":"yes","maxspeed":"30","name":"Rue du Château Landon","oneway":"yes","parking:both":"no","sidewalk:left":"separate","sidewalk:right":"no","smoothness":"good","surface":"asphalt","zone:maxspeed":"FR:30","id":"way/1155388176"},"geometry":{"type":"LineString","coordinates":[[2.3633587,48.8820981],[2.3633159,48.8820625],[2.3632594,48.8820154],[2.3630516,48.8818179]]},"id":"way/1155388176"},{"type":"Feature","properties":{"@id":"way/1160834219","cycleway:left":"separate","cycleway:right":"no","highway":"residential","lanes":"1","lit":"yes","maxspeed":"30","name":"Rue Louis Blanc","name:etymology:wikidata":"Q355112","oneway":"yes","parking:both":"no","sidewalk:left":"yes","sidewalk:right":"separate","surface":"asphalt","traffic:hourly":"151","traffic:hourly:source":"survey, comptage 37, nord lafayette 11/03/2020 18:50 6 20 compté et normalisé","zone:maxspeed":"FR:30","id":"way/1160834219"},"geometry":{"type":"LineString","coordinates":[[2.3640955,48.8817011],[2.3634504,48.8820518],[2.3633587,48.8820981]]},"id":"way/1160834219"},{"type":"Feature","properties":{"@id":"way/1192348596","footway":"sidewalk","highway":"footway","lit":"yes","smoothness":"excellent","surface":"asphalt","id":"way/1192348596"},"geometry":{"type":"LineString","coordinates":[[2.3623354,48.8827205],[2.3631514,48.8822833]]},"id":"way/1192348596"},{"type":"Feature","properties":{"@id":"way/1192360324","footway":"sidewalk","highway":"footway","surface":"asphalt","id":"way/1192360324"},"geometry":{"type":"LineString","coordinates":[[2.3644068,48.8825538],[2.3648192,48.8827461],[2.3654931,48.8830605],[2.3655485,48.8830957]]},"id":"way/1192360324"},{"type":"Feature","properties":{"@id":"way/1192360327","footway":"sidewalk","highway":"footway","surface":"asphalt","id":"way/1192360327"},"geometry":{"type":"LineString","coordinates":[[2.3654596,48.8831654],[2.3654173,48.8831474],[2.3652825,48.8830874],[2.3645014,48.8827236],[2.3643259,48.8826298]]},"id":"way/1192360327"},{"type":"Feature","properties":{"@id":"way/1192360332","footway":"sidewalk","highway":"footway","lit":"yes","surface":"asphalt","id":"way/1192360332"},"geometry":{"type":"LineString","coordinates":[[2.3633857,48.8822935],[2.3634888,48.8824493],[2.3635793,48.8826116],[2.3637637,48.8828987],[2.3639314,48.8831403]]},"id":"way/1192360332"},{"type":"Feature","properties":{"@id":"way/1192360333","footway":"sidewalk","highway":"footway","lit":"yes","surface":"asphalt","id":"way/1192360333"},"geometry":{"type":"LineString","coordinates":[[2.3637892,48.883172],[2.3635063,48.88278],[2.363285,48.8824453],[2.3632246,48.8823335],[2.3631899,48.8822775]]},"id":"way/1192360333"},{"type":"Feature","properties":{"@id":"way/1192397213","footway":"sidewalk","highway":"footway","lit":"yes","surface":"asphalt","id":"way/1192397213"},"geometry":{"type":"LineString","coordinates":[[2.362623,48.8808716],[2.3625972,48.8809212],[2.3627359,48.8811614],[2.3629258,48.8814904],[2.3630817,48.8817606],[2.3633087,48.8819495],[2.3633371,48.8819748]]},"id":"way/1192397213"},{"type":"Feature","properties":{"@id":"way/1192397215","check_date:surface":"2023-09-03","crossing":"traffic_signals","crossing:markings":"zebra","crossing:signals":"yes","footway":"crossing","highway":"footway","lit":"yes","surface":"asphalt","tactile_paving":"yes","traffic_signals:sound":"yes","id":"way/1192397215"},"geometry":{"type":"LineString","coordinates":[[2.3632309,48.8820318],[2.3632594,48.8820154],[2.3633145,48.8819875]]},"id":"way/1192397215"},{"type":"Feature","properties":{"@id":"way/1192397216","footway":"sidewalk","highway":"footway","lit":"yes","surface":"asphalt","id":"way/1192397216"},"geometry":{"type":"LineString","coordinates":[[2.3633371,48.8819748],[2.3633735,48.8819906]]},"id":"way/1192397216"},{"type":"Feature","properties":{"@id":"way/1192397217","crossing":"traffic_signals","crossing:markings":"zebra","crossing:signals":"yes","footway":"crossing","highway":"footway","lit":"yes","surface":"asphalt","tactile_paving":"yes","traffic_signals:sound":"yes","id":"way/1192397217"},"geometry":{"type":"LineString","coordinates":[[2.3633942,48.8820071],[2.3634173,48.8820255],[2.3634504,48.8820518],[2.3634812,48.8820763]]},"id":"way/1192397217"},{"type":"Feature","properties":{"@id":"way/1192397218","footway":"sidewalk","highway":"footway","lit":"yes","smoothness":"good","surface":"asphalt","id":"way/1192397218"},"geometry":{"type":"LineString","coordinates":[[2.3634931,48.8820858],[2.3645888,48.8815014],[2.3646264,48.8814568],[2.3647049,48.8814111]]},"id":"way/1192397218"},{"type":"Feature","properties":{"@id":"way/1192397219","footway":"sidewalk","highway":"footway","lit":"yes","smoothness":"good","surface":"asphalt","id":"way/1192397219"},"geometry":{"type":"LineString","coordinates":[[2.3634812,48.8820763],[2.3634931,48.8820858]]},"id":"way/1192397219"},{"type":"Feature","properties":{"@id":"way/1192397220","footway":"sidewalk","highway":"footway","lit":"yes","surface":"asphalt","id":"way/1192397220"},"geometry":{"type":"LineString","coordinates":[[2.3633735,48.8819906],[2.3633942,48.8820071]]},"id":"way/1192397220"},{"type":"Feature","properties":{"@id":"way/1192397221","footway":"sidewalk","highway":"footway","lit":"yes","smoothness":"good","surface":"asphalt","id":"way/1192397221"},"geometry":{"type":"LineString","coordinates":[[2.3634931,48.8820858],[2.3635209,48.8821412]]},"id":"way/1192397221"},{"type":"Feature","properties":{"@id":"way/1192397222","footway":"sidewalk","highway":"footway","lit":"yes","smoothness":"good","surface":"asphalt","id":"way/1192397222"},"geometry":{"type":"LineString","coordinates":[[2.3635209,48.8821412],[2.3634804,48.8821565]]},"id":"way/1192397222"},{"type":"Feature","properties":{"@id":"way/1192397223","crossing":"traffic_signals","crossing:markings":"zebra","crossing:signals":"yes","footway":"crossing","highway":"footway","lit":"yes","smoothness":"good","surface":"asphalt","tactile_paving":"yes","traffic_signals:sound":"yes","id":"way/1192397223"},"geometry":{"type":"LineString","coordinates":[[2.3634804,48.8821565],[2.3634537,48.8821677],[2.3634191,48.8821824]]},"id":"way/1192397223"},{"type":"Feature","properties":{"@id":"way/1192397224","footway":"sidewalk","highway":"footway","lit":"yes","smoothness":"good","surface":"asphalt","id":"way/1192397224"},"geometry":{"type":"LineString","coordinates":[[2.3633939,48.8821937],[2.3634191,48.8821824]]},"id":"way/1192397224"},{"type":"Feature","properties":{"@id":"way/1192397225","footway":"sidewalk","highway":"footway","lit":"yes","surface":"asphalt","id":"way/1192397225"},"geometry":{"type":"LineString","coordinates":[[2.3633939,48.8821937],[2.3634937,48.8822394],[2.3633857,48.8822935],[2.3633273,48.8822196]]},"id":"way/1192397225"},{"type":"Feature","properties":{"@id":"way/1192397226","footway":"sidewalk","highway":"footway","lit":"yes","smoothness":"good","surface":"asphalt","id":"way/1192397226"},"geometry":{"type":"LineString","coordinates":[[2.3633273,48.8822196],[2.3633939,48.8821937]]},"id":"way/1192397226"},{"type":"Feature","properties":{"@id":"way/1192397227","crossing":"traffic_signals","crossing:markings":"zebra","crossing:signals":"yes","footway":"crossing","highway":"footway","lit":"yes","smoothness":"good","surface":"asphalt","tactile_paving":"yes","traffic_calming":"table","traffic_signals:sound":"yes","id":"way/1192397227"},"geometry":{"type":"LineString","coordinates":[[2.3632126,48.8822667],[2.3632324,48.8822584],[2.3632745,48.8822432],[2.3633006,48.8822299]]},"id":"way/1192397227"},{"type":"Feature","properties":{"@id":"way/1192397228","footway":"sidewalk","highway":"footway","lit":"yes","smoothness":"good","surface":"asphalt","id":"way/1192397228"},"geometry":{"type":"LineString","coordinates":[[2.3633273,48.8822196],[2.3633006,48.8822299]]},"id":"way/1192397228"},{"type":"Feature","properties":{"@id":"way/1192397229","footway":"sidewalk","highway":"footway","lit":"yes","smoothness":"good","surface":"asphalt","id":"way/1192397229"},"geometry":{"type":"LineString","coordinates":[[2.3631899,48.8822775],[2.3631514,48.8822833]]},"id":"way/1192397229"},{"type":"Feature","properties":{"@id":"way/1192397230","footway":"sidewalk","highway":"footway","lit":"yes","smoothness":"good","surface":"asphalt","id":"way/1192397230"},"geometry":{"type":"LineString","coordinates":[[2.3632126,48.8822667],[2.3631899,48.8822775]]},"id":"way/1192397230"},{"type":"Feature","properties":{"@id":"way/1192397231","footway":"sidewalk","highway":"footway","lit":"yes","surface":"asphalt","id":"way/1192397231"},"geometry":{"type":"LineString","coordinates":[[2.3633735,48.8819906],[2.3638296,48.8817507],[2.3639136,48.8817508],[2.3640672,48.881666],[2.364478,48.8814005],[2.3645295,48.8813604]]},"id":"way/1192397231"},{"type":"Feature","properties":{"@id":"way/1192397232","footway":"sidewalk","highway":"footway","surface":"asphalt","id":"way/1192397232"},"geometry":{"type":"LineString","coordinates":[[2.3635209,48.8821412],[2.3644068,48.8825538]]},"id":"way/1192397232"},{"type":"Feature","properties":{"@id":"way/1192397233","footway":"sidewalk","highway":"footway","surface":"asphalt","id":"way/1192397233"},"geometry":{"type":"LineString","coordinates":[[2.3643259,48.8826298],[2.3634937,48.8822394]]},"id":"way/1192397233"},{"type":"Feature","properties":{"@id":"way/1192397234","crossing":"uncontrolled","crossing:markings":"yes","footway":"crossing","highway":"footway","lit":"yes","surface":"asphalt","id":"way/1192397234"},"geometry":{"type":"LineString","coordinates":[[2.3643423,48.8826145],[2.3643662,48.8825918],[2.3643957,48.8825636]]},"id":"way/1192397234"},{"type":"Feature","properties":{"@id":"way/1192397235","footway":"sidewalk","highway":"footway","surface":"asphalt","id":"way/1192397235"},"geometry":{"type":"LineString","coordinates":[[2.3644068,48.8825538],[2.3643957,48.8825636]]},"id":"way/1192397235"},{"type":"Feature","properties":{"@id":"way/1192397236","footway":"sidewalk","highway":"footway","surface":"asphalt","id":"way/1192397236"},"geometry":{"type":"LineString","coordinates":[[2.3643259,48.8826298],[2.3643423,48.8826145]]},"id":"way/1192397236"},{"type":"Feature","properties":{"@id":"way/1192397237","crossing":"traffic_signals","crossing:markings":"zebra","crossing:signals":"yes","footway":"crossing","highway":"footway","lit":"yes","surface":"asphalt","tactile_paving":"yes","traffic_signals:sound":"yes","id":"way/1192397237"},"geometry":{"type":"LineString","coordinates":[[2.3631276,48.882263],[2.3630979,48.8822375],[2.3630426,48.8821903]]},"id":"way/1192397237"},{"type":"Feature","properties":{"@id":"way/1192397238","footway":"sidewalk","highway":"footway","lit":"yes","smoothness":"good","surface":"asphalt","id":"way/1192397238"},"geometry":{"type":"LineString","coordinates":[[2.3631514,48.8822833],[2.3631276,48.882263]]},"id":"way/1192397238"},{"type":"Feature","properties":{"@id":"way/1192397242","crossing":"traffic_signals","crossing:signals":"yes","footway":"crossing","highway":"footway","lit":"yes","surface":"asphalt","tactile_paving":"yes","traffic_signals:sound":"yes","id":"way/1192397242"},"geometry":{"type":"LineString","coordinates":[[2.3630571,48.8821326],[2.3630879,48.8821172],[2.3631169,48.8820985],[2.3631378,48.8820849]]},"id":"way/1192397242"},{"type":"Feature","properties":{"@id":"way/1192397243","footway":"sidewalk","highway":"footway","lit":"yes","surface":"asphalt","id":"way/1192397243"},"geometry":{"type":"LineString","coordinates":[[2.3633371,48.8819748],[2.3633145,48.8819875]]},"id":"way/1192397243"},{"type":"Feature","properties":{"@id":"way/1223074524","crossing":"marked","crossing:markings":"pictograms","cycleway":"crossing","highway":"cycleway","lit":"yes","maxspeed":"30","name":"Rue Louis Blanc","name:etymology:wikidata":"Q355112","oneway":"yes","smoothness":"good","surface":"asphalt","id":"way/1223074524"},"geometry":{"type":"LineString","coordinates":[[2.3632754,48.8820776],[2.3633159,48.8820625],[2.3633732,48.882045]]},"id":"way/1223074524"},{"type":"Feature","properties":{"@id":"way/1327633396","cycleway":"on_street","highway":"cycleway","lit":"yes","maxspeed":"30","name":"Rue Louis Blanc","name:etymology:wikidata":"Q355112","oneway":"yes","smoothness":"good","surface":"asphalt","id":"way/1327633396"},"geometry":{"type":"LineString","coordinates":[[2.3634173,48.8820255],[2.3646162,48.8813879]]},"id":"way/1327633396"},{"type":"Feature","properties":{"@id":"way/1409567595","leaf_type":"broadleaved","natural":"tree_row","id":"way/1409567595"},"geometry":{"type":"LineString","coordinates":[[2.3623558,48.8826963],[2.3631291,48.8822783]]},"id":"way/1409567595"},{"type":"Feature","properties":{"@id":"way/1436386828","cycleway":"on_street","highway":"cycleway","lit":"yes","maxspeed":"30","name":"Rue Louis Blanc","name:etymology:wikidata":"Q355112","oneway":"yes","smoothness":"good","surface":"asphalt","id":"way/1436386828"},"geometry":{"type":"LineString","coordinates":[[2.3631861,48.8821213],[2.3632754,48.8820776]]},"id":"way/1436386828"},{"type":"Feature","properties":{"@id":"way/1436386829","crossing":"marked","crossing:markings":"pictograms","cycleway":"crossing","highway":"cycleway","lit":"yes","maxspeed":"30","name":"Rue Louis Blanc","name:etymology:wikidata":"Q355112","oneway":"yes","smoothness":"good","surface":"asphalt","id":"way/1436386829"},"geometry":{"type":"LineString","coordinates":[[2.3631451,48.8821475],[2.3631861,48.8821213]]},"id":"way/1436386829"},{"type":"Feature","properties":{"@id":"way/1436386830","crossing":"marked","crossing:markings":"pictograms","cycleway":"crossing","highway":"cycleway","lit":"yes","maxspeed":"30","name":"Rue Louis Blanc","name:etymology:wikidata":"Q355112","oneway":"yes","smoothness":"good","surface":"asphalt","id":"way/1436386830"},"geometry":{"type":"LineString","coordinates":[[2.3633732,48.882045],[2.3634173,48.8820255]]},"id":"way/1436386830"},{"type":"Feature","properties":{"@id":"node/881969027","amenity":"restaurant","check_date":"2025-08-23","contact:city":"Paris","contact:housenumber":"48","contact:phone":"+33 1 40 37 34 51","contact:postcode":"75010","contact:street":"Rue Louis Blanc","cuisine":"traditional;french","diet:halal":"no","diet:kosher":"no","level":"0","name":"La Bulle","opening_hours":"Tu-Fr 17:30-01:45; Sa 18:00-01:45; Mo,Su off","ref:FR:SIRET":"49837402400020","source":"survey 10/2017","wheelchair":"yes","id":"node/881969027"},"geometry":{"type":"Point","coordinates":[2.363611,48.8821165]},"id":"node/881969027"},{"type":"Feature","properties":{"@id":"node/1872840250","amenity":"cafe","contact:city":"Paris","contact:housenumber":"36","contact:postcode":"75010","contact:street":"Rue de l'Aqueduc","contact:tiktok":"lascampia.bubble","cuisine":"bubble_tea","level":"0","name":"La Scrampia","ref:FR:SIRET":"92819166700015","source":"survey 01/2022","id":"node/1872840250"},"geometry":{"type":"Point","coordinates":[2.363751,48.8822127]},"id":"node/1872840250"},{"type":"Feature","properties":{"@id":"node/5219328093","contact:city":"Paris","contact:housenumber":"46","contact:postcode":"75010","contact:street":"Rue Louis Blanc","level":"0","name":"Proxy Oriental Express","ref:FR:ANFR":"98309187700016","ref:FR:SIRET":"98309187700016","shop":"convenience","source":"survey 10/2017","id":"node/5219328093"},"geometry":{"type":"Point","coordinates":[2.3637751,48.8820121]},"id":"node/5219328093"},{"type":"Feature","properties":{"@id":"node/5219328097","contact:city":"Paris","contact:housenumber":"48","contact:postcode":"75010","contact:street":"Rue Louis Blanc","level":"0","name":"Paradise Travels","opening_hours":"Mo-Fr 10:30-13:30,14:30-18:30; Sa 10:30-13:30,14:30-18:00","ref:FR:SIRET":"80317904300010","shop":"travel_agency","source":"survey 10/2017","wheelchair":"limited","id":"node/5219328097"},"geometry":{"type":"Point","coordinates":[2.3637074,48.8820489]},"id":"node/5219328097"},{"type":"Feature","properties":{"@id":"node/5219328099","contact:city":"Paris","contact:housenumber":"46","contact:postcode":"75010","contact:street":"Rue Louis Blanc","female":"yes","level":"0","male":"yes","name":"Tibet","ref:FR:SIRET":"85367207900011","shop":"hairdresser","source":"survey 01/2022","wheelchair":"limited","id":"node/5219328099"},"geometry":{"type":"Point","coordinates":[2.3638418,48.8819703]},"id":"node/5219328099"},{"type":"Feature","properties":{"@id":"node/6763717997","amenity":"bicycle_rental","bicycle_rental":"docking_station","brand":"Vélib' Métropole","brand:wikidata":"Q1120762","brand:wikipedia":"fr:Vélib' Métropole","capacity":"37","name":"Louis Blanc - Aqueduc","network":"Vélib' Métropole","network:wikidata":"Q1120762","network:wikipedia":"fr:Vélib' Métropole","operator":"Smovengo","operator:type":"private","operator:wikidata":"Q47008427","operator:wikipedia":"fr:Smovengo","ref":"10031","source":"Autolib Velib Métropole - 04/2019","wikidata":"Q86252936","id":"node/6763717997"},"geometry":{"type":"Point","coordinates":[2.363676,48.8819673]},"id":"node/6763717997"},{"type":"Feature","properties":{"@id":"node/13096859995","amenity":"waste_basket","id":"node/13096859995"},"geometry":{"type":"Point","coordinates":[2.3633164,48.8822101]},"id":"node/13096859995"},{"type":"Feature","properties":{"@id":"node/13096879972","amenity":"waste_basket","id":"node/13096879972"},"geometry":{"type":"Point","coordinates":[2.3639937,48.882457]},"id":"node/13096879972"}]}