{"type":"FeatureCollection","features":[{"type":"Feature","properties":{"@id":"way/63213759","building":"yes","source":"cadastre-dgi-fr source : Direction Générale des Impôts - Cadastre. Mise à jour : 2010","id":"way/63213759"},"geometry":{"type":"Polygon","coordinates":[[[2.3903342,48.8821705],[2.3902858,48.8821808],[2.3902502,48.8821089],[2.390297,48.8820987],[2.3903342,48.8821705]]]},"id":"way/63213759"},{"type":"Feature","properties":{"@id":"way/1416096207","building":"sports_hall","id":"way/1416096207"},"geometry":{"type":"Polygon","coordinates":[[[2.3897654,48.8821755],[2.3897461,48.8821417],[2.3901439,48.882211],[2.3902873,48.8824925],[2.3902479,48.882546],[2.3894457,48.8827237],[2.389431,48.882695],[2.3891699,48.8827527],[2.3891073,48.8826248],[2.3890746,48.882558],[2.389159,48.8825392],[2.3898737,48.8823819],[2.3897654,48.8821755]]]},"id":"way/1416096207"},{"type":"Feature","properties":{"@id":"way/23812716","highway":"residential","lit":"yes","maxspeed":"30","name":"Rue Gaston Pinot","name:etymology:wikidata":"Q64525875","oneway":"yes","sidewalk:both":"separate","surface":"asphalt","id":"way/23812716"},"geometry":{"type":"LineString","coordinates":[[2.389931,48.8827023],[2.390025,48.8827637],[2.3900883,48.8827938],[2.3921295,48.8833859],[2.3922107,48.8834096]]},"id":"way/23812716"},{"type":"Feature","properties":{"@id":"way/23812826","highway":"residential","maxspeed":"30","name":"Rue François Pinton","name:etymology:wikidata":"Q618532","sidewalk:both":"separate","surface":"sett","id":"way/23812826"},"geometry":{"type":"LineString","coordinates":[[2.3904289,48.8825942],[2.3903968,48.8825263],[2.3902113,48.8821649],[2.390125,48.8820102],[2.3900951,48.8819456],[2.39009,48.8819344],[2.3900695,48.8818901]]},"id":"way/23812826"},{"type":"Feature","properties":{"@id":"way/23812828","highway":"residential","lit":"yes","maxspeed":"30","name":"Impasse Grimaud","sidewalk":"separate","surface":"sett","id":"way/23812828"},"geometry":{"type":"LineString","coordinates":[[2.3883891,48.8818471],[2.3884735,48.8818645],[2.3896986,48.8820865]]},"id":"way/23812828"},{"type":"Feature","properties":{"@id":"way/23812830","highway":"residential","maxspeed":"30","name":"Rue Blanche Antoinette","sidewalk:both":"separate","surface":"sett","id":"way/23812830"},"geometry":{"type":"LineString","coordinates":[[2.3898121,48.8821011],[2.3901396,48.8821545],[2.3902113,48.8821649]]},"id":"way/23812830"},{"type":"Feature","properties":{"@id":"way/23812936","highway":"footway","name":"Villa Paul Verlaine","name:etymology:wikidata":"Q755","id":"way/23812936"},"geometry":{"type":"LineString","coordinates":[[2.3897403,48.881163],[2.3894268,48.8815151],[2.3892765,48.8817839],[2.3898952,48.8819035]]},"id":"way/23812936"},{"type":"Feature","properties":{"@id":"way/55893719","busway:left":"lane","busway:left:oneway":"-1","cycleway:left":"share_busway","cycleway:left:oneway":"-1","highway":"residential","lanes":"2","lit":"yes","maxspeed":"30","name":"Rue David d'Angers","name:etymology:wikidata":"Q364498","oneway":"yes","oneway:bicycle":"no","oneway:bus":"no","oneway:psv":"no","sidewalk:both":"separate","smoothness":"excellent","surface":"asphalt","id":"way/55893719"},"geometry":{"type":"LineString","coordinates":[[2.3894057,48.8828163],[2.3895197,48.8827916],[2.389931,48.8827023],[2.3900938,48.882667],[2.3904289,48.8825942],[2.390764,48.8825214],[2.391053,48.8824587],[2.3911959,48.8824277],[2.3912974,48.8824056],[2.3914,48.8823834],[2.392659,48.8821098],[2.3928582,48.8820668]]},"id":"way/55893719"},{"type":"Feature","properties":{"@id":"way/291811361","highway":"footway","name":"Villa Paul Verlaine","name:etymology:wikidata":"Q755","tunnel":"yes","id":"way/291811361"},"geometry":{"type":"LineString","coordinates":[[2.3898952,48.8819035],[2.3900017,48.8819214]]},"id":"way/291811361"},{"type":"Feature","properties":{"@id":"way/291811362","highway":"footway","name":"Villa Paul Verlaine","name:etymology:wikidata":"Q755","id":"way/291811362"},"geometry":{"type":"LineString","coordinates":[[2.3900017,48.8819214],[2.39009,48.8819344]]},"id":"way/291811362"},{"type":"Feature","properties":{"@id":"way/1190785491","crossing":"uncontrolled","crossing:markings":"yes","footway":"crossing","highway":"footway","surface":"sett","id":"way/1190785491"},"geometry":{"type":"LineString","coordinates":[[2.3901131,48.8821089],[2.3901396,48.8821545],[2.3901535,48.8821783]]},"id":"way/1190785491"},{"type":"Feature","properties":{"@id":"way/1190785548","crossing":"uncontrolled","crossing:markings":"yes","footway":"crossing","highway":"footway","surface":"sett","id":"way/1190785548"},"geometry":{"type":"LineString","coordinates":[[2.3903518,48.8825353],[2.3903968,48.8825263],[2.3904203,48.8825216]]},"id":"way/1190785548"},{"type":"Feature","properties":{"@id":"way/1190785549","crossing":"uncontrolled","crossing:markings":"yes","footway":"crossing","highway":"footway","surface":"asphalt","id":"way/1190785549"},"geometry":{"type":"LineString","coordinates":[[2.3900789,48.8826367],[2.3900938,48.882667],[2.3901161,48.8827124]]},"id":"way/1190785549"},{"type":"Feature","properties":{"@id":"way/1190785550","crossing":"uncontrolled","crossing:markings":"yes","footway":"crossing","highway":"footway","lit":"yes","surface":"asphalt","id":"way/1190785550"},"geometry":{"type":"LineString","coordinates":[[2.3899424,48.882782],[2.390025,48.8827637],[2.3900984,48.8827474]]},"id":"way/1190785550"},{"type":"Feature","properties":{"@id":"way/1190785552","crossing":"uncontrolled","crossing:markings":"yes","footway":"crossing","highway":"footway","lit":"yes","surface":"asphalt","id":"way/1190785552"},"geometry":{"type":"LineString","coordinates":[[2.3895062,48.8827624],[2.3895197,48.8827916],[2.3895418,48.8828396]]},"id":"way/1190785552"},{"type":"Feature","properties":{"@id":"way/1190785779","footway":"sidewalk","highway":"footway","id":"way/1190785779"},"geometry":{"type":"LineString","coordinates":[[2.3897468,48.882064],[2.3897211,48.8821274],[2.389069,48.882011],[2.3890456,48.8819872],[2.3885169,48.881895],[2.3884579,48.8818932]]},"id":"way/1190785779"},{"type":"Feature","properties":{"@id":"way/1190785780","footway":"sidewalk","highway":"footway","surface":"asphalt","id":"way/1190785780"},"geometry":{"type":"LineString","coordinates":[[2.3903333,48.8825395],[2.3901671,48.882207]]},"id":"way/1190785780"},{"type":"Feature","properties":{"@id":"way/1190785781","footway":"sidewalk","highway":"footway","surface":"asphalt","id":"way/1190785781"},"geometry":{"type":"LineString","coordinates":[[2.3900641,48.8826019],[2.3903333,48.8825395],[2.3903518,48.8825353]]},"id":"way/1190785781"},{"type":"Feature","properties":{"@id":"way/1190785782","footway":"sidewalk","highway":"footway","lit":"yes","surface":"asphalt","id":"way/1190785782"},"geometry":{"type":"LineString","coordinates":[[2.3894928,48.8827289],[2.3900641,48.8826019],[2.3900789,48.8826367]]},"id":"way/1190785782"},{"type":"Feature","properties":{"@id":"way/1190785783","footway":"sidewalk","highway":"footway","lit":"yes","surface":"asphalt","id":"way/1190785783"},"geometry":{"type":"LineString","coordinates":[[2.3892622,48.8827765],[2.3894928,48.8827289],[2.3895062,48.8827624]]},"id":"way/1190785783"},{"type":"Feature","properties":{"@id":"way/1190785784","footway":"sidewalk","highway":"footway","lit":"yes","surface":"asphalt","id":"way/1190785784"},"geometry":{"type":"LineString","coordinates":[[2.3882556,48.882998],[2.3892622,48.8827765],[2.3892746,48.8828114]]},"id":"way/1190785784"},{"type":"Feature","properties":{"@id":"way/1190785795","footway":"sidewalk","highway":"footway","lit":"yes","surface":"asphalt","id":"way/1190785795"},"geometry":{"type":"LineString","coordinates":[[2.3895572,48.8828695],[2.3899209,48.8827887]]},"id":"way/1190785795"},{"type":"Feature","properties":{"@id":"way/1190785800","footway":"sidewalk","highway":"footway","surface":"asphalt","id":"way/1190785800"},"geometry":{"type":"LineString","coordinates":[[2.3899209,48.8827887],[2.390732,48.8830239],[2.392046,48.8834071],[2.3920876,48.883438]]},"id":"way/1190785800"},{"type":"Feature","properties":{"@id":"way/1190785801","footway":"sidewalk","highway":"footway","smoothness":"excellent","surface":"asphalt","id":"way/1190785801"},"geometry":{"type":"LineString","coordinates":[[2.3901292,48.8827402],[2.3912475,48.882496]]},"id":"way/1190785801"},{"type":"Feature","properties":{"@id":"way/1190785802","footway":"sidewalk","highway":"footway","surface":"asphalt","id":"way/1190785802"},"geometry":{"type":"LineString","coordinates":[[2.3901161,48.8827124],[2.3901292,48.8827402]]},"id":"way/1190785802"},{"type":"Feature","properties":{"@id":"way/1190785803","footway":"sidewalk","highway":"footway","surface":"asphalt","id":"way/1190785803"},"geometry":{"type":"LineString","coordinates":[[2.3921643,48.8833464],[2.3901071,48.8827454]]},"id":"way/1190785803"},{"type":"Feature","properties":{"@id":"way/1190785820","footway":"sidewalk","highway":"footway","id":"way/1190785820"},"geometry":{"type":"LineString","coordinates":[[2.3897468,48.882064],[2.3884853,48.8818404]]},"id":"way/1190785820"},{"type":"Feature","properties":{"@id":"way/1190785821","footway":"sidewalk","highway":"footway","surface":"asphalt","id":"way/1190785821"},"geometry":{"type":"LineString","coordinates":[[2.390441,48.8825173],[2.3901413,48.8819356],[2.3900951,48.8819456],[2.3900447,48.8819574],[2.3901151,48.8820908],[2.3901071,48.8821016]]},"id":"way/1190785821"},{"type":"Feature","properties":{"@id":"way/1221399026","footway":"sidewalk","highway":"footway","id":"way/1221399026"},"geometry":{"type":"LineString","coordinates":[[2.3901071,48.8821016],[2.3901131,48.8821089]]},"id":"way/1221399026"},{"type":"Feature","properties":{"@id":"way/1221399027","footway":"sidewalk","highway":"footway","id":"way/1221399027"},"geometry":{"type":"LineString","coordinates":[[2.3901671,48.882207],[2.3901535,48.8821783]]},"id":"way/1221399027"},{"type":"Feature","properties":{"@id":"way/1221519081","footway":"sidewalk","highway":"footway","surface":"asphalt","id":"way/1221519081"},"geometry":{"type":"LineString","coordinates":[[2.3901292,48.8827402],[2.3901071,48.8827454]]},"id":"way/1221519081"},{"type":"Feature","properties":{"@id":"way/1221519082","footway":"sidewalk","highway":"footway","surface":"asphalt","id":"way/1221519082"},"geometry":{"type":"LineString","coordinates":[[2.3901071,48.8827454],[2.3900984,48.8827474]]},"id":"way/1221519082"},{"type":"Feature","properties":{"@id":"way/1221519084","footway":"sidewalk","highway":"footway","surface":"asphalt","id":"way/1221519084"},"geometry":{"type":"LineString","coordinates":[[2.3899424,48.882782],[2.3899209,48.8827887]]},"id":"way/1221519084"},{"type":"Feature","properties":{"@id":"way/1247216469","footway":"sidewalk","highway":"footway","id":"way/1247216469"},"geometry":{"type":"LineString","coordinates":[[2.3901671,48.882207],[2.3897723,48.8821367],[2.3897977,48.882073]]},"id":"way/1247216469"},{"type":"Feature","properties":{"@id":"way/1247216470","footway":"sidewalk","highway":"footway","id":"way/1247216470"},"geometry":{"type":"LineString","coordinates":[[2.3901071,48.8821016],[2.3900696,48.8821212],[2.3897977,48.882073]]},"id":"way/1247216470"},{"type":"Feature","properties":{"@id":"node/2851025968","genus":"Platanus","natural":"tree","source":"opendata.paris.fr","id":"node/2851025968"},"geometry":{"type":"Point","coordinates":[2.3903345,48.8825645]},"id":"node/2851025968"},{"type":"Feature","properties":{"@id":"node/2851025970","genus":"Platanus","natural":"tree","source":"opendata.paris.fr","id":"node/2851025970"},"geometry":{"type":"Point","coordinates":[2.3902335,48.8825855]},"id":"node/2851025970"},{"type":"Feature","properties":{"@id":"node/2851025973","genus":"Platanus","natural":"tree","source":"opendata.paris.fr","id":"node/2851025973"},"geometry":{"type":"Point","coordinates":[2.3901185,48.8826115]},"id":"node/2851025973"},{"type":"Feature","properties":{"@id":"node/2851025976","genus":"Platanus","natural":"tree","source":"opendata.paris.fr","id":"node/2851025976"},"geometry":{"type":"Point","coordinates":[2.3900025,48.8826355]},"id":"node/2851025976"},{"type":"Feature","properties":{"@id":"node/2851025979","genus":"Platanus","natural":"tree","source":"opendata.paris.fr","id":"node/2851025979"},"geometry":{"type":"Point","coordinates":[2.3899015,48.8826585]},"id":"node/2851025979"},{"type":"Feature","properties":{"@id":"node/2851025982","genus":"Platanus","natural":"tree","source":"opendata.paris.fr","id":"node/2851025982"},"geometry":{"type":"Point","coordinates":[2.3897805,48.8826845]},"id":"node/2851025982"},{"type":"Feature","properties":{"@id":"node/2851025983","genus":"Platanus","natural":"tree","source":"opendata.paris.fr","id":"node/2851025983"},"geometry":{"type":"Point","coordinates":[2.3902941,48.8826924]},"id":"node/2851025983"},{"type":"Feature","properties":{"@id":"node/2851025984","genus":"Platanus","natural":"tree","source":"opendata.paris.fr","id":"node/2851025984"},"geometry":{"type":"Point","coordinates":[2.3896655,48.8827095]},"id":"node/2851025984"},{"type":"Feature","properties":{"@id":"node/2851025987","genus":"Platanus","natural":"tree","source":"opendata.paris.fr","id":"node/2851025987"},"geometry":{"type":"Point","coordinates":[2.3895555,48.8827335]},"id":"node/2851025987"},{"type":"Feature","properties":{"@id":"node/2851025988","genus":"Platanus","natural":"tree","source":"opendata.paris.fr","id":"node/2851025988"},"geometry":{"type":"Point","coordinates":[2.3894465,48.8827595]},"id":"node/2851025988"},{"type":"Feature","properties":{"@id":"node/2851025990","genus":"Platanus","natural":"tree","source":"opendata.paris.fr","id":"node/2851025990"},"geometry":{"type":"Point","coordinates":[2.3893295,48.8827845]},"id":"node/2851025990"},{"type":"Feature","properties":{"@id":"node/2851025992","genus":"Platanus","natural":"tree","source":"opendata.paris.fr","id":"node/2851025992"},"geometry":{"type":"Point","coordinates":[2.3898368,48.8827906]},"id":"node/2851025992"},{"type":"Feature","properties":{"@id":"node/12684810434","genus":"Tilia","leaf_cycle":"deciduous","leaf_type":"broadleaved","natural":"tree","id":"node/12684810434"},"geometry":{"type":"Point","coordinates":[2.3890424,48.8825375]},"id":"node/12684810434"}]}