{"type":"FeatureCollection","features":[{"type":"Feature","properties":{"@id":"way/56697024","building":"yes","source":"cadastre-dgi-fr source : Direction Générale des Impôts - Cadastre. Mise à jour : 2010","id":"way/56697024"},"geometry":{"type":"Polygon","coordinates":[[[2.359385,48.8638861],[2.3592189,48.8637415],[2.3591724,48.8637028],[2.3591409,48.8636747],[2.3591403,48.8636707],[2.3591493,48.8636651],[2.3591622,48.863666],[2.3592703,48.8636133],[2.3595051,48.8638226],[2.3595,48.8638256],[2.3594966,48.8638232],[2.3594342,48.8638584],[2.359385,48.8638861]]]},"id":"way/56697024"},{"type":"Feature","properties":{"@id":"way/56697025","building":"apartments","source":"cadastre-dgi-fr source : Direction Générale des Impôts - Cadastre. Mise à jour : 2010","id":"way/56697025"},"geometry":{"type":"Polygon","coordinates":[[[2.3588367,48.8639071],[2.3590386,48.8637861],[2.3591191,48.8637363],[2.3591474,48.8637186],[2.3591946,48.8637558],[2.3590634,48.8638349],[2.3589739,48.8638882],[2.3588728,48.8639461],[2.3588683,48.8639412],[2.3588367,48.8639071]]]},"id":"way/56697025"},{"type":"Feature","properties":{"@id":"way/56697043","building":"yes","building:levels":"6","source":"cadastre-dgi-fr source : Direction Générale des Impôts - Cadastre. Mise à jour : 2010","id":"way/56697043"},"geometry":{"type":"Polygon","coordinates":[[[2.3590037,48.8630716],[2.3591414,48.8632087],[2.3591029,48.8632274],[2.359068,48.8632441],[2.3589318,48.8631048],[2.3589445,48.8630982],[2.358998,48.8630704],[2.3590008,48.8630726],[2.3590037,48.8630716]]]},"id":"way/56697043"},{"type":"Feature","properties":{"@id":"way/56697044","building":"yes","source":"cadastre-dgi-fr source : Direction Générale des Impôts - Cadastre. Mise à jour : 2010","id":"way/56697044"},"geometry":{"type":"Polygon","coordinates":[[[2.3588958,48.8637178],[2.3589514,48.8636841],[2.3590083,48.8636491],[2.3590781,48.8636056],[2.3590222,48.8635535],[2.3592386,48.8634482],[2.3593733,48.8635634],[2.3592703,48.8636133],[2.3591622,48.863666],[2.3591493,48.8636651],[2.3591403,48.8636707],[2.3591409,48.8636747],[2.3591724,48.8637028],[2.3591474,48.8637186],[2.3591191,48.8637363],[2.3590533,48.8636879],[2.3589624,48.8637413],[2.3589362,48.8637231],[2.3589184,48.8637342],[2.3588958,48.8637178]]]},"id":"way/56697044"},{"type":"Feature","properties":{"@id":"way/56697056","building":"apartments","source":"cadastre-dgi-fr source : Direction Générale des Impôts - Cadastre. Mise à jour : 2010","id":"way/56697056"},"geometry":{"type":"Polygon","coordinates":[[[2.3599957,48.8635735],[2.3598107,48.8634063],[2.3598279,48.8633982],[2.3598688,48.8634371],[2.3599668,48.8633854],[2.3601177,48.8635132],[2.3600564,48.8635435],[2.3599957,48.8635735]]]},"id":"way/56697056"},{"type":"Feature","properties":{"@id":"way/56697069","building":"apartments","source":"cadastre-dgi-fr source : Direction Générale des Impôts - Cadastre. Mise à jour : 2010","id":"way/56697069"},"geometry":{"type":"Polygon","coordinates":[[[2.3598122,48.8636613],[2.3597616,48.8636154],[2.3598038,48.8635937],[2.3597681,48.8635619],[2.359765,48.8635623],[2.3597313,48.863533],[2.3597343,48.8635313],[2.3596949,48.8634966],[2.3596521,48.8635181],[2.3595859,48.8634578],[2.3597633,48.8633722],[2.3598001,48.863404],[2.3598051,48.8634013],[2.3598107,48.8634063],[2.3599957,48.8635735],[2.3599454,48.8635982],[2.3599068,48.8636172],[2.3599016,48.8636173],[2.359898,48.8636145],[2.3598122,48.8636613]]]},"id":"way/56697069"},{"type":"Feature","properties":{"@id":"way/56697070","building":"yes","source":"cadastre-dgi-fr source : Direction Générale des Impôts - Cadastre. Mise à jour : 2010","id":"way/56697070"},"geometry":{"type":"Polygon","coordinates":[[[2.3589318,48.8631048],[2.359068,48.8632441],[2.3590856,48.8632626],[2.3590991,48.8632763],[2.3590684,48.863292],[2.3589902,48.8633318],[2.3588747,48.8632153],[2.3589281,48.8631889],[2.3588765,48.8631327],[2.3588837,48.8631291],[2.3589318,48.8631048]]]},"id":"way/56697070"},{"type":"Feature","properties":{"@id":"way/56697071","building":"apartments","source":"cadastre-dgi-fr source : Direction Générale des Impôts - Cadastre. Mise à jour : 2010","id":"way/56697071"},"geometry":{"type":"Polygon","coordinates":[[[2.3601713,48.8629789],[2.3600969,48.8630163],[2.3600576,48.8630355],[2.3594693,48.8633357],[2.3593678,48.8632361],[2.3594375,48.8632051],[2.3594238,48.8631918],[2.3595615,48.8631253],[2.3600572,48.8628912],[2.3600657,48.8628872],[2.360111,48.8629265],[2.3601713,48.8629789]]]},"id":"way/56697071"},{"type":"Feature","properties":{"@id":"way/16877072","highway":"residential","maxspeed":"30","name":"Rue Portefoin","oneway":"yes","oneway:bicycle":"no","sidewalk:both":"separate","surface":"asphalt","id":"way/16877072"},"geometry":{"type":"LineString","coordinates":[[2.3590184,48.8641565],[2.3590727,48.8641232],[2.359477,48.8638796],[2.3596859,48.8637688],[2.3605882,48.8633236],[2.3606234,48.8633062]]},"id":"way/16877072"},{"type":"Feature","properties":{"@id":"way/1190149063","footway":"sidewalk","highway":"footway","id":"way/1190149063"},"geometry":{"type":"LineString","coordinates":[[2.3605716,48.8633092],[2.3605635,48.8633039],[2.3602252,48.8634699],[2.35967,48.8637443],[2.3592965,48.8639459],[2.3590471,48.8640994],[2.3590531,48.8641047]]},"id":"way/1190149063"},{"type":"Feature","properties":{"@id":"way/1190149065","footway":"sidewalk","highway":"footway","id":"way/1190149065"},"geometry":{"type":"LineString","coordinates":[[2.3590964,48.8641437],[2.3595024,48.8639309],[2.3595044,48.8638885],[2.3597579,48.8637703],[2.3598175,48.8637655],[2.3601213,48.8636001],[2.3602192,48.8635374],[2.3606144,48.8633448],[2.360604,48.8633373]]},"id":"way/1190149065"},{"type":"Feature","properties":{"@id":"way/1198954068","highway":"footway","surface":"sett","tunnel":"building_passage","id":"way/1198954068"},"geometry":{"type":"LineString","coordinates":[[2.3602359,48.8630338],[2.3601603,48.8630708]]},"id":"way/1198954068"},{"type":"Feature","properties":{"@id":"way/1198954069","highway":"footway","surface":"sett","id":"way/1198954069"},"geometry":{"type":"LineString","coordinates":[[2.3601603,48.8630708],[2.3599967,48.8631479]]},"id":"way/1198954069"},{"type":"Feature","properties":{"@id":"node/11851469184","addr:city":"Paris","addr:housenumber":"14","addr:postcode":"75003","addr:street":"Rue Portefoin","brand":"Bless","clothes":"fashion","email":"shop@blessparis.com","name":"BLESS Shop Paris","opening_hours":"Tu-Sa 14:00-19:00","payment:credit_cards":"yes","payment:debit_cards":"yes","phone":"+33148016743","shop":"clothes","id":"node/11851469184"},"geometry":{"type":"Point","coordinates":[2.3596648,48.8638592]},"id":"node/11851469184"},{"type":"Feature","properties":{"@id":"node/12909355592","addr:housenumber":"32","addr:street":"Rue Pastourelle","check_date":"2025-06-12","name":"Divine","ref:FR:SIRET":"53535849300026","shop":"jewelry","id":"node/12909355592"},"geometry":{"type":"Point","coordinates":[2.3591317,48.8630462]},"id":"node/12909355592"},{"type":"Feature","properties":{"@id":"node/13068347402","addr:housenumber":"6","addr:postcode":"75003","addr:street":"Rue Portefoin","amenity":"cafe","contact:instagram":"rectoversocafe","cuisine":"coffee_shop","name":"RECTO VERSO","opening_hours":"We-Su 09:00-17:00","id":"node/13068347402"},"geometry":{"type":"Point","coordinates":[2.3602986,48.863511]},"id":"node/13068347402"},{"type":"Feature","properties":{"@id":"node/13070837101","addr:housenumber":"6","addr:postcode":"75003","addr:street":"Rue Portefoin","amenity":"cafe","contact:instagram":"rectoversocafe","cuisine":"cake;coffee_shop;tea","name":"RECTO VERSO","opening_hours":"We-Su 09:00-16:30","id":"node/13070837101"},"geometry":{"type":"Point","coordinates":[2.3603059,48.863532]},"id":"node/13070837101"},{"type":"Feature","properties":{"@id":"node/13382385980","name":"Atelier Mondineu","shop":"frame","id":"node/13382385980"},"geometry":{"type":"Point","coordinates":[2.3589941,48.8631053]},"id":"node/13382385980"},{"type":"Feature","properties":{"@id":"node/13382385981","name":"Ets Longueville","shop":"frame","id":"node/13382385981"},"geometry":{"type":"Point","coordinates":[2.3590612,48.8630751]},"id":"node/13382385981"}]}