{"type":"FeatureCollection","features":[{"type":"Feature","properties":{"@id":"way/55036549","amenity":"events_venue","building":"yes","building:levels":"2","name":"Espace Commines","source":"cadastre-dgi-fr source : Direction Générale des Impôts - Cadastre ; mise à jour : 2010","id":"way/55036549"},"geometry":{"type":"Polygon","coordinates":[[[2.3657935,48.8624185],[2.3659556,48.8622668],[2.3660727,48.8621577],[2.3661794,48.8622047],[2.3662869,48.862252],[2.365999,48.8625182],[2.3659572,48.8624974],[2.3660248,48.8624346],[2.3659096,48.8623787],[2.3658407,48.8624413],[2.3657935,48.8624185]]]},"id":"way/55036549"},{"type":"Feature","properties":{"@id":"way/57870500","building":"yes","source":"cadastre-dgi-fr source : Direction Générale des Impôts - Cadastre. Mise à jour : 2010","id":"way/57870500"},"geometry":{"type":"Polygon","coordinates":[[[2.3661072,48.8628658],[2.365845,48.8631003],[2.3658365,48.8630989],[2.3658192,48.8630943],[2.3658361,48.8630807],[2.3658076,48.8630649],[2.3657831,48.8630852],[2.3657174,48.8630676],[2.3658328,48.8629664],[2.3658866,48.8629931],[2.36592,48.8629641],[2.3659121,48.8629603],[2.3659121,48.8629526],[2.3659255,48.8629405],[2.3659323,48.8629401],[2.3659406,48.8629449],[2.3659701,48.8629193],[2.3659161,48.8628921],[2.366005,48.8628114],[2.3660261,48.8628226],[2.3661072,48.8628658]]]},"id":"way/57870500"},{"type":"Feature","properties":{"@id":"way/57871790","architect":"Léon Daubourg","building":"apartments","building:levels":"6","roof:levels":"1","source":"cadastre-dgi-fr source : Direction Générale des Impôts - Cadastre. Mise à jour : 2010","id":"way/57871790"},"geometry":{"type":"Polygon","coordinates":[[[2.3663063,48.8627931],[2.3663821,48.8626296],[2.3664894,48.86265],[2.3665913,48.8626658],[2.366567,48.8627656],[2.3665409,48.8628735],[2.3664888,48.8628865],[2.3663939,48.8628379],[2.3663448,48.8628128],[2.3663063,48.8627931]]]},"id":"way/57871790"},{"type":"Feature","properties":{"@id":"way/57871792","building":"yes","building:levels":"4","source":"cadastre-dgi-fr source : Direction Générale des Impôts - Cadastre. Mise à jour : 2010","id":"way/57871792"},"geometry":{"type":"Polygon","coordinates":[[[2.3664308,48.862519],[2.3662545,48.8624864],[2.3662729,48.8624373],[2.3664536,48.8624706],[2.3664308,48.862519]]]},"id":"way/57871792"},{"type":"Feature","properties":{"@id":"way/57871796","building":"yes","source":"cadastre-dgi-fr source : Direction Générale des Impôts - Cadastre. Mise à jour : 2010","id":"way/57871796"},"geometry":{"type":"Polygon","coordinates":[[[2.3658344,48.862213],[2.3657946,48.8621959],[2.3658099,48.8621836],[2.3658305,48.8621919],[2.3658347,48.8621884],[2.365853,48.8621961],[2.3658344,48.862213]]]},"id":"way/57871796"},{"type":"Feature","properties":{"@id":"way/57871799","building":"retail","building:levels":"3","source":"cadastre-dgi-fr source : Direction Générale des Impôts - Cadastre. Mise à jour : 2010","id":"way/57871799"},"geometry":{"type":"Polygon","coordinates":[[[2.3663821,48.8626296],[2.3664308,48.862519],[2.3664536,48.8624706],[2.3664585,48.8624646],[2.3665119,48.8623497],[2.3665732,48.8623767],[2.366572,48.8623786],[2.3665663,48.8623781],[2.3665164,48.8624474],[2.3665024,48.8624494],[2.3665,48.8624571],[2.3665617,48.8624651],[2.3665964,48.8624041],[2.3665955,48.8624016],[2.3666021,48.8623899],[2.3666511,48.8624112],[2.3666256,48.8625198],[2.3666044,48.86261],[2.3665913,48.8626658],[2.3664894,48.86265],[2.3663821,48.8626296]]]},"id":"way/57871799"},{"type":"Feature","properties":{"@id":"way/57871802","building":"yes","building:levels":"6","source":"cadastre-dgi-fr source : Direction Générale des Impôts - Cadastre. Mise à jour : 2010","id":"way/57871802"},"geometry":{"type":"Polygon","coordinates":[[[2.3660727,48.8621577],[2.3659556,48.8622668],[2.3659193,48.8622495],[2.3659507,48.8622206],[2.3658669,48.8621839],[2.3659495,48.8621041],[2.3660214,48.8621354],[2.3660727,48.8621577]]]},"id":"way/57871802"},{"type":"Feature","properties":{"@id":"way/57871805","architect":"Villemsens","building":"apartments","source":"cadastre-dgi-fr source : Direction Générale des Impôts - Cadastre. Mise à jour : 2010","start_date":"1847","id":"way/57871805"},"geometry":{"type":"Polygon","coordinates":[[[2.3665119,48.8623497],[2.3664585,48.8624646],[2.3664251,48.8624584],[2.3664131,48.8624486],[2.3664283,48.8624146],[2.3664508,48.8624098],[2.3664527,48.862406],[2.3663236,48.8623817],[2.366322,48.8623865],[2.3663406,48.8623964],[2.3663266,48.862433],[2.3663074,48.8624368],[2.3662754,48.8624306],[2.3663318,48.8622711],[2.3664296,48.8623138],[2.3665119,48.8623497]]]},"id":"way/57871805"},{"type":"Feature","properties":{"@id":"way/1276495989","building":"yes","building:levels":"5","roof:levels":"1","source":"cadastre-dgi-fr source : Direction Générale des Impôts - Cadastre ; mise à jour : 2010","id":"way/1276495989"},"geometry":{"type":"Polygon","coordinates":[[[2.365999,48.8625182],[2.3659175,48.8625927],[2.3658007,48.8625326],[2.3657174,48.8624897],[2.3657935,48.8624185],[2.3658407,48.8624413],[2.3659572,48.8624974],[2.365999,48.8625182]]]},"id":"way/1276495989"},{"type":"Feature","properties":{"@id":"way/1365835826","area":"yes","footway":"sidewalk","highway":"footway","highway:area":"yes","lit":"yes","noname":"yes","smoothness":"good","surface":"asphalt","id":"way/1365835826"},"geometry":{"type":"Polygon","coordinates":[[[2.3672356,48.8625186],[2.3672729,48.862557],[2.3672839,48.8625619],[2.3672691,48.8625707],[2.3672496,48.8625755],[2.3672311,48.862575],[2.3672139,48.8625716],[2.367197,48.8625656],[2.3670756,48.8625083],[2.3670414,48.8624875],[2.3670243,48.8624674],[2.3670186,48.8624511],[2.3670216,48.8624335],[2.3671031,48.8624783],[2.3671454,48.8624818],[2.3672356,48.8625186]]]},"id":"way/1365835826"},{"type":"Feature","properties":{"@id":"way/4039537","busway:right":"lane","cycleway:left":"lane","cycleway:left:lane":"advisory","cycleway:left:oneway":"-1","cycleway:right":"share_busway","highway":"tertiary","lane_markings":"no","lit":"yes","maxspeed":"30","maxspeed:type":"FR:zone30","name":"Rue Oberkampf","name:etymology:wikidata":"Q74518","oneway":"yes","oneway:bicycle":"no","sidewalk:both":"separate","smoothness":"good","surface":"asphalt","traffic:hourly":"370","traffic:hourly:source":"Open Data Paris 2019 : Comptage routier - Données trafic issues des capteurs permanents","id":"way/4039537"},"geometry":{"type":"LineString","coordinates":[[2.3668914,48.862463],[2.3671959,48.8625978],[2.3672215,48.8626091],[2.3673118,48.8626491]]},"id":"way/4039537"},{"type":"Feature","properties":{"@id":"way/4574404","cycleway:left":"lane","cycleway:left:oneway":"-1","highway":"tertiary","lane_markings":"no","lit":"yes","maxspeed":"30","name":"Rue des Filles du Calvaire","name:etymology:wikidata":"Q33500094","oneway":"yes","oneway:bicycle":"no","sidewalk":"separate","smoothness":"good","surface":"asphalt","id":"way/4574404"},"geometry":{"type":"LineString","coordinates":[[2.3667404,48.8631027],[2.36657,48.863015],[2.364994,48.8621984],[2.3647538,48.8620793],[2.3646603,48.8620177],[2.3645917,48.8619235]]},"id":"way/4574404"},{"type":"Feature","properties":{"@id":"way/10659447","highway":"tertiary","lit":"yes","maxspeed":"30","maxspeed:type":"sign","name":"Rue Commines","name:etymology:wikidata":"Q437423","oneway":"yes","sidewalk:both":"separate","smoothness":"good","surface":"asphalt","id":"way/10659447"},"geometry":{"type":"LineString","coordinates":[[2.3646013,48.8614765],[2.3646973,48.8615148],[2.3651616,48.861717],[2.3652567,48.8617571],[2.3653445,48.8617965],[2.3655432,48.8618854],[2.3659881,48.8620778],[2.3666969,48.8623854],[2.3668914,48.862463]]},"id":"way/10659447"},{"type":"Feature","properties":{"@id":"way/683635970","busway":"lane","cycleway:both":"share_busway","enforcement:operator":"Police nationale","highway":"primary","lanes":"4","lit":"yes","maxspeed":"30","name":"Boulevard des Filles du Calvaire","name:etymology:wikidata":"Q33500094","name:zh":"加略山女儿大道","operator":"Ville de Paris","operator:authority":"Maire de Paris après avis du préfet de police","operator:authority:related_law":"IV de l'article L. 2512-14 du code général des collectivités territoriales","operator:url":"https://cdn.paris.fr/paris/2020/02/26/5bf469a311d0beb9911e92d113781550.ai","sidewalk:both":"separate","smoothness":"good","surface":"asphalt","id":"way/683635970"},"geometry":{"type":"LineString","coordinates":[[2.3668914,48.862463],[2.3667787,48.8629381],[2.3667404,48.8631027]]},"id":"way/683635970"},{"type":"Feature","properties":{"@id":"way/1190148771","footway":"sidewalk","highway":"footway","lit":"yes","surface":"paving_stones","id":"way/1190148771"},"geometry":{"type":"LineString","coordinates":[[2.3666877,48.8624145],[2.3653079,48.8618097],[2.3653213,48.8618051]]},"id":"way/1190148771"},{"type":"Feature","properties":{"@id":"way/1190148772","footway":"sidewalk","highway":"footway","lit":"yes","smoothness":"good","surface":"concrete","id":"way/1190148772"},"geometry":{"type":"LineString","coordinates":[[2.3666008,48.8628821],[2.3666877,48.8624145],[2.366691,48.8624031]]},"id":"way/1190148772"},{"type":"Feature","properties":{"@id":"way/1190148773","footway":"sidewalk","highway":"footway","lit":"yes","smoothness":"good","surface":"asphalt","id":"way/1190148773"},"geometry":{"type":"LineString","coordinates":[[2.3665921,48.8629271],[2.3666008,48.8628821],[2.3666616,48.8629016]]},"id":"way/1190148773"},{"type":"Feature","properties":{"@id":"way/1190148774","footway":"sidewalk","highway":"footway","lit":"yes","id":"way/1190148774"},"geometry":{"type":"LineString","coordinates":[[2.3647467,48.8620084],[2.364903,48.8620865],[2.3660188,48.8626631],[2.3664899,48.8629057],[2.3665921,48.8629271],[2.3665901,48.8629388]]},"id":"way/1190148774"},{"type":"Feature","properties":{"@id":"way/1190197048","footway":"sidewalk","highway":"footway","lit":"yes","smoothness":"excellent","surface":"concrete","id":"way/1190197048"},"geometry":{"type":"LineString","coordinates":[[2.366904,48.8615168],[2.3667853,48.862057],[2.3667568,48.8623194]]},"id":"way/1190197048"},{"type":"Feature","properties":{"@id":"way/1190197052","footway":"sidewalk","highway":"footway","lit":"yes","id":"way/1190197052"},"geometry":{"type":"LineString","coordinates":[[2.3667091,48.862353],[2.3666769,48.8623372],[2.3660235,48.8620443],[2.3654133,48.8617707],[2.3653825,48.8617823]]},"id":"way/1190197052"},{"type":"Feature","properties":{"@id":"way/1190197053","footway":"sidewalk","highway":"footway","lit":"yes","smoothness":"good","surface":"asphalt","id":"way/1190197053"},"geometry":{"type":"LineString","coordinates":[[2.3667042,48.8623636],[2.3667091,48.862353],[2.3667568,48.8623194],[2.366785,48.8623318]]},"id":"way/1190197053"},{"type":"Feature","properties":{"@id":"way/1190197060","footway":"sidewalk","highway":"footway","lit":"yes","smoothness":"good","surface":"asphalt","id":"way/1190197060"},"geometry":{"type":"LineString","coordinates":[[2.3671031,48.8624783],[2.3672889,48.8616434],[2.3673076,48.8615647],[2.3672298,48.8615541]]},"id":"way/1190197060"},{"type":"Feature","properties":{"@id":"way/1190197061","footway":"sidewalk","highway":"footway","lit":"yes","smoothness":"good","surface":"asphalt","id":"way/1190197061"},"geometry":{"type":"LineString","coordinates":[[2.3672402,48.8625429],[2.3671031,48.8624783],[2.3670216,48.8624335]]},"id":"way/1190197061"},{"type":"Feature","properties":{"@id":"way/1190197063","footway":"sidewalk","highway":"footway","lit":"yes","smoothness":"good","surface":"asphalt","id":"way/1190197063"},"geometry":{"type":"LineString","coordinates":[[2.3669002,48.8629475],[2.3669435,48.8629498],[2.3668899,48.8631541],[2.3669703,48.8632187]]},"id":"way/1190197063"},{"type":"Feature","properties":{"@id":"way/1192421242","crossing":"traffic_signals","footway":"crossing","highway":"footway","lit":"yes","smoothness":"excellent","surface":"asphalt","id":"way/1192421242"},"geometry":{"type":"LineString","coordinates":[[2.366691,48.8624031],[2.3666969,48.8623854],[2.3667042,48.8623636]]},"id":"way/1192421242"},{"type":"Feature","properties":{"@id":"way/1192421243","crossing":"traffic_signals","crossing:island":"yes","footway":"crossing","highway":"footway","lit":"yes","smoothness":"good","surface":"asphalt","id":"way/1192421243"},"geometry":{"type":"LineString","coordinates":[[2.366785,48.8623318],[2.3669139,48.8623817],[2.3670216,48.8624335]]},"id":"way/1192421243"},{"type":"Feature","properties":{"@id":"way/1192421247","crossing":"uncontrolled","crossing:markings":"yes","footway":"crossing","highway":"footway","lit":"yes","smoothness":"good","surface":"asphalt","id":"way/1192421247"},"geometry":{"type":"LineString","coordinates":[[2.3666616,48.8629016],[2.3667787,48.8629381],[2.3669002,48.8629475]]},"id":"way/1192421247"},{"type":"Feature","properties":{"@id":"way/1192421250","footway":"sidewalk","highway":"footway","lit":"yes","smoothness":"good","surface":"asphalt","id":"way/1192421250"},"geometry":{"type":"LineString","coordinates":[[2.3669435,48.8629498],[2.3669985,48.8627311],[2.3672,48.8626855]]},"id":"way/1192421250"},{"type":"Feature","properties":{"@id":"way/1192421251","crossing":"uncontrolled","crossing:markings":"yes","footway":"crossing","highway":"footway","lit":"yes","smoothness":"good","surface":"asphalt","id":"way/1192421251"},"geometry":{"type":"LineString","coordinates":[[2.3665567,48.863065],[2.36657,48.863015],[2.3665901,48.8629388]]},"id":"way/1192421251"},{"type":"Feature","properties":{"@id":"way/1283314829","busway":"lane","cycleway:both":"share_busway","enforcement:operator":"Police nationale","highway":"primary","lanes":"4","lit":"yes","maxspeed":"30","name":"Boulevard des Filles du Calvaire","name:etymology:wikidata":"Q33500094","name:zh":"加略山女儿大道","operator":"Ville de Paris","operator:authority":"Maire de Paris après avis du préfet de police","operator:authority:related_law":"IV de l'article L. 2512-14 du code général des collectivités territoriales","operator:url":"https://cdn.paris.fr/paris/2020/02/26/5bf469a311d0beb9911e92d113781550.ai","sidewalk:both":"separate","smoothness":"good","surface":"asphalt","id":"way/1283314829"},"geometry":{"type":"LineString","coordinates":[[2.3669208,48.8623537],[2.3669139,48.8623817],[2.3668914,48.862463]]},"id":"way/1283314829"},{"type":"Feature","properties":{"@id":"way/1283314830","busway:both":"lane","cycleway:left":"share_busway","cycleway:right":"lane","cycleway:right:lane":"exclusive","enforcement:operator":"Police nationale","highway":"primary","lanes":"4","lit":"yes","maxspeed":"30","name":"Boulevard des Filles du Calvaire","name:etymology:wikidata":"Q33500094","name:zh":"加略山女儿大道","operator":"Ville de Paris","operator:authority":"Maire de Paris après avis du préfet de police","operator:authority:related_law":"IV de l'article L. 2512-14 du code général des collectivités territoriales","operator:url":"https://cdn.paris.fr/paris/2020/02/26/5bf469a311d0beb9911e92d113781550.ai","sidewalk:both":"separate","smoothness":"good","surface":"asphalt","id":"way/1283314830"},"geometry":{"type":"LineString","coordinates":[[2.3669974,48.8620337],[2.3669822,48.862094],[2.3669572,48.8621854],[2.3669208,48.8623537]]},"id":"way/1283314830"},{"type":"Feature","properties":{"@id":"node/94139897","highway":"traffic_signals","id":"node/94139897"},"geometry":{"type":"Point","coordinates":[2.3668914,48.862463]},"id":"node/94139897"},{"type":"Feature","properties":{"@id":"node/1358045461","STIF:zone":"1","bench":"yes","bin":"no","bus":"yes","highway":"bus_stop","lit":"yes","name":"Oberkampf - Filles du Calvaire","public_transport":"platform","ref:FR:STIF":"26572","route_ref":"N01;91","shelter":"yes","source:wheelchair":"STIF 2019-01","tactile_paving":"no","wheelchair":"no","id":"node/1358045461"},"geometry":{"type":"Point","coordinates":[2.3668199,48.8621648]},"id":"node/1358045461"},{"type":"Feature","properties":{"@id":"node/2431316510","addr:city":"Paris","addr:postcode":"75003","name":"Laverie S.B.S.","opening_hours":"Mo-Su 07:00-22:00","self_service":"yes","shop":"laundry","id":"node/2431316510"},"geometry":{"type":"Point","coordinates":[2.3665548,48.862231]},"id":"node/2431316510"},{"type":"Feature","properties":{"@id":"node/3193963862","addr:housenumber":"16","addr:postcode":"75003","addr:street":"Rue des Filles du Calvaire","amenity":"restaurant","contact:instagram":"benti_paris","cuisine":"arab;mediterranean","name":"BENTI","opening_hours":"Mo-Fr 11:45-15:00; Sa 12:00-16:00","phone":"+33 1 86 04 19 15","ref:FR:SIRET":"98360881100011","website":"https://benti-paris.fr/","id":"node/3193963862"},"geometry":{"type":"Point","coordinates":[2.3662189,48.8627198]},"id":"node/3193963862"},{"type":"Feature","properties":{"@id":"node/3209287492","amenity":"bar","contact:city":"Paris 3eme Arrondissement","contact:housenumber":"19","contact:postcode":"75003","contact:street":"Rue Commines","cuisine":"italian","name":"Tappo","opening_hours":"Mo-Sa 18:00-02:00","phone":"+33 1 42 76 06 35","id":"node/3209287492"},"geometry":{"type":"Point","coordinates":[2.3663658,48.8623194]},"id":"node/3209287492"},{"type":"Feature","properties":{"@id":"node/3210911283","name":"La Boutique","opening_hours":"Mo-Sa 11:00-19:30","shop":"gift","id":"node/3210911283"},"geometry":{"type":"Point","coordinates":[2.3664823,48.8622013]},"id":"node/3210911283"},{"type":"Feature","properties":{"@id":"node/3213896155","name":"ChaCabo","opening_hours":"Mo-Sa 09:30-19:00","shop":"pet","id":"node/3213896155"},"geometry":{"type":"Point","coordinates":[2.3665452,48.8627244]},"id":"node/3213896155"},{"type":"Feature","properties":{"@id":"node/3213896156","addr:housenumber":"13-15","addr:postcode":"75003","addr:street":"Boulevard des Filles du Calvaire","name":"Rougier & Plé","opening_hours":"Mo-Sa 09:30-19:30","phone":"+33 1 44 54 81 00","shop":"craft","website":"https://www.rougier-ple.fr/magasin/rougier-ple-paris-3.r.html","wheelchair":"no","wikidata":"Q3443273","wikipedia":"fr:Rougier & Plé","id":"node/3213896156"},"geometry":{"type":"Point","coordinates":[2.3665454,48.8625108]},"id":"node/3213896156"},{"type":"Feature","properties":{"@id":"node/3240693701","amenity":"restaurant","cuisine":"bistro","diet:vegan":"yes","diet:vegetarian":"yes","indoor_seating":"yes","internet_access":"wlan","internet_access:fee":"no","name":"La Royale","opening_hours":"Mo-Su 07:00-02:00","outdoor_seating":"yes","phone":"+331 42 72 37 19","source":"survey","id":"node/3240693701"},"geometry":{"type":"Point","coordinates":[2.3666622,48.8622565]},"id":"node/3240693701"},{"type":"Feature","properties":{"@id":"node/3359610329","check_date":"2024-04-01","name":"Frank Arnault","shop":"clothes","id":"node/3359610329"},"geometry":{"type":"Point","coordinates":[2.3658746,48.8627964]},"id":"node/3359610329"},{"type":"Feature","properties":{"@id":"node/3475020182","addr:city":"Paris","addr:housenumber":"19","addr:postcode":"75003","addr:street":"Rue Commines","name":"SEAGALE","operator":"SEAGALE","shop":"clothes","website":"https://seagale.fr","id":"node/3475020182"},"geometry":{"type":"Point","coordinates":[2.3664618,48.8623549]},"id":"node/3475020182"},{"type":"Feature","properties":{"@id":"node/3661407082","name":"Seconde vue","shop":"optician","id":"node/3661407082"},"geometry":{"type":"Point","coordinates":[2.3660266,48.8621626]},"id":"node/3661407082"},{"type":"Feature","properties":{"@id":"node/3661409992","check_date":"2024-04-01","name":"Helios for Men","shop":"clothes","id":"node/3661409992"},"geometry":{"type":"Point","coordinates":[2.3658936,48.86254]},"id":"node/3661409992"},{"type":"Feature","properties":{"@id":"node/6372444345","books":"art","check_date":"2024-04-01","name":"Yvon Lambert","ref:FR:SIRET":"82411217100023","shop":"books","source":"survey","website":"https://shop.yvon-lambert.com/","id":"node/6372444345"},"geometry":{"type":"Point","coordinates":[2.3660081,48.8625992]},"id":"node/6372444345"},{"type":"Feature","properties":{"@id":"node/6438006192","amenity":"bicycle_rental","bicycle_rental":"docking_station","brand":"Vélib' Métropole","brand:wikidata":"Q1120762","brand:wikipedia":"fr:Vélib' Métropole","capacity":"21","name":"Place Pasdeloup","network":"Vélib' Métropole","network:wikidata":"Q1120762","network:wikipedia":"fr:Vélib' Métropole","operator":"Smovengo","operator:type":"private","operator:wikidata":"Q47008427","operator:wikipedia":"fr:Smovengo","ref":"11043","source":"Autolib Velib Métropole - 04/2020","unsigned_ref":"100918666","wikidata":"Q86254548","id":"node/6438006192"},"geometry":{"type":"Point","coordinates":[2.3670987,48.8626413]},"id":"node/6438006192"},{"type":"Feature","properties":{"@id":"node/8770408905","name":"Galerie Chardon","shop":"art","website":"http://galerie-chardon.fr","id":"node/8770408905"},"geometry":{"type":"Point","coordinates":[2.3662877,48.8629992]},"id":"node/8770408905"},{"type":"Feature","properties":{"@id":"node/8833561615","name":"Distance","shop":"clothes","id":"node/8833561615"},"geometry":{"type":"Point","coordinates":[2.3661254,48.8626668]},"id":"node/8833561615"},{"type":"Feature","properties":{"@id":"node/8833561616","check_date":"2026-01-11","check_date:opening_hours":"2026-01-11","name":"LatexBio","opening_hours":"11:00-19:00","phone":"+33 1 75 85 83 21","ref:FR:SIRET":"83322226800033","shop":"bed","website":"https://latexb.io","id":"node/8833561616"},"geometry":{"type":"Point","coordinates":[2.366289,48.8627571]},"id":"node/8833561616"},{"type":"Feature","properties":{"@id":"node/10032478445","name":"Marché Noir","shop":"clothes","id":"node/10032478445"},"geometry":{"type":"Point","coordinates":[2.3666035,48.8622546]},"id":"node/10032478445"},{"type":"Feature","properties":{"@id":"node/10973748619","amenity":"bench","backrest":"yes","material":"wood","id":"node/10973748619"},"geometry":{"type":"Point","coordinates":[2.3670746,48.8630065]},"id":"node/10973748619"},{"type":"Feature","properties":{"@id":"node/10973748620","amenity":"bench","backrest":"yes","material":"wood","id":"node/10973748620"},"geometry":{"type":"Point","coordinates":[2.3671051,48.8629002]},"id":"node/10973748620"},{"type":"Feature","properties":{"@id":"node/10973748621","amenity":"bench","backrest":"yes","material":"wood","id":"node/10973748621"},"geometry":{"type":"Point","coordinates":[2.3671203,48.8628451]},"id":"node/10973748621"},{"type":"Feature","properties":{"@id":"node/10973748622","amenity":"bench","backrest":"yes","material":"wood","id":"node/10973748622"},"geometry":{"type":"Point","coordinates":[2.3670457,48.8628391]},"id":"node/10973748622"},{"type":"Feature","properties":{"@id":"node/10973748623","amenity":"bench","backrest":"yes","material":"wood","id":"node/10973748623"},"geometry":{"type":"Point","coordinates":[2.3670228,48.8628972]},"id":"node/10973748623"},{"type":"Feature","properties":{"@id":"node/10973748624","amenity":"bench","backrest":"yes","material":"wood","id":"node/10973748624"},"geometry":{"type":"Point","coordinates":[2.3670061,48.8630015]},"id":"node/10973748624"},{"type":"Feature","properties":{"@id":"node/10973748628","leaf_type":"broadleaved","natural":"tree","id":"node/10973748628"},"geometry":{"type":"Point","coordinates":[2.3670685,48.8630285]},"id":"node/10973748628"},{"type":"Feature","properties":{"@id":"node/10973748629","leaf_type":"broadleaved","natural":"tree","id":"node/10973748629"},"geometry":{"type":"Point","coordinates":[2.3670822,48.8629764]},"id":"node/10973748629"},{"type":"Feature","properties":{"@id":"node/10973748630","leaf_type":"broadleaved","natural":"tree","id":"node/10973748630"},"geometry":{"type":"Point","coordinates":[2.3671081,48.8628732]},"id":"node/10973748630"}]}