{"type":"FeatureCollection","features":[{"type":"Feature","properties":{"@id":"way/57932533","building":"yes","source":"cadastre-dgi-fr source : Direction Générale des Impôts - Cadastre. Mise à jour : 2010","id":"way/57932533"},"geometry":{"type":"Polygon","coordinates":[[[2.3668106,48.8604436],[2.3666757,48.8604439],[2.3666708,48.8603639],[2.366743,48.8603614],[2.3667426,48.860329],[2.3667302,48.8603289],[2.3667267,48.8602865],[2.3667391,48.8602863],[2.3667379,48.860253],[2.3666641,48.8602547],[2.3666556,48.8601453],[2.3667192,48.860145],[2.3667925,48.8601447],[2.3667991,48.8602627],[2.3668063,48.8603758],[2.3668106,48.8604436]]]},"id":"way/57932533"},{"type":"Feature","properties":{"@id":"way/57932546","building":"yes","building:levels":"5","source":"cadastre-dgi-fr source : Direction Générale des Impôts - Cadastre. Mise à jour : 2010","id":"way/57932546"},"geometry":{"type":"Polygon","coordinates":[[[2.3658907,48.8602618],[2.3657194,48.8602194],[2.3657197,48.8601878],[2.36572,48.8601615],[2.3658229,48.8601594],[2.3658994,48.860158],[2.3659039,48.8602498],[2.3658989,48.8602543],[2.3658907,48.8602618]]]},"id":"way/57932546"},{"type":"Feature","properties":{"@id":"way/57932568","building":"apartments","building:levels":"6","source":"cadastre-dgi-fr source : Direction Générale des Impôts - Cadastre. Mise à jour : 2010","id":"way/57932568"},"geometry":{"type":"Polygon","coordinates":[[[2.3661285,48.8603256],[2.3659507,48.8602779],[2.3659513,48.8602594],[2.3660573,48.8602598],[2.3660573,48.8602405],[2.3659183,48.8602411],[2.3659176,48.860254],[2.3658989,48.8602543],[2.3659039,48.8602498],[2.3658994,48.860158],[2.3659962,48.8601566],[2.3661186,48.8601549],[2.3661285,48.8603256]]]},"id":"way/57932568"},{"type":"Feature","properties":{"@id":"way/58150011","building":"yes","building:levels":"7","source":"cadastre-dgi-fr source : Direction Générale des Impôts - Cadastre. Mise à jour : 2010","id":"way/58150011"},"geometry":{"type":"Polygon","coordinates":[[[2.3661949,48.8600643],[2.3661936,48.8599572],[2.3663023,48.8599553],[2.3663206,48.8599461],[2.3663966,48.8597342],[2.3665597,48.8597332],[2.3664958,48.8599051],[2.3664445,48.8600434],[2.3664143,48.8600607],[2.3663139,48.8600623],[2.3661949,48.8600643]]]},"id":"way/58150011"},{"type":"Feature","properties":{"@id":"way/58150016","building":"apartments","building:levels":"5","source":"cadastre-dgi-fr source : Direction Générale des Impôts - Cadastre. Mise à jour : 2010","id":"way/58150016"},"geometry":{"type":"Polygon","coordinates":[[[2.3666728,48.8600839],[2.3667357,48.8599011],[2.3668778,48.8599224],[2.3669122,48.8598381],[2.3672587,48.8599121],[2.3672407,48.8599854],[2.3672254,48.8600475],[2.367105,48.8600491],[2.3670444,48.8600726],[2.3670286,48.8600729],[2.3670406,48.8600524],[2.3670906,48.8600496],[2.3671064,48.8600034],[2.3671616,48.8600075],[2.3671791,48.8599487],[2.3671253,48.8599422],[2.3671274,48.859934],[2.367009,48.8599125],[2.366981,48.8599836],[2.3667784,48.8599504],[2.3667574,48.8600114],[2.3669377,48.8600346],[2.3669184,48.8600795],[2.3667264,48.8600829],[2.3666728,48.8600839]]]},"id":"way/58150016"},{"type":"Feature","properties":{"@id":"way/58150043","building":"apartments","source":"cadastre-dgi-fr source : Direction Générale des Impôts - Cadastre. Mise à jour : 2010","id":"way/58150043"},"geometry":{"type":"Polygon","coordinates":[[[2.3669636,48.8596439],[2.3669764,48.8596043],[2.3671549,48.8596311],[2.3671867,48.8595371],[2.3670077,48.8595088],[2.367022,48.8594689],[2.3672073,48.8594982],[2.3673516,48.8595189],[2.3673302,48.8596084],[2.367309,48.8596974],[2.3669636,48.8596439]]]},"id":"way/58150043"},{"type":"Feature","properties":{"@id":"way/58150056","building":"yes","source":"cadastre-dgi-fr source : Direction Générale des Impôts - Cadastre. Mise à jour : 2010","id":"way/58150056"},"geometry":{"type":"Polygon","coordinates":[[[2.3666147,48.8598823],[2.3667357,48.8599011],[2.3666728,48.8600839],[2.3665399,48.8600862],[2.3665574,48.8600385],[2.3665868,48.8599582],[2.3666147,48.8598823]]]},"id":"way/58150056"},{"type":"Feature","properties":{"@id":"way/58150057","building":"yes","building:levels":"4","source":"cadastre-dgi-fr source : Direction Générale des Impôts - Cadastre. Mise à jour : 2010","id":"way/58150057"},"geometry":{"type":"Polygon","coordinates":[[[2.3667837,48.8594313],[2.367022,48.8594689],[2.3670077,48.8595088],[2.3670046,48.8595083],[2.3670002,48.8595158],[2.3669226,48.8595036],[2.3669254,48.8594956],[2.3668493,48.8594838],[2.3668148,48.8595797],[2.3668501,48.8595859],[2.366854,48.8595771],[2.3668894,48.8595828],[2.3668872,48.8595911],[2.3669764,48.8596043],[2.3669636,48.8596439],[2.3667195,48.8596053],[2.3667492,48.8595247],[2.3667837,48.8594313]]]},"id":"way/58150057"},{"type":"Feature","properties":{"@id":"way/10659511","cycleway":"opposite","highway":"residential","maxspeed":"30","name":"Rue Saint-Claude","name:etymology:wikidata":"Q1211272","oneway":"yes","sidewalk:both":"separate","surface":"asphalt","id":"way/10659511"},"geometry":{"type":"LineString","coordinates":[[2.3645557,48.8601353],[2.3646548,48.8601339],[2.3656091,48.8601181],[2.3656663,48.8601172],[2.3657352,48.8601168],[2.3664704,48.8601124]]},"id":"way/10659511"},{"type":"Feature","properties":{"@id":"way/21113519","cycleway":"opposite","highway":"residential","maxspeed":"30","name":"Rue des Arquebusiers","name:etymology:wikidata":"Q3621523","oneway":"yes","oneway:bicycle":"no","sidewalk:both":"separate","surface":"asphalt","id":"way/21113519"},"geometry":{"type":"LineString","coordinates":[[2.367673,48.8592518],[2.3674817,48.859225],[2.36691,48.8591379],[2.3668697,48.8591348],[2.366847,48.8591414],[2.3668373,48.85916],[2.3664873,48.8600722],[2.3664704,48.8601124]]},"id":"way/21113519"},{"type":"Feature","properties":{"@id":"way/364241253","cycleway":"opposite","highway":"residential","maxspeed":"30","name":"Rue Saint-Claude","name:etymology:wikidata":"Q1211272","oneway":"yes","sidewalk:both":"separate","sidewalk:both:surface":"paving_stones","smoothness":"intermediate","surface":"sett","id":"way/364241253"},"geometry":{"type":"LineString","coordinates":[[2.3664704,48.8601124],[2.3665321,48.8601118],[2.3665586,48.8601115],[2.3672798,48.8601042],[2.3674655,48.8601004]]},"id":"way/364241253"},{"type":"Feature","properties":{"@id":"way/1190196665","crossing":"uncontrolled","crossing:markings":"yes","footway":"crossing","highway":"footway","id":"way/1190196665"},"geometry":{"type":"LineString","coordinates":[[2.3665593,48.8600961],[2.3665586,48.8601115],[2.3665569,48.8601256]]},"id":"way/1190196665"},{"type":"Feature","properties":{"@id":"way/1190196666","crossing":"uncontrolled","crossing:markings":"yes","footway":"crossing","highway":"footway","id":"way/1190196666"},"geometry":{"type":"LineString","coordinates":[[2.3665284,48.8600711],[2.3664873,48.8600722],[2.366458,48.8600705]]},"id":"way/1190196666"},{"type":"Feature","properties":{"@id":"way/1190197020","footway":"sidewalk","highway":"footway","surface":"sett","id":"way/1190197020"},"geometry":{"type":"LineString","coordinates":[[2.3664483,48.8600678],[2.366223,48.8600731],[2.3657318,48.8600806],[2.3657332,48.8601045]]},"id":"way/1190197020"},{"type":"Feature","properties":{"@id":"way/1190197021","footway":"sidewalk","highway":"footway","id":"way/1190197021"},"geometry":{"type":"LineString","coordinates":[[2.366458,48.8600705],[2.3664483,48.8600678],[2.3667942,48.8591359],[2.3667993,48.8591306],[2.3668057,48.859109],[2.3668349,48.8591001],[2.3674226,48.8591957],[2.3674813,48.8591957],[2.3674888,48.8592075]]},"id":"way/1190197021"},{"type":"Feature","properties":{"@id":"way/1190197026","footway":"sidewalk","highway":"footway","smoothness":"good","surface":"concrete","id":"way/1190197026"},"geometry":{"type":"LineString","coordinates":[[2.3665375,48.8600729],[2.3668818,48.8591626],[2.3668899,48.8591584],[2.3668835,48.8591549]]},"id":"way/1190197026"},{"type":"Feature","properties":{"@id":"way/1190197027","footway":"sidewalk","highway":"footway","id":"way/1190197027"},"geometry":{"type":"LineString","coordinates":[[2.3665613,48.8600901],[2.3665375,48.860089],[2.3665355,48.8600848],[2.3665375,48.8600729],[2.3665284,48.8600711]]},"id":"way/1190197027"},{"type":"Feature","properties":{"@id":"way/1190197028","footway":"sidewalk","highway":"footway","smoothness":"good","surface":"paving_stones","id":"way/1190197028"},"geometry":{"type":"LineString","coordinates":[[2.3665593,48.8600961],[2.3665613,48.8600901],[2.3670448,48.860082],[2.3671125,48.8600624],[2.3672838,48.8600595],[2.3672802,48.8600839]]},"id":"way/1190197028"},{"type":"Feature","properties":{"@id":"way/1190197031","footway":"sidewalk","highway":"footway","smoothness":"good","surface":"paving_stones","id":"way/1190197031"},"geometry":{"type":"LineString","coordinates":[[2.3665566,48.8601347],[2.3672771,48.8601281],[2.3672795,48.8601198]]},"id":"way/1190197031"},{"type":"Feature","properties":{"@id":"way/1190197032","footway":"sidewalk","highway":"footway","smoothness":"good","surface":"sett","id":"way/1190197032"},"geometry":{"type":"LineString","coordinates":[[2.3657322,48.8601468],[2.3665566,48.8601347],[2.3665569,48.8601256]]},"id":"way/1190197032"},{"type":"Feature","properties":{"@id":"node/718851879","addr:housenumber":"14","addr:postcode":"75003","addr:street":"Rue Saint-Claude","check_date":"2024-08-04","name":"The Frankie Shop","opening_hours":"Mo-Sa 11:00-19:00; Su 14:00-19:00","phone":"+33149965239","shop":"clothes","source":"cadastre-dgi-fr source : Direction Générale des Impôts - Cadastre. Mise à jour : 2010","website":"https://thefrankieshop.com/","id":"node/718851879"},"geometry":{"type":"Point","coordinates":[2.3658211,48.8601675]},"id":"node/718851879"},{"type":"Feature","properties":{"@id":"node/2364622122","natural":"tree","id":"node/2364622122"},"geometry":{"type":"Point","coordinates":[2.366191,48.8594696]},"id":"node/2364622122"},{"type":"Feature","properties":{"@id":"node/3209305377","addr:city":"Paris","addr:housenumber":"103","addr:postcode":"75003","addr:street":"Boulevard Beaumarchais","brand":"Franprix","brand:wikidata":"Q2420096","brand:wikipedia":"fr:Franprix","check_date":"2025-07-26","name":"Franprix","opening_hours":"Mo-Sa 08:00-22:00; Su 09:00-20:00","operator":"Groupe Casino","shop":"convenience","website":"https://www.franprix.fr/magasins/4146","wheelchair":"yes","id":"node/3209305377"},"geometry":{"type":"Point","coordinates":[2.3671296,48.8602639]},"id":"node/3209305377"},{"type":"Feature","properties":{"@id":"node/3612390959","addr:city":"Paris","addr:housenumber":"8","addr:postcode":"75003","addr:street":"Rue Saint-Claude","check_date":"2024-08-04","name":"Alain Maître Barbier","shop":"hairdresser","id":"node/3612390959"},"geometry":{"type":"Point","coordinates":[2.3665993,48.8601703]},"id":"node/3612390959"},{"type":"Feature","properties":{"@id":"node/3747940758","addr:city":"Paris","addr:housenumber":"5","addr:postcode":"75003","addr:street":"Rue Saint-Claude","name":"Wooyoungmi","phone":"+33 1 42 77 85 68","ref:FR:SIRET":"53155718900044","shop":"clothes","website":"https://www.wooyoungmi.com/","id":"node/3747940758"},"geometry":{"type":"Point","coordinates":[2.3664134,48.8600393]},"id":"node/3747940758"},{"type":"Feature","properties":{"@id":"node/8463717268","addr:city":"Paris","addr:housenumber":"8","addr:postcode":"75003","addr:street":"Rue Saint-Claude","check_date":"2024-07-01","name":"RSVP","shop":"leather","id":"node/8463717268"},"geometry":{"type":"Point","coordinates":[2.3664199,48.8601729]},"id":"node/8463717268"},{"type":"Feature","properties":{"@id":"node/11506479103","name":"Johann","shop":"clothes","id":"node/11506479103"},"geometry":{"type":"Point","coordinates":[2.3660358,48.8601689]},"id":"node/11506479103"}]}