{"type":"FeatureCollection","features":[{"type":"Feature","properties":{"@id":"way/1413581017","area":"yes","footway":"sidewalk","highway":"footway","highway:area":"footway","lit":"yes","smoothness":"good","surface":"asphalt","id":"way/1413581017"},"geometry":{"type":"Polygon","coordinates":[[[2.3543779,48.8574801],[2.3546882,48.8573672],[2.3547388,48.8573469],[2.3548112,48.8573147],[2.3548433,48.857299],[2.354946,48.8572488],[2.355237,48.8571133],[2.3552559,48.8571439],[2.3552826,48.8571804],[2.3552637,48.857192],[2.3552542,48.8571982],[2.3552451,48.8572041],[2.3551764,48.8571909],[2.3551092,48.8572208],[2.3550626,48.8572427],[2.3550596,48.8572399],[2.3549761,48.8572526],[2.3549732,48.8572545],[2.3549565,48.8572639],[2.3549435,48.8572712],[2.3549318,48.8572772],[2.3548799,48.857304],[2.3548613,48.8573134],[2.3548505,48.8573188],[2.3548426,48.8573227],[2.3547815,48.8573487],[2.3547194,48.8573751],[2.3547098,48.8573782],[2.3546053,48.8574175],[2.3545932,48.8574214],[2.3545153,48.8574483],[2.3544567,48.8574685],[2.3543922,48.8574963],[2.3543846,48.8574888],[2.3543779,48.8574801]]]},"id":"way/1413581017"},{"type":"Feature","properties":{"@id":"way/4527645","cycleway":"on_street","enforcement:operator":"Police nationale","highway":"cycleway","lanes":"1","lit":"yes","maxspeed":"30","name":"Rue de Rivoli","name:de":"Rue de Rivoli","name:eo":"Strato Rivoli","name:es":"Rue de Rivoli","name:etymology:wikidata":"Q1069936","name:fr":"Rue de Rivoli","name:ru":"Улица Риволи","name:zh":"里沃利路","oneway":"yes","operator":"Ville de Paris","operator:authority":"Maire de Paris après avis du préfet de police","operator:authority:related_law":"IV de l'article L. 2512-14 du code général des collectivités territoriales","operator:url":"https://cdn.paris.fr/paris/2020/02/26/5bf469a311d0beb9911e92d113781550.ai","smoothness":"good","source:maxspeed":"BOVP arrêté n° 2021P110904","surface":"asphalt","width":"4","id":"way/4527645"},"geometry":{"type":"LineString","coordinates":[[2.3571222,48.8561474],[2.356752,48.8562414],[2.3565953,48.8562782],[2.3564491,48.8563159],[2.3558034,48.8564688],[2.3554338,48.8565522],[2.3553579,48.8565693],[2.354968,48.8566636],[2.3539893,48.856898],[2.3539488,48.856907]]},"id":"way/4527645"},{"type":"Feature","properties":{"@id":"way/55151925","cycleway:both":"separate","enforcement:operator":"Police nationale","highway":"residential","lit":"yes","maxspeed":"30","name":"Rue de Rivoli","name:de":"Rue de Rivoli","name:eo":"Strato Rivoli","name:es":"Rue de Rivoli","name:etymology:wikidata":"Q1069936","name:fr":"Rue de Rivoli","name:ru":"Улица Риволи","name:zh":"里沃利路","oneway":"yes","operator":"Ville de Paris","operator:authority":"Maire de Paris après avis du préfet de police","operator:authority:related_law":"IV de l'article L. 2512-14 du code général des collectivités territoriales","operator:url":"https://cdn.paris.fr/paris/2020/02/26/5bf469a311d0beb9911e92d113781550.ai","psv":"yes","smoothness":"intermediate","surface":"asphalt","id":"way/55151925"},"geometry":{"type":"LineString","coordinates":[[2.3566154,48.8563185],[2.356469,48.8563523],[2.3562269,48.8564108],[2.3558244,48.8565057],[2.3556114,48.8565564],[2.3554549,48.8565933],[2.3553809,48.8566106],[2.3549917,48.8567026],[2.354017,48.8569275],[2.353872,48.8569567]]},"id":"way/55151925"},{"type":"Feature","properties":{"@id":"way/1190381902","footway":"sidewalk","highway":"footway","lit":"yes","surface":"asphalt","id":"way/1190381902"},"geometry":{"type":"LineString","coordinates":[[2.354372,48.8575315],[2.354663,48.8577828],[2.3548023,48.8579201],[2.3549933,48.8581085],[2.3550015,48.8581197],[2.3550667,48.858209],[2.3552596,48.8584093]]},"id":"way/1190381902"},{"type":"Feature","properties":{"@id":"way/1190381904","footway":"sidewalk","highway":"footway","lit":"yes","smoothness":"excellent","surface":"asphalt","id":"way/1190381904"},"geometry":{"type":"LineString","coordinates":[[2.3542972,48.8574558],[2.3549732,48.8571909],[2.355176,48.8570845],[2.3551998,48.8570537],[2.3552202,48.8570449]]},"id":"way/1190381904"},{"type":"Feature","properties":{"@id":"way/1190381908","footway":"sidewalk","highway":"footway","lit":"yes","smoothness":"excellent","surface":"asphalt","id":"way/1190381908"},"geometry":{"type":"LineString","coordinates":[[2.3552277,48.8571594],[2.3549648,48.8572476],[2.3548518,48.8573061],[2.3547461,48.8573548],[2.3543846,48.8574888],[2.3543586,48.857506],[2.3543524,48.8575]]},"id":"way/1190381908"},{"type":"Feature","properties":{"@id":"way/1194330042","footway":"sidewalk","highway":"footway","lit":"yes","surface":"paving_stones","id":"way/1194330042"},"geometry":{"type":"LineString","coordinates":[[2.3553342,48.8565107],[2.3546362,48.856681],[2.3539377,48.8568411]]},"id":"way/1194330042"},{"type":"Feature","properties":{"@id":"way/1324442070","cycleway":"on_street","enforcement:operator":"Police nationale","highway":"cycleway","lit":"yes","name":"Rue de Rivoli","name:eo":"Strato Rivoli","name:etymology:wikidata":"Q1069936","name:fr":"Rue de Rivoli","name:zh":"里沃利路","oneway":"yes","operator":"Ville de Paris","operator:authority":"Maire de Paris après avis du préfet de police","operator:authority:related_law":"IV de l'article L. 2512-14 du code général des collectivités territoriales","operator:url":"https://cdn.paris.fr/paris/2020/02/26/5bf469a311d0beb9911e92d113781550.ai","smoothness":"good","surface":"asphalt","width":"3","id":"way/1324442070"},"geometry":{"type":"LineString","coordinates":[[2.3539393,48.8568793],[2.3539662,48.8568734],[2.3549542,48.856641],[2.3553465,48.8565488],[2.3554233,48.8565307],[2.3557894,48.8564442],[2.3564355,48.8562931],[2.356521,48.8562715]]},"id":"way/1324442070"}]}