{"type":"FeatureCollection","features":[{"type":"Feature","properties":{"@id":"way/63638138","building":"apartments","building:levels":"6","roof:levels":"1","source":"cadastre-dgi-fr source : Direction Générale des Impôts - Cadastre. Mise à jour : 2010","id":"way/63638138"},"geometry":{"type":"Polygon","coordinates":[[[2.3752747,48.8570482],[2.3752038,48.8571246],[2.375021,48.8570478],[2.3750888,48.8569711],[2.3752747,48.8570482]]]},"id":"way/63638138"},{"type":"Feature","properties":{"@id":"way/63638878","building":"apartments","building:levels":"4","source":"cadastre-dgi-fr source : Direction Générale des Impôts - Cadastre. Mise à jour : 2010","id":"way/63638878"},"geometry":{"type":"Polygon","coordinates":[[[2.3755166,48.8567873],[2.3752992,48.857022],[2.3752559,48.8569752],[2.3753836,48.8568409],[2.3753714,48.8568374],[2.3753803,48.856824],[2.3753754,48.856802],[2.3753368,48.856787],[2.3751772,48.8569658],[2.3751167,48.8569399],[2.3753478,48.8566805],[2.3755414,48.8567583],[2.3755166,48.8567873]]]},"id":"way/63638878"},{"type":"Feature","properties":{"@id":"way/63639034","building":"apartments","building:levels":"3","source":"cadastre-dgi-fr source : Direction Générale des Impôts - Cadastre. Mise à jour : 2010","id":"way/63639034"},"geometry":{"type":"Polygon","coordinates":[[[2.3742935,48.8575555],[2.3743021,48.8575458],[2.3742262,48.8575158],[2.3741358,48.8576152],[2.374177,48.857631],[2.374203,48.8576032],[2.3743864,48.8576688],[2.37433,48.8577341],[2.3743276,48.8577369],[2.3741793,48.857682],[2.3741114,48.8576552],[2.3740408,48.8576273],[2.3741255,48.8575281],[2.3741932,48.8574488],[2.374234,48.8574646],[2.3743385,48.8575052],[2.3744803,48.8575602],[2.3744393,48.8576076],[2.3742935,48.8575555]]]},"id":"way/63639034"},{"type":"Feature","properties":{"@id":"way/63639525","building":"office","building:levels":"6","source":"cadastre-dgi-fr source : Direction Générale des Impôts - Cadastre. Mise à jour : 2010","id":"way/63639525"},"geometry":{"type":"Polygon","coordinates":[[[2.374591,48.8574467],[2.3743383,48.8573499],[2.3744307,48.8572464],[2.3745968,48.8573077],[2.374668,48.8572246],[2.3745002,48.8571644],[2.3745735,48.8570778],[2.3745858,48.8570633],[2.3746438,48.8569948],[2.3747153,48.8570249],[2.374767,48.8570466],[2.3748088,48.8570642],[2.374885,48.8570963],[2.3748046,48.8571978],[2.374591,48.8574467]]]},"id":"way/63639525"},{"type":"Feature","properties":{"@id":"way/63640685","building":"apartments","building:levels":"5","source":"cadastre-dgi-fr source : Direction Générale des Impôts - Cadastre. Mise à jour : 2010","id":"way/63640685"},"geometry":{"type":"Polygon","coordinates":[[[2.3741181,48.8573352],[2.3740254,48.8573004],[2.3739714,48.8573627],[2.3738712,48.8573239],[2.3740061,48.8571773],[2.3739825,48.8571682],[2.3740232,48.857124],[2.3740481,48.8570969],[2.3742459,48.8571762],[2.3742428,48.85718],[2.3741515,48.8571471],[2.3740772,48.8572307],[2.3741704,48.8572658],[2.3741181,48.8573352]]]},"id":"way/63640685"},{"type":"Feature","properties":{"@id":"way/63644148","building":"apartments","building:levels":"6","roof:levels":"1","source":"cadastre-dgi-fr source : Direction Générale des Impôts - Cadastre. Mise à jour : 2010","id":"way/63644148"},"geometry":{"type":"Polygon","coordinates":[[[2.3743486,48.8570539],[2.3742736,48.857023],[2.3742815,48.8570141],[2.374306,48.8570238],[2.3743345,48.8569951],[2.3742117,48.856944],[2.3741761,48.8569825],[2.3741186,48.8569584],[2.3741757,48.8568961],[2.3742409,48.8568249],[2.3743498,48.8568708],[2.3744625,48.8569184],[2.3743714,48.8570268],[2.3743486,48.8570539]]]},"id":"way/63644148"},{"type":"Feature","properties":{"@id":"way/63645322","building":"yes","source":"cadastre-dgi-fr source : Direction Générale des Impôts - Cadastre. Mise à jour : 2010","id":"way/63645322"},"geometry":{"type":"Polygon","coordinates":[[[2.3743288,48.8570776],[2.3743486,48.8570539],[2.3743621,48.8570587],[2.3743424,48.8570826],[2.3743288,48.8570776]]]},"id":"way/63645322"},{"type":"Feature","properties":{"@id":"way/63647188","building":"apartments","building:levels":"5","roof:levels":"1","source":"cadastre-dgi-fr source : Direction Générale des Impôts - Cadastre. Mise à jour : 2010","id":"way/63647188"},"geometry":{"type":"Polygon","coordinates":[[[2.3742955,48.8571175],[2.3742459,48.8571762],[2.3740481,48.8570969],[2.3740832,48.8570582],[2.374135,48.8570011],[2.3742366,48.8570398],[2.3742006,48.857083],[2.3742955,48.8571175]]]},"id":"way/63647188"},{"type":"Feature","properties":{"@id":"way/63649352","building":"apartments","building:levels":"6","roof:levels":"1","source":"cadastre-dgi-fr source : Direction Générale des Impôts - Cadastre. Mise à jour : 2010","id":"way/63649352"},"geometry":{"type":"Polygon","coordinates":[[[2.3747303,48.8576261],[2.3747091,48.8576491],[2.3744905,48.8575641],[2.3748046,48.8571978],[2.374885,48.8570963],[2.3750231,48.8571547],[2.3750426,48.8571629],[2.3749582,48.8572685],[2.3748584,48.8572338],[2.3747582,48.8573642],[2.3748514,48.8574025],[2.3749151,48.8574282],[2.3747303,48.8576261]]]},"id":"way/63649352"},{"type":"Feature","properties":{"@id":"way/115788394","building":"apartments","building:levels":"6","source":"cadastre-dgi-fr source : Direction Générale des Impôts - Cadastre. Mise à jour : 2022","id":"way/115788394"},"geometry":{"type":"Polygon","coordinates":[[[2.3750662,48.8574477],[2.3750441,48.8574433],[2.3749716,48.8574054],[2.3750139,48.8573595],[2.3750011,48.8573511],[2.3750347,48.8572942],[2.3749582,48.8572685],[2.3750426,48.8571629],[2.3753029,48.8572725],[2.3753274,48.8572828],[2.3752416,48.857389],[2.3751757,48.8573585],[2.3751272,48.8574071],[2.3751111,48.8574001],[2.3750662,48.8574477]]]},"id":"way/115788394"},{"type":"Feature","properties":{"@id":"way/1090935355","building":"apartments","building:levels":"4","roof:levels":"1","id":"way/1090935355"},"geometry":{"type":"Polygon","coordinates":[[[2.3749151,48.8574282],[2.3749181,48.8574251],[2.3750182,48.857456],[2.3749198,48.8575796],[2.3749114,48.8575767],[2.3748878,48.8576061],[2.3750259,48.8576558],[2.374978,48.8577148],[2.3747303,48.8576261],[2.3749151,48.8574282]]]},"id":"way/1090935355"},{"type":"Feature","properties":{"@id":"way/15276201","cycleway:both":"no","highway":"residential","lit":"yes","maxspeed":"30","name":"Rue Sedaine","name:etymology:wikidata":"Q367243","oneway":"yes","oneway:bicycle":"no","sidewalk:both":"separate","sidewalk:both:surface":"asphalt","smoothness":"good","surface":"asphalt","id":"way/15276201"},"geometry":{"type":"LineString","coordinates":[[2.378584,48.8587156],[2.3785094,48.8586794],[2.3784539,48.8586564],[2.3770624,48.8579674],[2.3769877,48.8579304],[2.3769245,48.8579039],[2.3763905,48.8576786],[2.3753905,48.8572554],[2.3742378,48.8567709],[2.3735457,48.8564741],[2.3734868,48.8564487],[2.3734041,48.8564138],[2.3730312,48.8562586],[2.3717096,48.855707],[2.3716475,48.8556896],[2.371581,48.8556635],[2.3705948,48.8554449],[2.3704872,48.855449]]},"id":"way/15276201"},{"type":"Feature","properties":{"@id":"way/62117449","cycleway:both":"no","highway":"residential","lit":"yes","maxspeed":"30","maxspeed:type":"FR:zone30","name":"Passage Salarnier","name:etymology:wikidata":"Q618532","oneway":"yes","oneway:bicycle":"no","sidewalk":"no","smoothness":"good","surface":"asphalt","id":"way/62117449"},"geometry":{"type":"LineString","coordinates":[[2.3731653,48.8567895],[2.3732207,48.8568111],[2.3736949,48.8569962],[2.3737508,48.8570066],[2.373911,48.8570733],[2.3739813,48.8570615],[2.374211,48.8568012],[2.3742378,48.8567709]]},"id":"way/62117449"},{"type":"Feature","properties":{"@id":"way/735422184","highway":"footway","name":"Cour Sedaine","source:name":"sur portail d'accès","id":"way/735422184"},"geometry":{"type":"LineString","coordinates":[[2.3753905,48.8572554],[2.3753642,48.8572863],[2.3753563,48.8572955],[2.3750706,48.8576502]]},"id":"way/735422184"},{"type":"Feature","properties":{"@id":"way/1190407613","footway":"sidewalk","highway":"footway","surface":"asphalt","id":"way/1190407613"},"geometry":{"type":"LineString","coordinates":[[2.3768992,48.8579337],[2.3763631,48.8577063],[2.3753642,48.8572863],[2.3744349,48.8568916],[2.3742465,48.8568155],[2.374211,48.8568012],[2.3735166,48.8565073],[2.373533,48.8564886]]},"id":"way/1190407613"},{"type":"Feature","properties":{"@id":"node/4086644597","addr:city":"Paris","addr:housenumber":"40","addr:postcode":"75011","addr:street":"Rue Sedaine","check_date":"2024-04-06","name":"Huguette & Henri","opening_hours":"Mo 10:30-14:30; Tu-Sa 10:30-19:30","phone":"+33 9 77 72 39 03","shop":"deli","website":"https://huguette-et-henri.fr","id":"node/4086644597"},"geometry":{"type":"Point","coordinates":[2.3745586,48.8568135]},"id":"node/4086644597"},{"type":"Feature","properties":{"@id":"node/4212630799","addr:city":"Paris","addr:housenumber":"47","addr:postcode":"75011","addr:street":"Rue Sedaine","amenity":"restaurant","check_date":"2024-04-06","cuisine":"chinese;noodle","email":"17restodart@gmail.com","name":"Artist Noodle","name:zh":"艺术家的面","opening_hours":"Mo-Su 12:00-15:00; Tu-Su 19:30-22:00; PH off","phone":"+33 9 86 09 19 65","takeaway":"yes","website":"http://www.17restodart.fr","id":"node/4212630799"},"geometry":{"type":"Point","coordinates":[2.3752572,48.8572895]},"id":"node/4212630799"},{"type":"Feature","properties":{"@id":"node/6061749807","addr:city":"Paris","addr:housenumber":"47","addr:postcode":"75011","addr:street":"Rue Sedaine","name":"Modular Square","opening_hours":"Tu-Sa 13:45-18:45","phone":"+33 1 43 55 15 49","shop":"musical_instrument","website":"https://www.modularsquare.com/","id":"node/6061749807"},"geometry":{"type":"Point","coordinates":[2.3750772,48.8572197]},"id":"node/6061749807"},{"type":"Feature","properties":{"@id":"node/6637121834","addr:city":"Paris","addr:housenumber":"47","addr:postcode":"75011","addr:street":"Rue Sedaine","name":"Laverie Sedaine","opening_hours":"Mo-Su 07:00-22:00","self_service":"yes","shop":"laundry","id":"node/6637121834"},"geometry":{"type":"Point","coordinates":[2.3751773,48.8572617]},"id":"node/6637121834"},{"type":"Feature","properties":{"@id":"node/6888187753","name":"L’or Noir","shop":"yes","id":"node/6888187753"},"geometry":{"type":"Point","coordinates":[2.3746264,48.8568378]},"id":"node/6888187753"},{"type":"Feature","properties":{"@id":"node/6888187755","addr:city":"Paris","addr:housenumber":"40","addr:postcode":"75011","addr:street":"Rue Sedaine","name":"By my bike","opening_hours":"Mo-Sa 09:00-19:00","phone":"+33 9 50 68 94 09","shop":"motorcycle_repair","id":"node/6888187755"},"geometry":{"type":"Point","coordinates":[2.3747452,48.8568889]},"id":"node/6888187755"},{"type":"Feature","properties":{"@id":"node/7385686426","addr:city":"Paris","addr:housenumber":"41","addr:postcode":"75011","addr:street":"Rue Sedaine","check_date":"2024-09-22","contact:email":"info@emmaduvere.fr","contact:housenumber":"41","contact:postcode":"75011","contact:street":"Rue Sedaine","description":"Pâtisserie artisanale & Cantine écoresponsable","name":"Pâtisserie Emma Duvéré","opening_hours":"We-Su 08:00-19:00","outdoor_seating":"yes","payment:american_express":"yes","payment:apple_pay":"yes","payment:cash":"yes","payment:contactless":"yes","payment:debit_cards":"yes","payment:google_pay":"yes","payment:mastercard":"yes","payment:visa":"yes","phone":"+33 9 83 20 99 55","ref:FR:SIRET":"81508570900039","shop":"pastry","website":"https://www.emmaduvere.fr","id":"node/7385686426"},"geometry":{"type":"Point","coordinates":[2.3744773,48.8569575]},"id":"node/7385686426"},{"type":"Feature","properties":{"@id":"node/7617941985","clothes":"women","name":"Chana Mod","shop":"clothes","survey:date":"2020-06-13","id":"node/7617941985"},"geometry":{"type":"Point","coordinates":[2.3745736,48.8570009]},"id":"node/7617941985"},{"type":"Feature","properties":{"@id":"node/8096637617","addr:housenumber":"40","addr:street":"Rue Sedaine","name":"Tanière de Kanken","phone":"+33 148058996","shop":"department_store","id":"node/8096637617"},"geometry":{"type":"Point","coordinates":[2.374799,48.8569038]},"id":"node/8096637617"},{"type":"Feature","properties":{"@id":"node/10769142093","addr:city":"Paris","addr:housenumber":"39","addr:postcode":"75011","addr:street":"Rue Sedaine","brand":"le marché d'à côté","brand:wikidata":"Q130165186","name":"le marché d'à côté","opening_hours":"Mo-Su 08:00-02:00","operator":"Franprix","shop":"convenience","id":"node/10769142093"},"geometry":{"type":"Point","coordinates":[2.3743922,48.8569211]},"id":"node/10769142093"},{"type":"Feature","properties":{"@id":"node/10769142101","addr:city":"Paris","addr:housenumber":"39","addr:postcode":"75011","addr:street":"Rue Sedaine","check_date":"2024-04-06","cuisine":"italian","name":"Appet’Italy","opening_hours":"Mo-Sa 10:00-20:00","origin":"italian","phone":"+33 9 86 29 90 00","shop":"deli","id":"node/10769142101"},"geometry":{"type":"Point","coordinates":[2.3742616,48.8568539]},"id":"node/10769142101"},{"type":"Feature","properties":{"@id":"node/10769184911","addr:city":"Paris","addr:housenumber":"42","addr:postcode":"75011","addr:street":"Rue Sedaine","check_date":"2024-04-06","name":"Legalize","ref:FR:SIRET":"90207492100062","shop":"cannabis","id":"node/10769184911"},"geometry":{"type":"Point","coordinates":[2.3749913,48.8570006]},"id":"node/10769184911"},{"type":"Feature","properties":{"@id":"node/10769184912","addr:city":"Paris","addr:housenumber":"39","addr:postcode":"75011","addr:street":"Rue Sedaine","check_date":"2024-04-06","name":"Botanic Barber","phone":"+33 9 54 65 85 49","shop":"hairdresser","website":"https://botanicbarber.com/","id":"node/10769184912"},"geometry":{"type":"Point","coordinates":[2.3743373,48.8568891]},"id":"node/10769184912"},{"type":"Feature","properties":{"@id":"node/11584049641","addr:housenumber":"40","addr:street":"Rue Sedaine","amenity":"cafe","check_date":"2024-02-04","name":"Pom Pom Coffee","id":"node/11584049641"},"geometry":{"type":"Point","coordinates":[2.3748596,48.8569379]},"id":"node/11584049641"}]}