{"type":"FeatureCollection","features":[{"type":"Feature","properties":{"@id":"way/58166684","building":"apartments","source":"cadastre-dgi-fr source : Direction Générale des Impôts - Cadastre. Mise à jour : 2010","id":"way/58166684"},"geometry":{"type":"Polygon","coordinates":[[[2.3673732,48.8560476],[2.3675122,48.8560461],[2.3675135,48.8560745],[2.3676753,48.8560763],[2.3676764,48.8560569],[2.3675615,48.8560554],[2.367543,48.8560455],[2.3675425,48.8560387],[2.3676774,48.8560394],[2.36768,48.8560391],[2.367681,48.8560481],[2.3677635,48.8560495],[2.3677658,48.8560293],[2.3677687,48.8560294],[2.3678808,48.8560347],[2.3679549,48.8560376],[2.3679488,48.8561189],[2.3675747,48.8561138],[2.3673756,48.8561151],[2.3673746,48.8560854],[2.3673732,48.8560476]]]},"id":"way/58166684"},{"type":"Feature","properties":{"@id":"way/58166687","architect":"L. Fagot","building":"apartments","building:levels":"7","source":"cadastre-dgi-fr source : Direction Générale des Impôts - Cadastre. Mise à jour : 2010","start_date":"1902","id":"way/58166687"},"geometry":{"type":"Polygon","coordinates":[[[2.3680879,48.8564566],[2.3679165,48.8564432],[2.3679164,48.8564412],[2.3679082,48.8564349],[2.3679043,48.8564297],[2.3679042,48.8564167],[2.3679065,48.856411],[2.3679098,48.8564068],[2.3678893,48.856392],[2.3678732,48.8563921],[2.3678614,48.8564036],[2.3677433,48.8564057],[2.3677398,48.8563431],[2.367776,48.8563424],[2.3677663,48.8563338],[2.3677664,48.8563196],[2.3679349,48.8563209],[2.3681185,48.8563317],[2.3681024,48.8563975],[2.3680879,48.8564566]]]},"id":"way/58166687"},{"type":"Feature","properties":{"@id":"way/58166690","building":"retail","building:levels":"1","source":"cadastre-dgi-fr source : Direction Générale des Impôts - Cadastre. Mise à jour : 2010","id":"way/58166690"},"geometry":{"type":"Polygon","coordinates":[[[2.3682017,48.8559914],[2.3682291,48.8558833],[2.3682694,48.8558877],[2.3682428,48.8559954],[2.3682017,48.8559914]]]},"id":"way/58166690"},{"type":"Feature","properties":{"@id":"way/58166693","building":"apartments","source":"cadastre-dgi-fr source : Direction Générale des Impôts - Cadastre. Mise à jour : 2010","id":"way/58166693"},"geometry":{"type":"Polygon","coordinates":[[[2.3673922,48.856316],[2.3677399,48.8563193],[2.3677398,48.8563431],[2.3677433,48.8564057],[2.3677453,48.8564423],[2.3677411,48.8564421],[2.3677434,48.8564745],[2.3676882,48.8564729],[2.3676791,48.8565384],[2.3675985,48.8565366],[2.3673971,48.856537],[2.3673959,48.8564812],[2.3673937,48.8563844],[2.3673922,48.856316]]]},"id":"way/58166693"},{"type":"Feature","properties":{"@id":"way/58166705","building":"detached","building:levels":"4","source":"cadastre-dgi-fr source : Direction Générale des Impôts - Cadastre. Mise à jour : 2010","id":"way/58166705"},"geometry":{"type":"Polygon","coordinates":[[[2.3678329,48.8558976],[2.3678397,48.8559568],[2.3679629,48.8559667],[2.3679631,48.8559763],[2.3679549,48.8560376],[2.3678808,48.8560347],[2.3678839,48.8559877],[2.3677693,48.8559822],[2.3677687,48.8560294],[2.3677658,48.8560293],[2.3677635,48.8560495],[2.367681,48.8560481],[2.36768,48.8560391],[2.3676774,48.8560394],[2.3676776,48.8560234],[2.3675425,48.8560236],[2.3675405,48.855985],[2.3675112,48.8559882],[2.3675122,48.8560461],[2.3673732,48.8560476],[2.3673719,48.856015],[2.3673703,48.8559727],[2.3673729,48.8559723],[2.3675359,48.8559458],[2.3676795,48.8559225],[2.3677315,48.8559141],[2.3678329,48.8558976]]]},"id":"way/58166705"},{"type":"Feature","properties":{"@id":"way/58166708","building":"apartments","building:levels":"7","source":"cadastre-dgi-fr source : Direction Générale des Impôts - Cadastre. Mise à jour : 2010","id":"way/58166708"},"geometry":{"type":"Polygon","coordinates":[[[2.3679106,48.8565387],[2.3676791,48.8565384],[2.3676882,48.8564729],[2.3677434,48.8564745],[2.3677411,48.8564421],[2.3677453,48.8564423],[2.3679165,48.8564432],[2.3680879,48.8564566],[2.3680788,48.8564956],[2.3680665,48.8565492],[2.3679978,48.8565447],[2.3679106,48.8565387]]]},"id":"way/58166708"},{"type":"Feature","properties":{"@id":"way/58166713","building":"apartments","building:levels":"3","source":"cadastre-dgi-fr source : Direction Générale des Impôts - Cadastre. Mise à jour : 2010","id":"way/58166713"},"geometry":{"type":"Polygon","coordinates":[[[2.3682363,48.855855],[2.3682291,48.8558833],[2.3682017,48.8559914],[2.3681982,48.8560053],[2.3681688,48.8561216],[2.3679488,48.8561189],[2.3679549,48.8560376],[2.3679631,48.8559763],[2.3680058,48.8559758],[2.3680192,48.8559898],[2.3680124,48.8560518],[2.3681025,48.8560542],[2.3681225,48.8559704],[2.3680994,48.8559688],[2.3681014,48.8559593],[2.3680913,48.8559574],[2.3680567,48.8559615],[2.36805,48.8559589],[2.3680557,48.8559263],[2.3679683,48.8559346],[2.3679666,48.855967],[2.3679629,48.8559667],[2.3678397,48.8559568],[2.3678329,48.8558976],[2.3679696,48.8558754],[2.3680149,48.855868],[2.3682009,48.8558377],[2.3682023,48.8558418],[2.3682278,48.8558551],[2.3682363,48.855855]]]},"id":"way/58166713"},{"type":"Feature","properties":{"@id":"way/4574353","cycleway:both":"no","highway":"residential","lit":"yes","maxspeed":"30","name":"Rue des Tournelles","name:etymology:wikidata":"Q1476769","oneway":"yes","oneway:bicycle":"no","sidewalk:both":"separate","smoothness":"good","surface":"asphalt","zone:maxspeed":"FR:30","id":"way/4574353"},"geometry":{"type":"LineString","coordinates":[[2.3673852,48.853876],[2.367377,48.8539259],[2.3673499,48.8541503],[2.3673149,48.8543423],[2.3672718,48.8545638],[2.3672797,48.8548531],[2.3672824,48.8549527],[2.3673037,48.8554603],[2.3673124,48.8558965],[2.3673131,48.8559452]]},"id":"way/4574353"},{"type":"Feature","properties":{"@id":"way/18232257","bicycle:lanes":"yes|designated","busway:right":"lane","cycleway:right":"share_busway","highway":"tertiary","lanes":"2","lit":"yes","maxspeed":"30","name":"Rue du Pas de la Mule","name:etymology":"unknown","oneway":"yes","oneway:bicycle":"yes","psv:lanes":"yes|designated","sidewalk:both":"separate","smoothness":"good","surface":"asphalt","zone:maxspeed":"FR:30","id":"way/18232257"},"geometry":{"type":"LineString","coordinates":[[2.3665633,48.8560484],[2.3667252,48.8560423],[2.3672533,48.8559559],[2.3673131,48.8559452]]},"id":"way/18232257"},{"type":"Feature","properties":{"@id":"way/156382084","busway:both":"lane","cycleway:left":"share_busway","cycleway:left:lane":"exclusive","cycleway:right":"track","enforcement:operator":"Police nationale","highway":"primary","lanes":"4","lit":"yes","maxspeed":"30","name":"Boulevard Beaumarchais","name:etymology:wikidata":"Q70326","name:zh":"博马舍大道","operator":"Ville de Paris","operator:authority":"Maire de Paris après avis du préfet de police","operator:authority:related_law":"IV de l'article L. 2512-14 du code général des collectivités territoriales","operator:url":"https://cdn.paris.fr/paris/2020/02/26/5bf469a311d0beb9911e92d113781550.ai","sidewalk:both":"separate","smoothness":"good","surface":"asphalt","id":"way/156382084"},"geometry":{"type":"LineString","coordinates":[[2.3684984,48.8558253],[2.3684648,48.855943],[2.3684419,48.8560246],[2.3684098,48.8561589],[2.3683392,48.8564544]]},"id":"way/156382084"},{"type":"Feature","properties":{"@id":"way/666126306","bicycle:lanes":"yes|designated","busway:right":"lane","cycleway:left":"no","cycleway:right":"share_busway","highway":"tertiary","lanes":"2","lit":"yes","maxspeed":"30","name":"Rue du Pas de la Mule","name:etymology":"unknown","oneway":"yes","oneway:bicycle":"yes","psv:lanes":"yes|designated","sidewalk:both":"separate","smoothness":"good","surface":"asphalt","zone:maxspeed":"FR:30","id":"way/666126306"},"geometry":{"type":"LineString","coordinates":[[2.3673131,48.8559452],[2.3673729,48.8559347],[2.368317,48.8557836],[2.3684984,48.8558253]]},"id":"way/666126306"},{"type":"Feature","properties":{"@id":"way/666126308","cycleway:both":"no","highway":"residential","maxspeed":"30","name":"Rue des Tournelles","name:etymology:wikidata":"Q1476769","oneway":"yes","oneway:bicycle":"no","sidewalk:both":"separate","surface":"asphalt","zone:maxspeed":"FR:30","id":"way/666126308"},"geometry":{"type":"LineString","coordinates":[[2.3673131,48.8559452],[2.3673123,48.8559863],[2.367328,48.8565378],[2.3673301,48.8566074],[2.3673439,48.8569382],[2.3673453,48.8569862]]},"id":"way/666126308"},{"type":"Feature","properties":{"@id":"way/1190196983","footway":"sidewalk","highway":"footway","surface":"asphalt","id":"way/1190196983"},"geometry":{"type":"LineString","coordinates":[[2.3673777,48.8565389],[2.3673942,48.8569375],[2.3673848,48.8569377]]},"id":"way/1190196983"},{"type":"Feature","properties":{"@id":"way/1190196984","footway":"sidewalk","highway":"footway","surface":"asphalt","id":"way/1190196984"},"geometry":{"type":"LineString","coordinates":[[2.3673613,48.8559795],[2.3673767,48.8564277],[2.3673777,48.8565389],[2.3673696,48.8565382]]},"id":"way/1190196984"},{"type":"Feature","properties":{"@id":"way/1190196985","footway":"sidewalk","highway":"footway","surface":"asphalt","id":"way/1190196985"},"geometry":{"type":"LineString","coordinates":[[2.3673737,48.8559667],[2.367366,48.8559691],[2.3673613,48.8559795],[2.3673505,48.8559804]]},"id":"way/1190196985"},{"type":"Feature","properties":{"@id":"way/1190196986","footway":"sidewalk","highway":"footway","lit":"yes","surface":"asphalt","id":"way/1190196986"},"geometry":{"type":"LineString","coordinates":[[2.3682819,48.8558498],[2.3682008,48.8558317],[2.3673737,48.8559667],[2.3673727,48.8559592]]},"id":"way/1190196986"},{"type":"Feature","properties":{"@id":"way/1190196987","footway":"sidewalk","highway":"footway","lit":"yes","surface":"asphalt","id":"way/1190196987"},"geometry":{"type":"LineString","coordinates":[[2.3683017,48.8559078],[2.3683121,48.8558652],[2.3682819,48.8558498],[2.3683068,48.8558255]]},"id":"way/1190196987"},{"type":"Feature","properties":{"@id":"way/1190196988","footway":"sidewalk","highway":"footway","lit":"yes","surface":"asphalt","id":"way/1190196988"},"geometry":{"type":"LineString","coordinates":[[2.368353,48.8559195],[2.3683017,48.8559078],[2.3682762,48.8560071],[2.3682182,48.8560479],[2.3680258,48.8568719]]},"id":"way/1190196988"},{"type":"Feature","properties":{"@id":"way/1190197150","footway":"sidewalk","highway":"footway","lit":"yes","smoothness":"good","surface":"asphalt","id":"way/1190197150"},"geometry":{"type":"LineString","coordinates":[[2.3673703,48.8558959],[2.3682554,48.8557507],[2.3683279,48.8557353],[2.3683261,48.8557463]]},"id":"way/1190197150"},{"type":"Feature","properties":{"@id":"way/1190197151","footway":"sidewalk","highway":"footway","lit":"yes","surface":"asphalt","id":"way/1190197151"},"geometry":{"type":"LineString","coordinates":[[2.3673539,48.8558895],[2.3673703,48.8558959],[2.3673686,48.8559054]]},"id":"way/1190197151"},{"type":"Feature","properties":{"@id":"way/1190197152","footway":"sidewalk","highway":"footway","lit":"yes","surface":"asphalt","id":"way/1190197152"},"geometry":{"type":"LineString","coordinates":[[2.3673237,48.8549541],[2.3673515,48.8557981],[2.3673539,48.8558895],[2.3673435,48.8558915]]},"id":"way/1190197152"},{"type":"Feature","properties":{"@id":"way/1190197155","footway":"sidewalk","highway":"footway","lit":"yes","surface":"asphalt","id":"way/1190197155"},"geometry":{"type":"LineString","coordinates":[[2.3672744,48.8558915],[2.3672597,48.8558465],[2.3672567,48.8557721],[2.3672483,48.8554886],[2.3672325,48.8549528],[2.367264,48.8549521]]},"id":"way/1190197155"},{"type":"Feature","properties":{"@id":"way/1190197156","footway":"sidewalk","highway":"footway","surface":"asphalt","id":"way/1190197156"},"geometry":{"type":"LineString","coordinates":[[2.3672573,48.8559175],[2.3672744,48.8558915],[2.3672959,48.8558994]]},"id":"way/1190197156"},{"type":"Feature","properties":{"@id":"way/1190197157","footway":"sidewalk","highway":"footway","id":"way/1190197157"},"geometry":{"type":"LineString","coordinates":[[2.3666632,48.8559914],[2.3666716,48.8560064],[2.3667072,48.8560019],[2.3667404,48.8559968],[2.3672573,48.8559175],[2.3672553,48.855927]]},"id":"way/1190197157"},{"type":"Feature","properties":{"@id":"way/1190197159","footway":"sidewalk","highway":"footway","id":"way/1190197159"},"geometry":{"type":"LineString","coordinates":[[2.3672449,48.8559925],[2.3671956,48.855996],[2.366734,48.8560723]]},"id":"way/1190197159"},{"type":"Feature","properties":{"@id":"way/1190197160","footway":"sidewalk","highway":"footway","surface":"asphalt","id":"way/1190197160"},"geometry":{"type":"LineString","coordinates":[[2.3672567,48.8559971],[2.3672449,48.8559925],[2.3672551,48.8559784]]},"id":"way/1190197160"},{"type":"Feature","properties":{"@id":"way/1190197161","footway":"sidewalk","highway":"footway","surface":"asphalt","id":"way/1190197161"},"geometry":{"type":"LineString","coordinates":[[2.3671998,48.8565555],[2.3672278,48.8564818],[2.3672791,48.8564646],[2.3672791,48.8564497],[2.3672774,48.8563183],[2.367266,48.8563079],[2.3672567,48.8559971],[2.3672741,48.8559923]]},"id":"way/1190197161"},{"type":"Feature","properties":{"@id":"way/1190197162","footway":"sidewalk","highway":"footway","id":"way/1190197162"},"geometry":{"type":"LineString","coordinates":[[2.3670568,48.856583],[2.3671998,48.8565555],[2.3672941,48.8565374]]},"id":"way/1190197162"},{"type":"Feature","properties":{"@id":"way/1190197166","footway":"sidewalk","highway":"footway","surface":"asphalt","id":"way/1190197166"},"geometry":{"type":"LineString","coordinates":[[2.3672851,48.8569395],[2.3672799,48.856689],[2.3672748,48.8566646],[2.3672013,48.8566485],[2.3671279,48.8566602],[2.3671139,48.856648]]},"id":"way/1190197166"},{"type":"Feature","properties":{"@id":"way/1192389185","crossing":"traffic_signals","footway":"crossing","highway":"footway","lit":"yes","surface":"asphalt","traffic_signals:sound":"yes","id":"way/1192389185"},"geometry":{"type":"LineString","coordinates":[[2.3672959,48.8558994],[2.3673124,48.8558965],[2.3673435,48.8558915]]},"id":"way/1192389185"},{"type":"Feature","properties":{"@id":"way/1192389186","crossing":"traffic_signals","footway":"crossing","highway":"footway","lit":"yes","surface":"asphalt","traffic_signals:sound":"yes","id":"way/1192389186"},"geometry":{"type":"LineString","coordinates":[[2.3672553,48.855927],[2.3672533,48.8559559],[2.3672551,48.8559784]]},"id":"way/1192389186"},{"type":"Feature","properties":{"@id":"way/1192389187","crossing":"traffic_signals","footway":"crossing","highway":"footway","surface":"asphalt","id":"way/1192389187"},"geometry":{"type":"LineString","coordinates":[[2.3672741,48.8559923],[2.3673123,48.8559863],[2.3673505,48.8559804]]},"id":"way/1192389187"},{"type":"Feature","properties":{"@id":"way/1192389188","crossing":"traffic_signals","footway":"crossing","highway":"footway","lit":"yes","surface":"asphalt","id":"way/1192389188"},"geometry":{"type":"LineString","coordinates":[[2.3673727,48.8559592],[2.3673729,48.8559347],[2.3673686,48.8559054]]},"id":"way/1192389188"},{"type":"Feature","properties":{"@id":"way/1192421209","crossing":"uncontrolled","crossing:island":"yes","crossing:markings":"yes","footway":"crossing","highway":"footway","lit":"yes","surface":"asphalt","id":"way/1192421209"},"geometry":{"type":"LineString","coordinates":[[2.368353,48.8559195],[2.3684648,48.855943],[2.3685747,48.855966]]},"id":"way/1192421209"},{"type":"Feature","properties":{"@id":"way/1192421214","crossing":"uncontrolled","crossing:markings":"yes","footway":"crossing","highway":"footway","surface":"asphalt","id":"way/1192421214"},"geometry":{"type":"LineString","coordinates":[[2.3673696,48.8565382],[2.367328,48.8565378],[2.3672941,48.8565374]]},"id":"way/1192421214"},{"type":"Feature","properties":{"@id":"way/1460541327","busway:both":"lane","cycleway:left":"share_busway","cycleway:left:lane":"exclusive","cycleway:right":"lane","enforcement:operator":"Police nationale","highway":"primary","lanes":"4","lit":"yes","maxspeed":"30","name":"Boulevard Beaumarchais","name:etymology:wikidata":"Q70326","name:zh":"博马舍大道","operator":"Ville de Paris","operator:authority":"Maire de Paris après avis du préfet de police","operator:authority:related_law":"IV de l'article L. 2512-14 du code général des collectivités territoriales","operator:url":"https://cdn.paris.fr/paris/2020/02/26/5bf469a311d0beb9911e92d113781550.ai","sidewalk:both":"separate","smoothness":"good","surface":"asphalt","id":"way/1460541327"},"geometry":{"type":"LineString","coordinates":[[2.3683392,48.8564544],[2.3683024,48.8566086],[2.368236,48.8568863],[2.3682244,48.8569394]]},"id":"way/1460541327"},{"type":"Feature","properties":{"@id":"node/26666918","highway":"traffic_signals","id":"node/26666918"},"geometry":{"type":"Point","coordinates":[2.3673131,48.8559452]},"id":"node/26666918"},{"type":"Feature","properties":{"@id":"node/703987754","highway":"street_lamp","id":"node/703987754"},"geometry":{"type":"Point","coordinates":[2.3675103,48.8558649]},"id":"node/703987754"},{"type":"Feature","properties":{"@id":"node/721563428","addr:city":"Paris","addr:housenumber":"33","addr:postcode":"75003","addr:street":"Boulevard Beaumarchais","amenity":"restaurant","check_date":"2024-04-06","cuisine":"italian;mediterranean;pizza","diet:vegetarian":"no","indoor_seating":"yes","name":"The Brooklyn Pizzeria","opening_hours":"Mo-Su 09:00-00:00","outdoor_seating":"yes","phone":"+33 1 48 87 98 92","source":"cadastre-dgi-fr source : Direction Générale des Impôts - Cadastre. Mise à jour : 2010","takeaway":"yes","website":"https://www.thebrooklynpizzeriaparis.fr/","wheelchair":"yes","id":"node/721563428"},"geometry":{"type":"Point","coordinates":[2.3681748,48.8559327]},"id":"node/721563428"},{"type":"Feature","properties":{"@id":"node/3213130981","addr:city":"Paris","addr:housenumber":"2","addr:postcode":"75003","addr:street":"Rue Roger Verlomme","amenity":"restaurant","cuisine":"regional;french","description":"Spécialités provençales","name":"Chez Janou","opening_hours":"Mo-Su 12:00-15:00, 19:00-22:00","phone":"+331 42 72 28 41","website":"https://www.chezjanou.com/","wheelchair":"no","id":"node/3213130981"},"geometry":{"type":"Point","coordinates":[2.3672138,48.8567071]},"id":"node/3213130981"},{"type":"Feature","properties":{"@id":"node/3240796737","addr:housenumber":"6","addr:street":"Rue du Pas de la Mule","check_date":"2026-01-04","check_date:opening_hours":"2026-01-04","name":"Brigat’","opening_hours":"Tu-Fr 07:30-20:00; Sa,Su 08:00-20:00; Mo off","phone":"+33 1 57 40 83 85","ref:FR:SIRET":"90331702200015","shop":"bakery","website":"https://brigat.paris","wheelchair":"yes","id":"node/3240796737"},"geometry":{"type":"Point","coordinates":[2.3672129,48.856019]},"id":"node/3240796737"},{"type":"Feature","properties":{"@id":"node/3240802971","name":"Art Jingle","shop":"art","tourism":"gallery","id":"node/3240802971"},"geometry":{"type":"Point","coordinates":[2.3672301,48.8562342]},"id":"node/3240802971"},{"type":"Feature","properties":{"@id":"node/3551388905","check_date":"2025-09-30","name":"Le Photon des Vosges","shop":"optician","wheelchair":"no","id":"node/3551388905"},"geometry":{"type":"Point","coordinates":[2.3672109,48.8558902]},"id":"node/3551388905"},{"type":"Feature","properties":{"@id":"node/4624356489","addr:housenumber":"4","addr:postcode":"75004","addr:street":"Rue du Pas de la Mule","amenity":"restaurant","check_date":"2025-09-30","cuisine":"french","diet:vegetarian":"no","name":"Auberge Chez Rosito","name:fr":"Auberge Chez Rosito","wheelchair":"yes","id":"node/4624356489"},"geometry":{"type":"Point","coordinates":[2.3677386,48.8559345]},"id":"node/4624356489"},{"type":"Feature","properties":{"@id":"node/4652654290","check_date":"2025-09-30","name":"Peterhof","shop":"gift","wheelchair":"limited","id":"node/4652654290"},"geometry":{"type":"Point","coordinates":[2.367559,48.8559627]},"id":"node/4652654290"},{"type":"Feature","properties":{"@id":"node/4951741165","email":"audiparisien@wanadoo.fr","name":"L'Auditorium Parisien","opening_hours":"Tu-Fr 11:00-13:30,14:30-19:00; Sa 10:00-19:00; Su-Mo off","phone":"+33 1 42 74 04 44","shop":"hifi","website":"https://www.auditoriumparisien.fr/","wheelchair":"no","id":"node/4951741165"},"geometry":{"type":"Point","coordinates":[2.3680235,48.8564766]},"id":"node/4951741165"},{"type":"Feature","properties":{"@id":"node/4951741166","brand":"Harley-Davidson","brand:wikidata":"Q192814","brand:wikipedia":"en:Harley-Davidson","name":"Harley-Davidson","opening_hours":"Tu-Sa 09:00-19:00","phone":"+33 1 48 04 02 17","shop":"motorcycle","website":"http://www.harleydavidson-bastille.fr/","id":"node/4951741166"},"geometry":{"type":"Point","coordinates":[2.3679942,48.8566156]},"id":"node/4951741166"},{"type":"Feature","properties":{"@id":"node/5501839694","name":"Les Cyclades","origin":"greek","shop":"deli","wheelchair":"yes","id":"node/5501839694"},"geometry":{"type":"Point","coordinates":[2.3680668,48.8563036]},"id":"node/5501839694"},{"type":"Feature","properties":{"@id":"node/5501839698","name":"Allibert Trekking","opening_hours":"Mo-Fr 09:00-19:00; Sa 10:00-18:00","ref:FR:SIRET":"34011031100057","shop":"travel_agency","wheelchair":"no","id":"node/5501839698"},"geometry":{"type":"Point","coordinates":[2.3681017,48.8561554]},"id":"node/5501839698"},{"type":"Feature","properties":{"@id":"node/5501839702","name":"Meubles Peints – Décoration","shop":"interior_decoration","wheelchair":"no","id":"node/5501839702"},"geometry":{"type":"Point","coordinates":[2.3680792,48.8562638]},"id":"node/5501839702"},{"type":"Feature","properties":{"@id":"node/5501839703","contact:website":"https://www.letelescope-paris.com/","name":"Télescope","opening_hours":"Tu-Sa 10:00-13:00,14:00-18:00","shop":"photo","wheelchair":"no","id":"node/5501839703"},"geometry":{"type":"Point","coordinates":[2.3680929,48.8562001]},"id":"node/5501839703"},{"type":"Feature","properties":{"@id":"node/7134548985","check_date":"2024-04-06","contact:city":"Paris","contact:housenumber":"4","contact:postcode":"75003","contact:street":"Rue du Pas de la Mule","email":"info@chocolats-vannier.com","name":"Chocolaterie Josephine Vannier","opening_hours":"Tu-Sa 11:00-14:00,15:00-19:00;Su 11:00-13:00","payment:cash":"yes","payment:coins":"yes","payment:contactless":"yes","payment:mastercard":"yes","payment:visa":"yes","phone":"+33 1 44 54 03 09","shop":"chocolate","stroller":"yes","website":"https://www.chocolats-vannier.com","wheelchair":"yes","id":"node/7134548985"},"geometry":{"type":"Point","coordinates":[2.3678832,48.8559076]},"id":"node/7134548985"},{"type":"Feature","properties":{"@id":"node/8284247844","leaf_cycle":"deciduous","leaf_type":"broadleaved","natural":"tree","id":"node/8284247844"},"geometry":{"type":"Point","coordinates":[2.3685317,48.8562216]},"id":"node/8284247844"},{"type":"Feature","properties":{"@id":"node/8284247845","leaf_cycle":"deciduous","leaf_type":"broadleaved","natural":"tree","id":"node/8284247845"},"geometry":{"type":"Point","coordinates":[2.3685204,48.8562653]},"id":"node/8284247845"},{"type":"Feature","properties":{"@id":"node/8284247846","leaf_cycle":"deciduous","leaf_type":"broadleaved","natural":"tree","id":"node/8284247846"},"geometry":{"type":"Point","coordinates":[2.368486,48.8563973]},"id":"node/8284247846"},{"type":"Feature","properties":{"@id":"node/8284247847","leaf_cycle":"deciduous","leaf_type":"broadleaved","natural":"tree","id":"node/8284247847"},"geometry":{"type":"Point","coordinates":[2.3685081,48.8563102]},"id":"node/8284247847"},{"type":"Feature","properties":{"@id":"node/9995943372","amenity":"bench","id":"node/9995943372"},"geometry":{"type":"Point","coordinates":[2.367182,48.856517]},"id":"node/9995943372"},{"type":"Feature","properties":{"@id":"node/9995943373","amenity":"waste_basket","id":"node/9995943373"},"geometry":{"type":"Point","coordinates":[2.3673018,48.8565867]},"id":"node/9995943373"},{"type":"Feature","properties":{"@id":"node/10970594848","natural":"tree","id":"node/10970594848"},"geometry":{"type":"Point","coordinates":[2.367231,48.8564983]},"id":"node/10970594848"},{"type":"Feature","properties":{"@id":"node/10970594850","natural":"tree","id":"node/10970594850"},"geometry":{"type":"Point","coordinates":[2.367228,48.8565607]},"id":"node/10970594850"},{"type":"Feature","properties":{"@id":"node/11200318058","leaf_cycle":"deciduous","leaf_type":"broadleaved","natural":"tree","id":"node/11200318058"},"geometry":{"type":"Point","coordinates":[2.3682652,48.8561976]},"id":"node/11200318058"},{"type":"Feature","properties":{"@id":"node/11200318059","leaf_cycle":"deciduous","leaf_type":"broadleaved","natural":"tree","id":"node/11200318059"},"geometry":{"type":"Point","coordinates":[2.3682764,48.8561561]},"id":"node/11200318059"},{"type":"Feature","properties":{"@id":"node/11200318060","leaf_cycle":"deciduous","leaf_type":"broadleaved","natural":"tree","id":"node/11200318060"},"geometry":{"type":"Point","coordinates":[2.3682889,48.8561094]},"id":"node/11200318060"},{"type":"Feature","properties":{"@id":"node/11200318061","leaf_cycle":"deciduous","leaf_type":"broadleaved","natural":"tree","id":"node/11200318061"},"geometry":{"type":"Point","coordinates":[2.3682987,48.856073]},"id":"node/11200318061"},{"type":"Feature","properties":{"@id":"node/11200318062","leaf_cycle":"deciduous","leaf_type":"broadleaved","natural":"tree","id":"node/11200318062"},"geometry":{"type":"Point","coordinates":[2.3683262,48.8559245]},"id":"node/11200318062"},{"type":"Feature","properties":{"@id":"node/11200318063","leaf_cycle":"deciduous","leaf_type":"broadleaved","natural":"tree","id":"node/11200318063"},"geometry":{"type":"Point","coordinates":[2.3683094,48.8560132]},"id":"node/11200318063"},{"type":"Feature","properties":{"@id":"node/13205042073","highway":"street_lamp","id":"node/13205042073"},"geometry":{"type":"Point","coordinates":[2.3683311,48.8558909]},"id":"node/13205042073"},{"type":"Feature","properties":{"@id":"node/13205042075","highway":"street_lamp","id":"node/13205042075"},"geometry":{"type":"Point","coordinates":[2.3680149,48.855868]},"id":"node/13205042075"},{"type":"Feature","properties":{"@id":"node/13205042076","highway":"street_lamp","id":"node/13205042076"},"geometry":{"type":"Point","coordinates":[2.3676795,48.8559225]},"id":"node/13205042076"},{"type":"Feature","properties":{"@id":"node/13205042077","highway":"street_lamp","id":"node/13205042077"},"geometry":{"type":"Point","coordinates":[2.3673729,48.8559723]},"id":"node/13205042077"},{"type":"Feature","properties":{"@id":"node/13205042078","highway":"street_lamp","id":"node/13205042078"},"geometry":{"type":"Point","coordinates":[2.3671821,48.8559188]},"id":"node/13205042078"}]}