{"type":"FeatureCollection","features":[{"type":"Feature","properties":{"@id":"way/63638048","building":"yes","source":"cadastre-dgi-fr source : Direction Générale des Impôts - Cadastre. Mise à jour : 2010","wall":"no","id":"way/63638048"},"geometry":{"type":"Polygon","coordinates":[[[2.3726422,48.8563662],[2.3726118,48.8563548],[2.3726371,48.8563262],[2.3726667,48.8563387],[2.3726422,48.8563662]]]},"id":"way/63638048"},{"type":"Feature","properties":{"@id":"way/63638793","building":"yes","source":"cadastre-dgi-fr source : Direction Générale des Impôts - Cadastre. Mise à jour : 2010","id":"way/63638793"},"geometry":{"type":"Polygon","coordinates":[[[2.3731234,48.8563534],[2.3730851,48.8563978],[2.3730708,48.8564151],[2.3730065,48.8564906],[2.3729455,48.8565626],[2.3729134,48.8566006],[2.3728793,48.8566407],[2.3729683,48.8566759],[2.3730166,48.8566949],[2.3730229,48.8567152],[2.372852,48.8567414],[2.3727079,48.8567634],[2.3726892,48.8567122],[2.3726829,48.8566945],[2.3726702,48.8566588],[2.3726668,48.8566492],[2.3726561,48.8566201],[2.3728313,48.8565945],[2.3728247,48.8565768],[2.3729356,48.8564514],[2.3726667,48.8563387],[2.3726371,48.8563262],[2.3726118,48.8563548],[2.3726422,48.8563662],[2.3725232,48.8565015],[2.3724522,48.8564735],[2.3727039,48.8561774],[2.372843,48.8562358],[2.3729891,48.8562971],[2.3731234,48.8563534]]]},"id":"way/63638793"},{"type":"Feature","properties":{"@id":"way/63638848","building":"yes","building:levels":"1","source":"cadastre-dgi-fr source : Direction Générale des Impôts - Cadastre. Mise à jour : 2010","id":"way/63638848"},"geometry":{"type":"Polygon","coordinates":[[[2.3731221,48.8565195],[2.3731657,48.8565373],[2.3731533,48.8565508],[2.3731104,48.8565328],[2.3731221,48.8565195]]]},"id":"way/63638848"},{"type":"Feature","properties":{"@id":"way/63638865","building":"apartments","building:levels":"4","roof:levels":"1","source":"cadastre-dgi-fr source : Direction Générale des Impôts - Cadastre. Mise à jour : 2010","id":"way/63638865"},"geometry":{"type":"Polygon","coordinates":[[[2.3737886,48.856064],[2.3736612,48.8560031],[2.3737732,48.8558704],[2.3739327,48.8559338],[2.3738607,48.8559988],[2.3737886,48.856064]]]},"id":"way/63638865"},{"type":"Feature","properties":{"@id":"way/63638954","building":"yes","source":"cadastre-dgi-fr source : Direction Générale des Impôts - Cadastre. Mise à jour : 2010","id":"way/63638954"},"geometry":{"type":"Polygon","coordinates":[[[2.3726978,48.8559201],[2.3727844,48.8559567],[2.3730069,48.8557852],[2.3730856,48.8558173],[2.372768,48.856099],[2.3726814,48.8560626],[2.3725305,48.8559991],[2.3724386,48.8559605],[2.3725541,48.8558702],[2.3727441,48.8557212],[2.3727799,48.8556929],[2.3729174,48.8557489],[2.3726978,48.8559201]]]},"id":"way/63638954"},{"type":"Feature","properties":{"@id":"way/63639431","building":"yes","building:levels":"6","source":"cadastre-dgi-fr source : Direction Générale des Impôts - Cadastre. Mise à jour : 2010","id":"way/63639431"},"geometry":{"type":"Polygon","coordinates":[[[2.3732458,48.8565886],[2.3731877,48.8565648],[2.3732186,48.8565323],[2.3731077,48.8564859],[2.3730779,48.8565198],[2.3730658,48.8565146],[2.3730065,48.8564906],[2.3730708,48.8564151],[2.3730965,48.8564253],[2.3731103,48.8564088],[2.3730851,48.8563978],[2.3731234,48.8563534],[2.3732611,48.8564114],[2.3733919,48.8564664],[2.373391,48.8564674],[2.3733225,48.8565378],[2.3732949,48.8565662],[2.3732739,48.8565568],[2.3732458,48.8565886]]]},"id":"way/63639431"},{"type":"Feature","properties":{"@id":"way/63645216","building":"yes","building:levels":"6","roof:levels":"1","source":"cadastre-dgi-fr source : Direction Générale des Impôts - Cadastre. Mise à jour : 2010","id":"way/63645216"},"geometry":{"type":"Polygon","coordinates":[[[2.3735255,48.8567224],[2.3734863,48.8567073],[2.3733704,48.856662],[2.3734284,48.8565973],[2.3734878,48.8565312],[2.373527,48.8565246],[2.373602,48.8565562],[2.3736916,48.8565939],[2.3736259,48.8566661],[2.3735599,48.8566399],[2.3735562,48.8566285],[2.3735403,48.856631],[2.3735441,48.8566426],[2.3735301,48.8566587],[2.3736057,48.8566882],[2.3735619,48.8567366],[2.3735255,48.8567224]]]},"id":"way/63645216"},{"type":"Feature","properties":{"@id":"way/63647981","building":"retail","building:levels":"3","source":"cadastre-dgi-fr source : Direction Générale des Impôts - Cadastre. Mise à jour : 2010","id":"way/63647981"},"geometry":{"type":"Polygon","coordinates":[[[2.3740655,48.8564378],[2.373935,48.8565907],[2.3738223,48.8565433],[2.3736002,48.85645],[2.3735928,48.8564227],[2.3736467,48.8563744],[2.3737319,48.8562979],[2.3739033,48.8563703],[2.3740655,48.8564378]]]},"id":"way/63647981"},{"type":"Feature","properties":{"@id":"way/63648860","building":"yes","building:levels":"6","roof:levels":"1","source":"cadastre-dgi-fr source : Direction Générale des Impôts - Cadastre. Mise à jour : 2010","id":"way/63648860"},"geometry":{"type":"Polygon","coordinates":[[[2.3729683,48.8566759],[2.3729995,48.8566383],[2.3729525,48.8566201],[2.3729547,48.8566161],[2.3729134,48.8566006],[2.3729455,48.8565626],[2.3730926,48.8566191],[2.3730831,48.8566325],[2.3731763,48.8566675],[2.3731731,48.8566712],[2.3731518,48.8566955],[2.3730928,48.856705],[2.3730229,48.8567152],[2.3730166,48.8566949],[2.3729683,48.8566759]]]},"id":"way/63648860"},{"type":"Feature","properties":{"@id":"way/63649209","architect":"Alain Lelieur","building":"apartments","building:levels":"6","roof:levels":"1","source":"cadastre-dgi-fr source : Direction Générale des Impôts - Cadastre. Mise à jour : 2010","start_date":"1999","id":"way/63649209"},"geometry":{"type":"Polygon","coordinates":[[[2.3739545,48.8563263],[2.3739501,48.8563243],[2.3739033,48.8563703],[2.3737319,48.8562979],[2.3738022,48.8562343],[2.3738741,48.8561693],[2.3740097,48.8562267],[2.3740412,48.8562402],[2.3739545,48.8563263]]]},"id":"way/63649209"},{"type":"Feature","properties":{"@id":"way/63649268","building":"apartments","building:levels":"7","source":"cadastre-dgi-fr source : Direction Générale des Impôts - Cadastre. Mise à jour : 2010","id":"way/63649268"},"geometry":{"type":"Polygon","coordinates":[[[2.3731763,48.8566675],[2.3730831,48.8566325],[2.3730926,48.8566191],[2.3729455,48.8565626],[2.3730065,48.8564906],[2.3730658,48.8565146],[2.3730292,48.8565547],[2.3730562,48.8565648],[2.3730711,48.8565602],[2.3731484,48.8565918],[2.3731762,48.8565606],[2.3731877,48.8565648],[2.3732458,48.8565886],[2.3732063,48.8566335],[2.3731763,48.8566675]]]},"id":"way/63649268"},{"type":"Feature","properties":{"@id":"way/63649282","architect":"G. Rondeau","building":"apartments","building:levels":"7","source":"cadastre-dgi-fr source : Direction Générale des Impôts - Cadastre. Mise à jour : 2010","start_date":"1903","id":"way/63649282"},"geometry":{"type":"Polygon","coordinates":[[[2.3736402,48.8561987],[2.3735077,48.8561379],[2.373537,48.8561068],[2.3735911,48.8561324],[2.3736037,48.8561325],[2.3736268,48.8561103],[2.3736086,48.8561019],[2.3736052,48.8560929],[2.3736175,48.856081],[2.3736323,48.8560808],[2.3736496,48.8560891],[2.3736731,48.8560667],[2.3736637,48.8560684],[2.3736605,48.8560617],[2.3736683,48.8560584],[2.3736095,48.8560307],[2.3736435,48.8559946],[2.3736612,48.8560031],[2.3737886,48.856064],[2.3737086,48.8561366],[2.3736402,48.8561987]]]},"id":"way/63649282"},{"type":"Feature","properties":{"@id":"way/15276201","cycleway:both":"no","highway":"residential","lit":"yes","maxspeed":"30","name":"Rue Sedaine","name:etymology:wikidata":"Q367243","oneway":"yes","oneway:bicycle":"no","sidewalk:both":"separate","sidewalk:both:surface":"asphalt","smoothness":"good","surface":"asphalt","id":"way/15276201"},"geometry":{"type":"LineString","coordinates":[[2.378584,48.8587156],[2.3785094,48.8586794],[2.3784539,48.8586564],[2.3770624,48.8579674],[2.3769877,48.8579304],[2.3769245,48.8579039],[2.3763905,48.8576786],[2.3753905,48.8572554],[2.3742378,48.8567709],[2.3735457,48.8564741],[2.3734868,48.8564487],[2.3734041,48.8564138],[2.3730312,48.8562586],[2.3717096,48.855707],[2.3716475,48.8556896],[2.371581,48.8556635],[2.3705948,48.8554449],[2.3704872,48.855449]]},"id":"way/15276201"},{"type":"Feature","properties":{"@id":"way/15409804","cycleway":"opposite","highway":"residential","lit":"yes","maxspeed":"30","name":"Rue Boulle","name:etymology:wikidata":"Q128964","oneway":"yes","oneway:bicycle":"no","sidewalk:both":"separate","smoothness":"good","surface":"asphalt","id":"way/15409804"},"geometry":{"type":"LineString","coordinates":[[2.3712172,48.8570516],[2.3713242,48.8570351],[2.3720895,48.8569168],[2.3722193,48.8568986],[2.3723245,48.8568794],[2.3731008,48.856752],[2.3732199,48.8567324]]},"id":"way/15409804"},{"type":"Feature","properties":{"@id":"way/29731544","cycleway:both":"no","highway":"residential","lit":"yes","maxspeed":"30","name":"Rue du Commandant Lamy","name:etymology:wikidata":"Q353572","oneway":"yes","oneway:bicycle":"no","sidewalk:both":"separate","sidewalk:both:surface":"asphalt","smoothness":"good","surface":"asphalt","id":"way/29731544"},"geometry":{"type":"LineString","coordinates":[[2.3744228,48.8555166],[2.3743797,48.8555644],[2.3741016,48.8558703],[2.373558,48.8563817]]},"id":"way/29731544"},{"type":"Feature","properties":{"@id":"way/62117446","cycleway:both":"no","highway":"residential","lit":"yes","maxspeed":"30","name":"Rue Froment","name:etymology:wikidata":"Q1419387","oneway":"yes","oneway:bicycle":"no","sidewalk:both":"separate","sidewalk:both:surface":"asphalt","smoothness":"good","surface":"asphalt","id":"way/62117446"},"geometry":{"type":"LineString","coordinates":[[2.3719568,48.8581375],[2.371993,48.8580937],[2.3726481,48.8573632],[2.3727576,48.857241],[2.3728056,48.8571876],[2.3728467,48.8571441],[2.3730868,48.8568764],[2.3731653,48.8567895],[2.3732199,48.8567324],[2.3734089,48.8565324]]},"id":"way/62117446"},{"type":"Feature","properties":{"@id":"way/1190407568","footway":"sidewalk","highway":"footway","surface":"asphalt","id":"way/1190407568"},"geometry":{"type":"LineString","coordinates":[[2.3743216,48.8555495],[2.3740473,48.8558517],[2.3737761,48.8560942],[2.3734756,48.8563771]]},"id":"way/1190407568"},{"type":"Feature","properties":{"@id":"way/1190407578","footway":"sidewalk","highway":"footway","surface":"asphalt","id":"way/1190407578"},"geometry":{"type":"LineString","coordinates":[[2.3734284,48.8563891],[2.3730548,48.8562347],[2.3727076,48.8560851],[2.3717367,48.8556781],[2.3717299,48.8556847]]},"id":"way/1190407578"},{"type":"Feature","properties":{"@id":"way/1190407579","footway":"sidewalk","highway":"footway","surface":"asphalt","id":"way/1190407579"},"geometry":{"type":"LineString","coordinates":[[2.3734198,48.8563982],[2.3734284,48.8563891],[2.3734756,48.8563771],[2.3735021,48.8563889]]},"id":"way/1190407579"},{"type":"Feature","properties":{"@id":"way/1190407580","footway":"sidewalk","highway":"footway","surface":"asphalt","id":"way/1190407580"},"geometry":{"type":"LineString","coordinates":[[2.3744315,48.8555929],[2.3741281,48.8559232],[2.3737251,48.856289],[2.3735776,48.8564229]]},"id":"way/1190407580"},{"type":"Feature","properties":{"@id":"way/1190407588","footway":"sidewalk","highway":"footway","surface":"asphalt","id":"way/1190407588"},"geometry":{"type":"LineString","coordinates":[[2.3735682,48.8564484],[2.3769522,48.8578722],[2.3769445,48.8578815]]},"id":"way/1190407588"},{"type":"Feature","properties":{"@id":"way/1190407589","footway":"sidewalk","highway":"footway","surface":"asphalt","id":"way/1190407589"},"geometry":{"type":"LineString","coordinates":[[2.373544,48.8564072],[2.3735776,48.8564229],[2.3735682,48.8564484],[2.3735599,48.8564577]]},"id":"way/1190407589"},{"type":"Feature","properties":{"@id":"way/1190407599","footway":"sidewalk","highway":"footway","surface":"asphalt","id":"way/1190407599"},"geometry":{"type":"LineString","coordinates":[[2.3733725,48.8564491],[2.3724766,48.8560717],[2.3718808,48.8558224],[2.3716823,48.8557361],[2.3716897,48.8557289]]},"id":"way/1190407599"},{"type":"Feature","properties":{"@id":"way/1190407600","footway":"sidewalk","highway":"footway","surface":"asphalt","id":"way/1190407600"},"geometry":{"type":"LineString","coordinates":[[2.373406,48.8564807],[2.3734086,48.8564652],[2.3733725,48.8564491],[2.3733932,48.8564247]]},"id":"way/1190407600"},{"type":"Feature","properties":{"@id":"way/1190407601","footway":"sidewalk","highway":"footway","surface":"asphalt","id":"way/1190407601"},"geometry":{"type":"LineString","coordinates":[[2.373126,48.8567141],[2.3731679,48.8566951],[2.3732598,48.8565959],[2.3733195,48.856576],[2.373406,48.8564807],[2.3734261,48.8564882]]},"id":"way/1190407601"},{"type":"Feature","properties":{"@id":"way/1190407602","footway":"sidewalk","highway":"footway","surface":"asphalt","id":"way/1190407602"},"geometry":{"type":"LineString","coordinates":[[2.3722526,48.8568466],[2.3726204,48.8567908],[2.373126,48.8567141],[2.373125,48.8567218]]},"id":"way/1190407602"},{"type":"Feature","properties":{"@id":"way/1190407611","footway":"sidewalk","highway":"footway","surface":"asphalt","id":"way/1190407611"},"geometry":{"type":"LineString","coordinates":[[2.3734871,48.8565124],[2.3732207,48.8568111],[2.3731475,48.8568934],[2.3731337,48.8568859]]},"id":"way/1190407611"},{"type":"Feature","properties":{"@id":"way/1190407612","footway":"sidewalk","highway":"footway","surface":"asphalt","id":"way/1190407612"},"geometry":{"type":"LineString","coordinates":[[2.3735166,48.8565073],[2.3734871,48.8565124],[2.3734723,48.8565063]]},"id":"way/1190407612"},{"type":"Feature","properties":{"@id":"way/1190407613","footway":"sidewalk","highway":"footway","surface":"asphalt","id":"way/1190407613"},"geometry":{"type":"LineString","coordinates":[[2.3768992,48.8579337],[2.3763631,48.8577063],[2.3753642,48.8572863],[2.3744349,48.8568916],[2.3742465,48.8568155],[2.374211,48.8568012],[2.3735166,48.8565073],[2.373533,48.8564886]]},"id":"way/1190407613"},{"type":"Feature","properties":{"@id":"way/1190765047","crossing":"uncontrolled","crossing:markings":"yes","footway":"crossing","highway":"footway","lit":"yes","surface":"asphalt","id":"way/1190765047"},"geometry":{"type":"LineString","coordinates":[[2.3735021,48.8563889],[2.3735339,48.8564028],[2.373544,48.8564072]]},"id":"way/1190765047"},{"type":"Feature","properties":{"@id":"way/1190765048","crossing":"uncontrolled","crossing:markings":"yes","footway":"crossing","highway":"footway","lit":"yes","surface":"asphalt","id":"way/1190765048"},"geometry":{"type":"LineString","coordinates":[[2.373533,48.8564886],[2.3735457,48.8564741],[2.3735599,48.8564577]]},"id":"way/1190765048"},{"type":"Feature","properties":{"@id":"way/1190765049","crossing":"uncontrolled","crossing:markings":"yes","footway":"crossing","highway":"footway","lit":"yes","surface":"asphalt","id":"way/1190765049"},"geometry":{"type":"LineString","coordinates":[[2.3734261,48.8564882],[2.3734453,48.8564957],[2.3734723,48.8565063]]},"id":"way/1190765049"},{"type":"Feature","properties":{"@id":"way/1190765050","crossing":"uncontrolled","crossing:markings":"yes","footway":"crossing","highway":"footway","lit":"yes","surface":"asphalt","id":"way/1190765050"},"geometry":{"type":"LineString","coordinates":[[2.3733932,48.8564247],[2.3734041,48.8564138],[2.3734198,48.8563982]]},"id":"way/1190765050"},{"type":"Feature","properties":{"@id":"way/1190765051","crossing":"uncontrolled","crossing:markings":"zebra","footway":"crossing","highway":"footway","lit":"yes","surface":"asphalt","tactile_paving":"yes","id":"way/1190765051"},"geometry":{"type":"LineString","coordinates":[[2.3730351,48.8568235],[2.3731008,48.856752],[2.373125,48.8567218]]},"id":"way/1190765051"},{"type":"Feature","properties":{"@id":"way/1197828188","cycleway:both":"no","highway":"residential","lit":"yes","maxspeed":"30","name":"Rue Froment","name:etymology:wikidata":"Q1419387","oneway":"yes","oneway:bicycle":"no","sidewalk":"separate","sidewalk:both:surface":"asphalt","smoothness":"good","surface":"asphalt","traffic_calming":"table","id":"way/1197828188"},"geometry":{"type":"LineString","coordinates":[[2.3734089,48.8565324],[2.3734453,48.8564957],[2.3734868,48.8564487]]},"id":"way/1197828188"},{"type":"Feature","properties":{"@id":"way/1197828189","cycleway:both":"no","highway":"residential","lit":"yes","maxspeed":"30","name":"Rue du Commandant Lamy","name:etymology:wikidata":"Q353572","oneway":"yes","oneway:bicycle":"no","sidewalk:both":"separate","sidewalk:both:surface":"asphalt","smoothness":"good","surface":"asphalt","traffic_calming":"table","id":"way/1197828189"},"geometry":{"type":"LineString","coordinates":[[2.373558,48.8563817],[2.3735339,48.8564028],[2.3734868,48.8564487]]},"id":"way/1197828189"},{"type":"Feature","properties":{"@id":"way/1208456538","highway":"footway","id":"way/1208456538"},"geometry":{"type":"LineString","coordinates":[[2.3740342,48.8554694],[2.3736481,48.8559174]]},"id":"way/1208456538"},{"type":"Feature","properties":{"@id":"node/1674673931","brand":"Carrefour City","brand:wikidata":"Q2940187","brand:wikipedia":"fr:Carrefour City","check_date":"2024-09-22","check_date:opening_hours":"2024-09-22","level":"0","name":"Carrefour City","opening_hours":"Mo-Sa 08:00-22:00; Su 09:00-12:50","operator":"Groupe Carrefour","operator:wikidata":"Q3117359","operator:wikipedia":"fr:Groupe Carrefour","organic":"yes","phone":"+33 1 43 57 26 51","shop":"convenience","toilets":"no","website":"https://www.carrefour.fr/magasin/city-paris-sedaine","wheelchair":"yes","id":"node/1674673931"},"geometry":{"type":"Point","coordinates":[2.373694,48.8564342]},"id":"node/1674673931"},{"type":"Feature","properties":{"@id":"node/4086646645","amenity":"restaurant","check_date:opening_hours":"2024-09-22","indoor_seating":"yes","name":"Lago","opening_hours:signed":"no","outdoor_seating":"no","website":"https://lago.paris","id":"node/4086646645"},"geometry":{"type":"Point","coordinates":[2.373528,48.8565515]},"id":"node/4086646645"},{"type":"Feature","properties":{"@id":"node/4529707544","amenity":"restaurant","cuisine":"french","diet:vegetarian":"yes","email":"larobedelagirafe@hotmail.fr","happy_hours":"Mo-Su 17:00-19:30","name":"La Robe de la Girafe","opening_hours":"Mo-Fr 12:30-14:00; Tu-Sa 19:30-22:30","outdoor_seating":"yes","phone":"+33 9 82 37 18 52","takeaway":"yes","toilets":"yes","id":"node/4529707544"},"geometry":{"type":"Point","coordinates":[2.3731031,48.8566793]},"id":"node/4529707544"},{"type":"Feature","properties":{"@id":"node/4529707545","addr:city":"Paris","addr:housenumber":"23","addr:postcode":"75011","addr:street":"Rue Sedaine","amenity":"restaurant","check_date":"2024-04-06","diet:vegetarian":"yes","indoor_seating":"yes","name":"Monsieur Poirot","opening_hours":"Tu-Sa 12:00-15:00, 19:00-00:00","outdoor_seating":"yes","phone":"+33 1 48 06 76 97","id":"node/4529707545"},"geometry":{"type":"Point","coordinates":[2.3733418,48.8564759]},"id":"node/4529707545"},{"type":"Feature","properties":{"@id":"node/5273955199","addr:city":"Paris","addr:housenumber":"24","addr:postcode":"75011","addr:street":"Rue Sedaine","check_date":"2024-04-06","name":"Panier Saveurs","service:bicycle:diy":"no","shop":"convenience","id":"node/5273955199"},"geometry":{"type":"Point","coordinates":[2.3728517,48.8561083]},"id":"node/5273955199"},{"type":"Feature","properties":{"@id":"node/6976137581","amenity":"bar","cuisine":"sandwich","name":"Cagettes","opening_hours":"Mo-Fr 09:30-16:30; Sa 09:30-17:00","ref:FR:SIRET":"85014888300026","survey:date":"2025-09-07","takeaway":"yes","id":"node/6976137581"},"geometry":{"type":"Point","coordinates":[2.3732011,48.8565985]},"id":"node/6976137581"},{"type":"Feature","properties":{"@id":"node/10036274325","addr:city":"Paris","addr:housenumber":"30","addr:postcode":"75011","addr:street":"Rue Sedaine","amenity":"cafe","cuisine":"asian;vietnamese;cambodian;thai","level":"0","lottery":"yes","name":"Apsara","opening_hours":"Mo-Fr 07:30-21:00; Sa 09:00-21:00","outdoor_seating":"yes","phone":"+33147002068","ref:FR:SIRET":"50396580800010","tobacco":"yes","id":"node/10036274325"},"geometry":{"type":"Point","coordinates":[2.3734437,48.8563308]},"id":"node/10036274325"},{"type":"Feature","properties":{"@id":"node/10675974310","addr:city":"Paris","addr:housenumber":"31","addr:postcode":"75011","addr:street":"Rue Sedaine","check_date":"2024-04-06","contact:email":"piercetattoo75011@gmail.com","contact:phone":"+33 9 73 27 93 89","contact:website":"https://piercetattoo.fr/","name":"Pierce Tattoo","ref:FR:SIRET":"88375271900012","shop":"tattoo","wheelchair":"no","id":"node/10675974310"},"geometry":{"type":"Point","coordinates":[2.3737787,48.8566477]},"id":"node/10675974310"},{"type":"Feature","properties":{"@id":"node/10675974311","addr:city":"Paris","addr:housenumber":"25","addr:postcode":"75011","addr:street":"Rue Sedaine","check_date":"2024-04-06","indoor_seating":"yes","level":"0","name":"Miemïe","opening_hours":"Tu-Sa 08:00-20:00; Su 08:00-13:00; Mo,PH closed","outdoor_seating":"no","ref:FR:SIRET":"91004295100020","shop":"bakery","toilets":"no","wheelchair":"no","id":"node/10675974311"},"geometry":{"type":"Point","coordinates":[2.373634,48.856586]},"id":"node/10675974311"},{"type":"Feature","properties":{"@id":"node/10769142092","addr:city":"Paris","addr:housenumber":"19","addr:postcode":"75011","addr:street":"Rue Sedaine","name":"La Cave Sedaine","opening_hours":"Tu-Th 10:30-20:30; Fr-Sa 10:30-21:30; Su 10:30-13:30","shop":"wine","id":"node/10769142092"},"geometry":{"type":"Point","coordinates":[2.3727731,48.8562528]},"id":"node/10769142092"},{"type":"Feature","properties":{"@id":"node/10769184909","addr:city":"Paris","addr:housenumber":"23","addr:postcode":"75011","addr:street":"Rue Sedaine","check_date":"2025-06-01","check_date:opening_hours":"2025-06-01","name":"City Pet Shop","opening_hours":"Mo-Su 11:00-21:00","phone":"+33 1 82 28 12 24","shop":"pet","id":"node/10769184909"},"geometry":{"type":"Point","coordinates":[2.3731541,48.8563921]},"id":"node/10769184909"},{"type":"Feature","properties":{"@id":"node/11112900897","amenity":"waste_basket","material":"metal","source":"survey 2023","id":"node/11112900897"},"geometry":{"type":"Point","coordinates":[2.3731589,48.856712]},"id":"node/11112900897"},{"type":"Feature","properties":{"@id":"node/11627968310","check_date":"2024-04-06","name":"Charmod","shop":"clothes","id":"node/11627968310"},"geometry":{"type":"Point","coordinates":[2.3729841,48.8561522]},"id":"node/11627968310"}]}