{"type":"FeatureCollection","features":[{"type":"Feature","properties":{"@id":"way/49734496","building":"apartments","building:levels":"3","heritage":"2","heritage:operator":"mhs","historic":"manor","layer":"1","mhs:inscription_date":"1953-10-22","name":"Hôtel de Montmorin","ref:mhs":"PA00086307","roof:levels":"2","roof:shape":"hipped","source":"Direction générales des finances publiques - année 2010","source:heritage":"data.gouv.fr:Ministère de la Culture - 04/2015","wikidata":"Q3145916","wikipedia":"fr:Hôtel de Montmorin","id":"way/49734496"},"geometry":{"type":"Polygon","coordinates":[[[2.3647975,48.8548402],[2.3648769,48.8550376],[2.3648924,48.8550761],[2.3645815,48.8551282],[2.364565,48.8550902],[2.3645488,48.8550529],[2.3646129,48.8550414],[2.3647754,48.8550122],[2.3647156,48.8548559],[2.364724,48.8548543],[2.3647975,48.8548402]]]},"id":"way/49734496"},{"type":"Feature","properties":{"@id":"way/49734549","addr:housenumber":"11","addr:street":"Place des Vosges","alt_name":"Hôtel Colbert-de-Villacerf;Hôtel de Creil;Hôtel Voisenon","building":"apartments","building:levels":"3","heritage":"2","heritage:operator":"mhs","historic":"manor","layer":"1","mhs:inscription_date":"1954-10-26","name":"Hôtel Pierrard","ref:mhs":"PA00086311","roof:levels":"1","roof:shape":"hipped","source":"Direction générales des finances publiques - année 2010","source:heritage":"data.gouv.fr:Ministère de la Culture - 04/2015","wikidata":"Q3145629","wikipedia":"fr:Hôtel Pierrard","id":"way/49734549"},"geometry":{"type":"Polygon","coordinates":[[[2.3644713,48.8554142],[2.3645074,48.8555073],[2.36452,48.8555399],[2.3644612,48.85555],[2.3643949,48.8555615],[2.3643479,48.8554344],[2.3644117,48.855424],[2.3644713,48.8554142]]]},"id":"way/49734549"},{"type":"Feature","properties":{"@id":"way/49734566","building":"apartments","building:levels":"3","heritage":"2","heritage:operator":"mhs","historic":"manor","layer":"1","mhs:inscription_date":"1920-07-17","name":"Hôtel Dyel des Hameaux","ref:mhs":"PA00086287","roof:levels":"1","source":"Direction générales des finances publiques - année 2010","source:heritage":"data.gouv.fr:Ministère de la Culture - 04/2015","wikidata":"Q3145482","wikipedia":"fr:Hôtel Dyel des Hameaux","id":"way/49734566"},"geometry":{"type":"Polygon","coordinates":[[[2.36452,48.8555399],[2.3646192,48.8557908],[2.3645585,48.8558007],[2.3643713,48.8558312],[2.364354,48.8557849],[2.3644742,48.8557648],[2.3644238,48.8556321],[2.3643013,48.8556538],[2.3642751,48.8555819],[2.3643949,48.8555615],[2.3644612,48.85555],[2.36452,48.8555399]]]},"id":"way/49734566"},{"type":"Feature","properties":{"@id":"way/576429473","leisure":"garden","source":"BDOrtho IGN 2018","id":"way/576429473"},"geometry":{"type":"Polygon","coordinates":[[[2.3647737,48.8556838],[2.3647504,48.8556223],[2.3646901,48.8554588],[2.364645,48.8553438],[2.3646321,48.8553098],[2.3646977,48.8552369],[2.3647385,48.85523],[2.3649896,48.8551873],[2.3651952,48.8551523],[2.3652437,48.8552819],[2.3648474,48.8553503],[2.3649686,48.8556514],[2.3647737,48.8556838]]]},"id":"way/576429473"},{"type":"Feature","properties":{"@id":"way/1164755197","area":"yes","footway":"sidewalk","highway":"footway","lit":"yes","surface":"paving_stones","id":"way/1164755197"},"geometry":{"type":"Polygon","coordinates":[[[2.3644002,48.8551759],[2.3643978,48.8551806],[2.3643985,48.8551853],[2.3644454,48.8553053],[2.3646284,48.8557741],[2.3646611,48.8558579],[2.3646846,48.8559193],[2.364834,48.8562978],[2.3648366,48.8563061],[2.3648358,48.8563119],[2.3648331,48.8563176],[2.3648274,48.8563216],[2.3648219,48.8563244],[2.3648153,48.8563262],[2.3647999,48.8563285],[2.3647642,48.8563337],[2.3647575,48.8563119],[2.3647114,48.8561931],[2.3646815,48.8561164],[2.3646523,48.8560407],[2.3646071,48.8559264],[2.3645774,48.8558489],[2.3645585,48.8558007],[2.3645161,48.8556914],[2.3644612,48.85555],[2.3644424,48.8554997],[2.3644117,48.855424],[2.3643585,48.8552833],[2.3643163,48.8551761],[2.3643481,48.8551766],[2.3643895,48.855176],[2.3644002,48.8551759]]]},"id":"way/1164755197"},{"type":"Feature","properties":{"@id":"way/1164755198","area":"yes","footway":"sidewalk","highway":"footway","lit":"yes","smoothness":"excellent","surface":"asphalt","id":"way/1164755198"},"geometry":{"type":"Polygon","coordinates":[[[2.3643163,48.8551761],[2.3642999,48.8551346],[2.3643304,48.8551293],[2.3643617,48.8551241],[2.3644399,48.8551115],[2.364565,48.8550902],[2.3647018,48.8550671],[2.3648769,48.8550376],[2.3650069,48.8550141],[2.3651833,48.854985],[2.3651847,48.8549886],[2.3652237,48.8549818],[2.3652708,48.8549737],[2.3652775,48.8549913],[2.3652853,48.8550098],[2.3652863,48.855012],[2.3652863,48.8550137],[2.3652862,48.8550156],[2.3652849,48.8550185],[2.3652822,48.855021],[2.3652799,48.8550225],[2.365276,48.8550233],[2.3652396,48.8550288],[2.3644093,48.8551695],[2.364403,48.8551729],[2.3644002,48.8551759],[2.3643895,48.855176],[2.3643481,48.8551766],[2.3643163,48.8551761]]]},"id":"way/1164755198"},{"type":"Feature","properties":{"@id":"way/1164756282","area":"yes","footway":"sidewalk","highway":"footway","lit":"yes","surface":"paving_stones","id":"way/1164756282"},"geometry":{"type":"Polygon","coordinates":[[[2.3646977,48.8552369],[2.3646621,48.8552764],[2.3646333,48.8552776],[2.3646043,48.8552789],[2.3646132,48.8552637],[2.3646328,48.8552451],[2.3646563,48.8552314],[2.3646806,48.8552232],[2.36528,48.8551204],[2.3653965,48.8551006],[2.366001,48.8549971],[2.3660339,48.8549936],[2.3660634,48.854996],[2.3660956,48.8550049],[2.3661174,48.8550148],[2.3661355,48.85503],[2.3661057,48.8550329],[2.3660691,48.8550365],[2.3660105,48.8550135],[2.3659913,48.8550168],[2.3657013,48.8550665],[2.3655087,48.8550989],[2.3654537,48.8551083],[2.3653717,48.8551222],[2.3653774,48.8551397],[2.365359,48.8551424],[2.3653402,48.8551456],[2.3653344,48.8551286],[2.3652427,48.8551442],[2.3651952,48.8551523],[2.3649896,48.8551873],[2.3647385,48.85523],[2.3646977,48.8552369]]]},"id":"way/1164756282"},{"type":"Feature","properties":{"@id":"way/1164756285","area":"yes","footway":"sidewalk","highway":"footway","lit":"yes","surface":"asphalt","id":"way/1164756285"},"geometry":{"type":"Polygon","coordinates":[[[2.3646321,48.8553098],[2.364645,48.8553438],[2.3646901,48.8554588],[2.3647737,48.8556838],[2.3647945,48.8557339],[2.3648162,48.8557304],[2.3648201,48.8557404],[2.3648245,48.855751],[2.3648027,48.8557545],[2.3648176,48.8557938],[2.3649649,48.8561772],[2.3650192,48.8561982],[2.365007,48.8562116],[2.3649912,48.856229],[2.3649714,48.8562195],[2.3649587,48.8562091],[2.3649473,48.8561981],[2.3649412,48.8561893],[2.3649362,48.8561789],[2.3647701,48.8557507],[2.3646061,48.8553319],[2.3646001,48.8553127],[2.3645989,48.8552998],[2.3646013,48.8552899],[2.3646043,48.8552789],[2.3646333,48.8552776],[2.3646621,48.8552764],[2.3646321,48.8553098]]]},"id":"way/1164756285"},{"type":"Feature","properties":{"@id":"way/4574357","cycleway:both":"no","highway":"residential","lit":"yes","maxspeed":"30","maxspeed:type":"FR:zone30","name":"Rue de Birague","name:etymology:wikidata":"Q921075","oneway":"yes","oneway:bicycle":"no","sidewalk:both":"separate","smoothness":"good","surface":"asphalt","width":"10","id":"way/4574357"},"geometry":{"type":"LineString","coordinates":[[2.3653041,48.8550064],[2.3653059,48.8550102],[2.3653321,48.8550653]]},"id":"way/4574357"},{"type":"Feature","properties":{"@id":"way/18232134","cycleway:both":"no","highway":"residential","lit":"yes","maxspeed":"30","name":"Place des Vosges","name:de":"Vogesenplatz","name:etymology:wikidata":"Q3105","name:fr":"Place des Vosges","name:zh":"孚日广场","oneway":"yes","oneway:bicycle":"no","sidewalk:both":"separate","smoothness":"good","surface":"asphalt","zone:maxspeed":"FR:30","id":"way/18232134"},"geometry":{"type":"LineString","coordinates":[[2.3665633,48.8560484],[2.3665853,48.8559946],[2.3663862,48.8554809],[2.3662053,48.8550141],[2.3661986,48.8549974],[2.3661858,48.8549824],[2.3661681,48.8549702],[2.3661465,48.8549612],[2.3661221,48.8549559],[2.3660787,48.8549509],[2.3660346,48.8549513],[2.3653898,48.8550553],[2.3653321,48.8550653],[2.3652606,48.8550777],[2.3646193,48.8551882],[2.3645865,48.8551947],[2.364557,48.8552061],[2.3645354,48.8552195],[2.3645185,48.8552356],[2.3645102,48.8552535],[2.3645104,48.8552722],[2.3645178,48.8552933],[2.3647004,48.8557622],[2.3649055,48.8562665],[2.3649664,48.856307]]},"id":"way/18232134"},{"type":"Feature","properties":{"@id":"way/56077547","cycleway:both":"no","highway":"residential","maxheight":"default","maxspeed":"30","name":"Rue de Birague","name:etymology:wikidata":"Q921075","oneway":"yes","oneway:bicycle":"no","sidewalk:both":"separate","smoothness":"good","surface":"asphalt","tunnel":"building_passage","zone:maxspeed":"FR:30","id":"way/56077547"},"geometry":{"type":"LineString","coordinates":[[2.3652609,48.8548983],[2.3652967,48.8549879],[2.3653041,48.8550064]]},"id":"way/56077547"},{"type":"Feature","properties":{"@id":"way/98712060","bicycle":"no","highway":"footway","lit":"yes","motor_vehicle":"no","name":"Place des Vosges","name:de":"Vogesenplatz","name:etymology:wikidata":"Q3105","name:fr":"Place des Vosges","name:zh":"孚日广场","render":"no","render:note":"Segment de liaison pour calcul d'itinéraire. Prière de contacter lapinos03 si contestation.","surface":"compacted","id":"way/98712060"},"geometry":{"type":"LineString","coordinates":[[2.3654909,48.8554789],[2.3654115,48.8552755],[2.365359,48.8551424],[2.3653503,48.8551185]]},"id":"way/98712060"},{"type":"Feature","properties":{"@id":"way/98712062","bicycle":"no","highway":"footway","lit":"yes","motor_vehicle":"no","name":"Place des Vosges","name:de":"Vogesenplatz","name:etymology:wikidata":"Q3105","name:fr":"Place des Vosges","name:zh":"孚日广场","render":"no","render:note":"Segment de liaison pour calcul d'itinéraire. Prière de contacter lapinos03 si contestation.","surface":"compacted","id":"way/98712062"},"geometry":{"type":"LineString","coordinates":[[2.3648201,48.8557404],[2.3650122,48.855709]]},"id":"way/98712062"},{"type":"Feature","properties":{"@id":"way/98712063","highway":"footway","lit":"yes","motor_vehicle":"no","name":"Place des Vosges","name:de":"Vogesenplatz","name:etymology:wikidata":"Q3105","name:fr":"Place des Vosges","name:zh":"孚日广场","render":"no","render:note":"Segment de liaison pour calcul d'itinéraire. Prière de contacter lapinos03 si contestation.","surface":"compacted","id":"way/98712063"},"geometry":{"type":"LineString","coordinates":[[2.3656068,48.8557622],[2.3656813,48.855969],[2.3657282,48.8560993]]},"id":"way/98712063"},{"type":"Feature","properties":{"@id":"way/149749644","access":"yes","covered":"building_arcade","highway":"footway","lit":"yes","source":"survey 2013","surface":"asphalt","id":"way/149749644"},"geometry":{"type":"LineString","coordinates":[[2.3643246,48.8551134],[2.3643304,48.8551293],[2.364339,48.855151],[2.3643481,48.8551766],[2.3645863,48.8557805],[2.3647931,48.856306]]},"id":"way/149749644"},{"type":"Feature","properties":{"@id":"way/230305135","access":"yes","covered":"building_arcade","highway":"footway","lit":"yes","source":"survey 2013","surface":"asphalt","id":"way/230305135"},"geometry":{"type":"LineString","coordinates":[[2.364339,48.855151],[2.3652327,48.8549987],[2.3652775,48.8549913],[2.3652967,48.8549879],[2.3653148,48.8549847],[2.3653669,48.8549758],[2.3662552,48.8548243]]},"id":"way/230305135"},{"type":"Feature","properties":{"@id":"way/230305142","crossing":"uncontrolled","crossing:markings":"zebra","crossing:signals":"no","footway":"crossing","highway":"footway","lit":"yes","surface":"asphalt","id":"way/230305142"},"geometry":{"type":"LineString","coordinates":[[2.3647701,48.8557507],[2.3647004,48.8557622],[2.3646284,48.8557741]]},"id":"way/230305142"},{"type":"Feature","properties":{"@id":"way/948652815","highway":"footway","lit":"yes","smoothness":"good","surface":"compacted","id":"way/948652815"},"geometry":{"type":"LineString","coordinates":[[2.3655456,48.8557675],[2.3654844,48.8557616],[2.3654281,48.8557449],[2.3653869,48.8557228],[2.3653548,48.8556949],[2.3653319,48.8556589],[2.3653243,48.8556201],[2.3653319,48.8555829],[2.3653536,48.8555481],[2.3653894,48.8555172],[2.3654363,48.8554936],[2.3654909,48.8554789],[2.3655478,48.8554741],[2.3656046,48.8554791],[2.3656576,48.8554934],[2.3657062,48.855518],[2.3657428,48.8555504],[2.3657631,48.8555842],[2.3657702,48.8556203],[2.3657616,48.8556611],[2.3657362,48.8556987],[2.3657015,48.8557267],[2.3656575,48.8557483],[2.3656068,48.8557622],[2.3655456,48.8557675]]},"id":"way/948652815"},{"type":"Feature","properties":{"@id":"way/948652820","crossing":"marked","crossing:markings":"zebra","footway":"crossing","highway":"footway","lit":"yes","surface":"asphalt","id":"way/948652820"},"geometry":{"type":"LineString","coordinates":[[2.3653965,48.8551006],[2.3653898,48.8550553],[2.3653806,48.8550055]]},"id":"way/948652820"},{"type":"Feature","properties":{"@id":"way/948652821","crossing":"marked","crossing:markings":"zebra","footway":"crossing","highway":"footway","lit":"yes","surface":"asphalt","id":"way/948652821"},"geometry":{"type":"LineString","coordinates":[[2.36528,48.8551204],[2.3652606,48.8550777],[2.3652396,48.8550288]]},"id":"way/948652821"},{"type":"Feature","properties":{"@id":"way/997553985","highway":"footway","lit":"yes","surface":"sett","id":"way/997553985"},"geometry":{"type":"LineString","coordinates":[[2.3653984,48.85511],[2.3653503,48.8551185],[2.3652837,48.8551296]]},"id":"way/997553985"},{"type":"Feature","properties":{"@id":"way/1078989768","bicycle":"no","highway":"footway","lit":"yes","motor_vehicle":"no","name":"Place des Vosges","name:de":"Vogesenplatz","name:etymology:wikidata":"Q3105","name:fr":"Place des Vosges","name:zh":"孚日广场","render":"no","render:note":"Segment de liaison pour calcul d'itinéraire. Prière de contacter lapinos03 si contestation.","surface":"compacted","id":"way/1078989768"},"geometry":{"type":"LineString","coordinates":[[2.3653243,48.8556201],[2.364999,48.8556743]]},"id":"way/1078989768"},{"type":"Feature","properties":{"@id":"way/1078989769","bicycle":"no","highway":"footway","lit":"yes","motor_vehicle":"no","name":"Place des Vosges","name:de":"Vogesenplatz","name:etymology:wikidata":"Q3105","name:fr":"Place des Vosges","name:zh":"孚日广场","render":"no","render:note":"Segment de liaison pour calcul d'itinéraire. Prière de contacter lapinos03 si contestation.","surface":"compacted","id":"way/1078989769"},"geometry":{"type":"LineString","coordinates":[[2.3657702,48.8556203],[2.3660904,48.855567]]},"id":"way/1078989769"},{"type":"Feature","properties":{"@id":"way/1078989771","bicycle":"no","highway":"footway","lit":"yes","motor_vehicle":"no","name":"Place des Vosges","name:de":"Vogesenplatz","name:etymology:wikidata":"Q3105","name:fr":"Place des Vosges","name:zh":"孚日广场","render":"no","render:note":"Segment de liaison pour calcul d'itinéraire. Prière de contacter lapinos03 si contestation.","surface":"compacted","id":"way/1078989771"},"geometry":{"type":"LineString","coordinates":[[2.3660638,48.8554971],[2.3657428,48.8555504]]},"id":"way/1078989771"},{"type":"Feature","properties":{"@id":"way/1078989772","bicycle":"no","highway":"footway","lit":"yes","motor_vehicle":"no","name":"Place des Vosges","name:de":"Vogesenplatz","name:etymology:wikidata":"Q3105","name:fr":"Place des Vosges","name:zh":"孚日广场","render":"no","render:note":"Segment de liaison pour calcul d'itinéraire. Prière de contacter lapinos03 si contestation.","surface":"compacted","id":"way/1078989772"},"geometry":{"type":"LineString","coordinates":[[2.3650256,48.8557442],[2.3653548,48.8556949]]},"id":"way/1078989772"},{"type":"Feature","properties":{"@id":"way/1078989773","highway":"footway","lit":"yes","smoothness":"good","surface":"compacted","id":"way/1078989773"},"geometry":{"type":"LineString","coordinates":[[2.3653096,48.8558765],[2.3654281,48.8557449]]},"id":"way/1078989773"},{"type":"Feature","properties":{"@id":"way/1078989777","highway":"footway","lit":"yes","smoothness":"good","surface":"compacted","id":"way/1078989777"},"geometry":{"type":"LineString","coordinates":[[2.3659324,48.855775],[2.3657362,48.8556987]]},"id":"way/1078989777"},{"type":"Feature","properties":{"@id":"way/1078989779","highway":"footway","lit":"yes","smoothness":"good","surface":"compacted","id":"way/1078989779"},"geometry":{"type":"LineString","coordinates":[[2.3651524,48.8554691],[2.3653536,48.8555481]]},"id":"way/1078989779"},{"type":"Feature","properties":{"@id":"way/1078989780","highway":"footway","lit":"yes","smoothness":"good","surface":"compacted","id":"way/1078989780"},"geometry":{"type":"LineString","coordinates":[[2.3650456,48.8554252],[2.3648803,48.8553631]]},"id":"way/1078989780"},{"type":"Feature","properties":{"@id":"way/1078989781","highway":"footway","lit":"yes","smoothness":"good","surface":"compacted","id":"way/1078989781"},"geometry":{"type":"LineString","coordinates":[[2.3651544,48.8554278],[2.3651409,48.8554165],[2.3651224,48.8554089],[2.3651011,48.8554059],[2.3650795,48.8554079],[2.3650602,48.8554146],[2.3650456,48.8554252],[2.3650377,48.8554371],[2.3650359,48.8554501],[2.3650403,48.8554628],[2.3650505,48.855474],[2.3650654,48.8554825],[2.3650836,48.8554876],[2.3651033,48.8554887],[2.3651226,48.8554857],[2.3651395,48.855479],[2.3651524,48.8554691],[2.3651605,48.8554558],[2.3651611,48.8554414],[2.3651544,48.8554278]]},"id":"way/1078989781"},{"type":"Feature","properties":{"@id":"way/1078989782","highway":"footway","lit":"yes","smoothness":"good","surface":"compacted","id":"way/1078989782"},"geometry":{"type":"LineString","coordinates":[[2.3654115,48.8552755],[2.3659457,48.8551873],[2.3660638,48.8554971],[2.3660766,48.8555306],[2.3660904,48.855567],[2.3662104,48.8558817],[2.3656813,48.855969],[2.365145,48.8560575],[2.3650256,48.8557442],[2.3650122,48.855709],[2.364999,48.8556743],[2.3648803,48.8553631],[2.3654115,48.8552755]]},"id":"way/1078989782"},{"type":"Feature","properties":{"@id":"way/1078989784","highway":"footway","lit":"yes","smoothness":"good","surface":"compacted","id":"way/1078989784"},"geometry":{"type":"LineString","coordinates":[[2.3657736,48.855365],[2.3656576,48.8554934]]},"id":"way/1078989784"},{"type":"Feature","properties":{"@id":"way/1078989785","highway":"footway","lit":"yes","smoothness":"good","surface":"compacted","id":"way/1078989785"},"geometry":{"type":"LineString","coordinates":[[2.365856,48.8553025],[2.3658396,48.8552928],[2.3658209,48.8552876],[2.3658008,48.8552866],[2.3657811,48.8552897],[2.3657639,48.8552967],[2.3657509,48.8553069],[2.3657433,48.8553192],[2.365742,48.8553325],[2.365747,48.8553454],[2.3657579,48.8553566],[2.3657736,48.855365],[2.3657943,48.85537],[2.3658163,48.8553701],[2.365837,48.8553653],[2.3658541,48.8553562],[2.3658655,48.8553438],[2.3658697,48.8553295],[2.3658665,48.8553152],[2.365856,48.8553025]]},"id":"way/1078989785"},{"type":"Feature","properties":{"@id":"way/1164755228","bicycle":"no","highway":"footway","lit":"yes","motor_vehicle":"no","name":"Place des Vosges","name:de":"Vogesenplatz","name:etymology:wikidata":"Q3105","name:fr":"Place des Vosges","name:zh":"孚日广场","render":"no","render:note":"Segment de liaison pour calcul d'itinéraire. Prière de contacter lapinos03 si contestation.","surface":"compacted","id":"way/1164755228"},"geometry":{"type":"LineString","coordinates":[[2.3653806,48.8550055],[2.3653669,48.8549758]]},"id":"way/1164755228"},{"type":"Feature","properties":{"@id":"way/1164755229","bicycle":"no","highway":"footway","lit":"yes","motor_vehicle":"no","name":"Place des Vosges","name:de":"Vogesenplatz","name:etymology:wikidata":"Q3105","name:fr":"Place des Vosges","name:zh":"孚日广场","render":"no","render:note":"Segment de liaison pour calcul d'itinéraire. Prière de contacter lapinos03 si contestation.","surface":"compacted","id":"way/1164755229"},"geometry":{"type":"LineString","coordinates":[[2.3653984,48.85511],[2.3653965,48.8551006]]},"id":"way/1164755229"},{"type":"Feature","properties":{"@id":"way/1164755230","bicycle":"no","highway":"footway","lit":"yes","motor_vehicle":"no","name":"Place des Vosges","name:de":"Vogesenplatz","name:etymology:wikidata":"Q3105","name:fr":"Place des Vosges","name:zh":"孚日广场","render":"no","render:note":"Segment de liaison pour calcul d'itinéraire. Prière de contacter lapinos03 si contestation.","surface":"compacted","id":"way/1164755230"},"geometry":{"type":"LineString","coordinates":[[2.3652396,48.8550288],[2.3652381,48.8550221],[2.3652327,48.8549987]]},"id":"way/1164755230"},{"type":"Feature","properties":{"@id":"way/1164755231","bicycle":"no","highway":"footway","lit":"yes","motor_vehicle":"no","name":"Place des Vosges","name:de":"Vogesenplatz","name:etymology:wikidata":"Q3105","name:fr":"Place des Vosges","name:zh":"孚日广场","render":"no","render:note":"Segment de liaison pour calcul d'itinéraire. Prière de contacter lapinos03 si contestation.","surface":"compacted","id":"way/1164755231"},"geometry":{"type":"LineString","coordinates":[[2.3652837,48.8551296],[2.36528,48.8551204]]},"id":"way/1164755231"},{"type":"Feature","properties":{"@id":"way/1164755232","footway":"sidewalk","highway":"footway","lit":"yes","surface":"asphalt","id":"way/1164755232"},"geometry":{"type":"LineString","coordinates":[[2.3644454,48.8553053],[2.3645178,48.8552933],[2.3646043,48.8552789]]},"id":"way/1164755232"},{"type":"Feature","properties":{"@id":"way/1164755233","highway":"footway","lit":"yes","motor_vehicle":"no","name":"Place des Vosges","name:de":"Vogesenplatz","name:etymology:wikidata":"Q3105","name:fr":"Place des Vosges","name:zh":"孚日广场","render":"no","render:note":"Segment de liaison pour calcul d'itinéraire. Prière de contacter lapinos03 si contestation.","source":"survey 2013","surface":"asphalt","id":"way/1164755233"},"geometry":{"type":"LineString","coordinates":[[2.3646284,48.8557741],[2.3646225,48.855775],[2.3645863,48.8557805]]},"id":"way/1164755233"},{"type":"Feature","properties":{"@id":"way/1164755234","highway":"footway","lit":"yes","motor_vehicle":"no","name":"Place des Vosges","name:de":"Vogesenplatz","name:etymology:wikidata":"Q3105","name:fr":"Place des Vosges","name:zh":"孚日广场","render":"no","render:note":"Segment de liaison pour calcul d'itinéraire. Prière de contacter lapinos03 si contestation.","surface":"compacted","id":"way/1164755234"},"geometry":{"type":"LineString","coordinates":[[2.3647701,48.8557507],[2.3647867,48.8557466],[2.3648201,48.8557404]]},"id":"way/1164755234"},{"type":"Feature","properties":{"@id":"way/1190197185","footway":"sidewalk","highway":"footway","lit":"yes","surface":"paving_stones","id":"way/1190197185"},"geometry":{"type":"LineString","coordinates":[[2.3650194,48.8562197],[2.365007,48.8562116],[2.3649483,48.8561732],[2.3647867,48.8557466],[2.3646123,48.8553029],[2.3646333,48.8552776]]},"id":"way/1190197185"},{"type":"Feature","properties":{"@id":"way/1190197190","footway":"sidewalk","highway":"footway","lit":"yes","surface":"asphalt","id":"way/1190197190"},"geometry":{"type":"LineString","coordinates":[[2.3653984,48.85511],[2.3660228,48.8550029],[2.3661057,48.8550329],[2.3661197,48.855038],[2.3661355,48.85503]]},"id":"way/1190197190"},{"type":"Feature","properties":{"@id":"way/1190197191","footway":"sidewalk","highway":"footway","lit":"yes","smoothness":"intermediate","surface":"sett","id":"way/1190197191"},"geometry":{"type":"LineString","coordinates":[[2.3652837,48.8551296],[2.3652792,48.8551299],[2.3646868,48.8552334],[2.3646333,48.8552776],[2.3646043,48.8552789]]},"id":"way/1190197191"},{"type":"Feature","properties":{"@id":"way/1190197192","footway":"sidewalk","highway":"footway","lit":"yes","id":"way/1190197192"},"geometry":{"type":"LineString","coordinates":[[2.3648259,48.8562976],[2.3646225,48.855775],[2.3643895,48.855176],[2.3643934,48.8551694],[2.3644256,48.8551615],[2.3652381,48.8550221],[2.3652863,48.8550137],[2.3653059,48.8550102]]},"id":"way/1190197192"},{"type":"Feature","properties":{"@id":"node/2358380295","leaf_cycle":"deciduous","leaf_type":"broadleaved","natural":"tree","id":"node/2358380295"},"geometry":{"type":"Point","coordinates":[2.3656704,48.8556854]},"id":"node/2358380295"},{"type":"Feature","properties":{"@id":"node/2358380296","leaf_cycle":"deciduous","leaf_type":"broadleaved","natural":"tree","id":"node/2358380296"},"geometry":{"type":"Point","coordinates":[2.3649267,48.855802]},"id":"node/2358380296"},{"type":"Feature","properties":{"@id":"node/2358380298","leaf_cycle":"deciduous","leaf_type":"broadleaved","natural":"tree","id":"node/2358380298"},"geometry":{"type":"Point","coordinates":[2.3650116,48.8558356]},"id":"node/2358380298"},{"type":"Feature","properties":{"@id":"node/2358380299","leaf_cycle":"deciduous","leaf_type":"broadleaved","natural":"tree","id":"node/2358380299"},"geometry":{"type":"Point","coordinates":[2.36486,48.855811]},"id":"node/2358380299"},{"type":"Feature","properties":{"@id":"node/2358380302","leaf_cycle":"deciduous","leaf_type":"broadleaved","natural":"tree","id":"node/2358380302"},"geometry":{"type":"Point","coordinates":[2.3653671,48.8555236]},"id":"node/2358380302"},{"type":"Feature","properties":{"@id":"node/2358380307","leaf_cycle":"deciduous","leaf_type":"broadleaved","natural":"tree","id":"node/2358380307"},"geometry":{"type":"Point","coordinates":[2.3649956,48.8557928]},"id":"node/2358380307"},{"type":"Feature","properties":{"@id":"node/2358380308","leaf_cycle":"deciduous","leaf_type":"broadleaved","natural":"tree","id":"node/2358380308"},"geometry":{"type":"Point","coordinates":[2.364943,48.8558442]},"id":"node/2358380308"},{"type":"Feature","properties":{"@id":"node/2358380319","leaf_cycle":"deciduous","leaf_type":"broadleaved","natural":"tree","id":"node/2358380319"},"geometry":{"type":"Point","coordinates":[2.3653895,48.8556143]},"id":"node/2358380319"},{"type":"Feature","properties":{"@id":"node/2358380320","leaf_cycle":"deciduous","leaf_type":"broadleaved","natural":"tree","id":"node/2358380320"},"geometry":{"type":"Point","coordinates":[2.365539,48.8555188]},"id":"node/2358380320"},{"type":"Feature","properties":{"@id":"node/2358380322","leaf_cycle":"deciduous","leaf_type":"broadleaved","natural":"tree","id":"node/2358380322"},"geometry":{"type":"Point","coordinates":[2.3656517,48.8555575]},"id":"node/2358380322"},{"type":"Feature","properties":{"@id":"node/2358380330","leaf_cycle":"deciduous","leaf_type":"broadleaved","natural":"tree","id":"node/2358380330"},"geometry":{"type":"Point","coordinates":[2.3653358,48.8556902]},"id":"node/2358380330"},{"type":"Feature","properties":{"@id":"node/2358380336","leaf_cycle":"deciduous","leaf_type":"broadleaved","natural":"tree","id":"node/2358380336"},"geometry":{"type":"Point","coordinates":[2.3655551,48.855718]},"id":"node/2358380336"},{"type":"Feature","properties":{"@id":"node/2358955096","leaf_cycle":"deciduous","leaf_type":"broadleaved","natural":"tree","id":"node/2358955096"},"geometry":{"type":"Point","coordinates":[2.3647128,48.85544]},"id":"node/2358955096"},{"type":"Feature","properties":{"@id":"node/2358955100","leaf_cycle":"deciduous","leaf_type":"broadleaved","natural":"tree","id":"node/2358955100"},"geometry":{"type":"Point","coordinates":[2.3648173,48.85552]},"id":"node/2358955100"},{"type":"Feature","properties":{"@id":"node/2358955112","leaf_cycle":"deciduous","leaf_type":"broadleaved","natural":"tree","id":"node/2358955112"},"geometry":{"type":"Point","coordinates":[2.3656356,48.8554745]},"id":"node/2358955112"},{"type":"Feature","properties":{"@id":"node/2358955116","leaf_cycle":"deciduous","leaf_type":"broadleaved","natural":"tree","id":"node/2358955116"},"geometry":{"type":"Point","coordinates":[2.3648847,48.8555107]},"id":"node/2358955116"},{"type":"Feature","properties":{"@id":"node/2358955139","leaf_cycle":"deciduous","leaf_type":"broadleaved","natural":"tree","id":"node/2358955139"},"geometry":{"type":"Point","coordinates":[2.3650129,48.8553015]},"id":"node/2358955139"},{"type":"Feature","properties":{"@id":"node/2358955148","leaf_cycle":"deciduous","leaf_type":"broadleaved","natural":"tree","id":"node/2358955148"},"geometry":{"type":"Point","coordinates":[2.3648016,48.8552936]},"id":"node/2358955148"},{"type":"Feature","properties":{"@id":"node/2358955155","leaf_cycle":"deciduous","leaf_type":"broadleaved","natural":"tree","id":"node/2358955155"},"geometry":{"type":"Point","coordinates":[2.3649934,48.8552588]},"id":"node/2358955155"},{"type":"Feature","properties":{"@id":"node/2358955163","leaf_cycle":"deciduous","leaf_type":"broadleaved","natural":"tree","id":"node/2358955163"},"geometry":{"type":"Point","coordinates":[2.3655669,48.8551606]},"id":"node/2358955163"},{"type":"Feature","properties":{"@id":"node/2358955168","leaf_cycle":"deciduous","leaf_type":"broadleaved","natural":"tree","id":"node/2358955168"},"geometry":{"type":"Point","coordinates":[2.3648029,48.8554804]},"id":"node/2358955168"},{"type":"Feature","properties":{"@id":"node/2358955172","leaf_cycle":"deciduous","leaf_type":"broadleaved","natural":"tree","id":"node/2358955172"},"geometry":{"type":"Point","coordinates":[2.3657941,48.8555952]},"id":"node/2358955172"},{"type":"Feature","properties":{"@id":"node/2358955175","leaf_cycle":"deciduous","leaf_type":"broadleaved","natural":"tree","id":"node/2358955175"},"geometry":{"type":"Point","coordinates":[2.3648678,48.8552816]},"id":"node/2358955175"},{"type":"Feature","properties":{"@id":"node/2358955177","leaf_cycle":"deciduous","leaf_type":"broadleaved","natural":"tree","id":"node/2358955177"},"geometry":{"type":"Point","coordinates":[2.3648843,48.8553229]},"id":"node/2358955177"},{"type":"Feature","properties":{"@id":"node/2358955181","leaf_cycle":"deciduous","leaf_type":"broadleaved","natural":"tree","id":"node/2358955181"},"geometry":{"type":"Point","coordinates":[2.3654408,48.8554861]},"id":"node/2358955181"},{"type":"Feature","properties":{"@id":"node/2358955183","leaf_cycle":"deciduous","leaf_type":"broadleaved","natural":"tree","id":"node/2358955183"},"geometry":{"type":"Point","coordinates":[2.3656985,48.8551385]},"id":"node/2358955183"},{"type":"Feature","properties":{"@id":"node/2358955190","leaf_cycle":"deciduous","leaf_type":"broadleaved","natural":"tree","id":"node/2358955190"},"geometry":{"type":"Point","coordinates":[2.3655505,48.8551154]},"id":"node/2358955190"},{"type":"Feature","properties":{"@id":"node/2358955193","leaf_cycle":"deciduous","leaf_type":"broadleaved","natural":"tree","id":"node/2358955193"},"geometry":{"type":"Point","coordinates":[2.3646977,48.8554002]},"id":"node/2358955193"},{"type":"Feature","properties":{"@id":"node/2358955197","leaf_cycle":"deciduous","leaf_type":"broadleaved","natural":"tree","id":"node/2358955197"},"geometry":{"type":"Point","coordinates":[2.3650417,48.855203]},"id":"node/2358955197"},{"type":"Feature","properties":{"@id":"node/2358955200","leaf_cycle":"deciduous","leaf_type":"broadleaved","natural":"tree","id":"node/2358955200"},"geometry":{"type":"Point","coordinates":[2.3655819,48.8552019]},"id":"node/2358955200"},{"type":"Feature","properties":{"@id":"node/2358955212","leaf_cycle":"deciduous","leaf_type":"broadleaved","natural":"tree","id":"node/2358955212"},"geometry":{"type":"Point","coordinates":[2.364833,48.8553759]},"id":"node/2358955212"},{"type":"Feature","properties":{"@id":"node/2358955215","leaf_cycle":"deciduous","leaf_type":"broadleaved","natural":"tree","id":"node/2358955215"},"geometry":{"type":"Point","coordinates":[2.3648635,48.8556474]},"id":"node/2358955215"},{"type":"Feature","properties":{"@id":"node/2358955226","leaf_cycle":"deciduous","leaf_type":"broadleaved","natural":"tree","id":"node/2358955226"},"geometry":{"type":"Point","coordinates":[2.3649492,48.8553121]},"id":"node/2358955226"},{"type":"Feature","properties":{"@id":"node/2358955233","leaf_cycle":"deciduous","leaf_type":"broadleaved","natural":"tree","id":"node/2358955233"},"geometry":{"type":"Point","coordinates":[2.3648315,48.8555591]},"id":"node/2358955233"},{"type":"Feature","properties":{"@id":"node/2358955240","leaf_cycle":"deciduous","leaf_type":"broadleaved","natural":"tree","id":"node/2358955240"},"geometry":{"type":"Point","coordinates":[2.3648997,48.8555498]},"id":"node/2358955240"},{"type":"Feature","properties":{"@id":"node/2358955243","leaf_cycle":"deciduous","leaf_type":"broadleaved","natural":"tree","id":"node/2358955243"},"geometry":{"type":"Point","coordinates":[2.3651284,48.8552343]},"id":"node/2358955243"},{"type":"Feature","properties":{"@id":"node/2358955246","leaf_cycle":"deciduous","leaf_type":"broadleaved","natural":"tree","id":"node/2358955246"},"geometry":{"type":"Point","coordinates":[2.3657653,48.8551273]},"id":"node/2358955246"},{"type":"Feature","properties":{"@id":"node/2358955251","leaf_cycle":"deciduous","leaf_type":"broadleaved","natural":"tree","id":"node/2358955251"},"geometry":{"type":"Point","coordinates":[2.3648493,48.855236]},"id":"node/2358955251"},{"type":"Feature","properties":{"@id":"node/2358955255","leaf_cycle":"deciduous","leaf_type":"broadleaved","natural":"tree","id":"node/2358955255"},"geometry":{"type":"Point","coordinates":[2.3647951,48.8556575]},"id":"node/2358955255"},{"type":"Feature","properties":{"@id":"node/2358955258","leaf_cycle":"deciduous","leaf_type":"broadleaved","natural":"tree","id":"node/2358955258"},"geometry":{"type":"Point","coordinates":[2.3657476,48.855081]},"id":"node/2358955258"},{"type":"Feature","properties":{"@id":"node/2358955265","leaf_cycle":"deciduous","leaf_type":"broadleaved","natural":"tree","id":"node/2358955265"},"geometry":{"type":"Point","coordinates":[2.3648698,48.8554717]},"id":"node/2358955265"},{"type":"Feature","properties":{"@id":"node/2358955269","leaf_cycle":"deciduous","leaf_type":"broadleaved","natural":"tree","id":"node/2358955269"},"geometry":{"type":"Point","coordinates":[2.3657816,48.85517]},"id":"node/2358955269"},{"type":"Feature","properties":{"@id":"node/2358955273","leaf_cycle":"deciduous","leaf_type":"broadleaved","natural":"tree","id":"node/2358955273"},"geometry":{"type":"Point","coordinates":[2.3647615,48.8555686]},"id":"node/2358955273"},{"type":"Feature","properties":{"@id":"node/2358955281","leaf_cycle":"deciduous","leaf_type":"broadleaved","natural":"tree","id":"node/2358955281"},"geometry":{"type":"Point","coordinates":[2.3647779,48.8556119]},"id":"node/2358955281"},{"type":"Feature","properties":{"@id":"node/2358955285","leaf_cycle":"deciduous","leaf_type":"broadleaved","natural":"tree","id":"node/2358955285"},"geometry":{"type":"Point","coordinates":[2.3656495,48.8551911]},"id":"node/2358955285"},{"type":"Feature","properties":{"@id":"node/2358955293","leaf_cycle":"deciduous","leaf_type":"broadleaved","natural":"tree","id":"node/2358955293"},"geometry":{"type":"Point","coordinates":[2.365681,48.8550926]},"id":"node/2358955293"},{"type":"Feature","properties":{"@id":"node/2358955304","leaf_cycle":"deciduous","leaf_type":"broadleaved","natural":"tree","id":"node/2358955304"},"geometry":{"type":"Point","coordinates":[2.3647537,48.8553445]},"id":"node/2358955304"},{"type":"Feature","properties":{"@id":"node/2358955307","leaf_cycle":"deciduous","leaf_type":"broadleaved","natural":"tree","id":"node/2358955307"},"geometry":{"type":"Point","coordinates":[2.3649302,48.8552703]},"id":"node/2358955307"},{"type":"Feature","properties":{"@id":"node/2358955312","leaf_cycle":"deciduous","leaf_type":"broadleaved","natural":"tree","id":"node/2358955312"},"geometry":{"type":"Point","coordinates":[2.3657145,48.8551807]},"id":"node/2358955312"},{"type":"Feature","properties":{"@id":"node/2358955314","leaf_cycle":"deciduous","leaf_type":"broadleaved","natural":"tree","id":"node/2358955314"},"geometry":{"type":"Point","coordinates":[2.3647467,48.8555297]},"id":"node/2358955314"},{"type":"Feature","properties":{"@id":"node/2358955318","leaf_cycle":"deciduous","leaf_type":"broadleaved","natural":"tree","id":"node/2358955318"},"geometry":{"type":"Point","coordinates":[2.3647394,48.8553049]},"id":"node/2358955318"},{"type":"Feature","properties":{"@id":"node/2358955321","leaf_cycle":"deciduous","leaf_type":"broadleaved","natural":"tree","id":"node/2358955321"},"geometry":{"type":"Point","coordinates":[2.365213,48.8552683]},"id":"node/2358955321"},{"type":"Feature","properties":{"@id":"node/2358955325","leaf_cycle":"deciduous","leaf_type":"broadleaved","natural":"tree","id":"node/2358955325"},"geometry":{"type":"Point","coordinates":[2.3646666,48.8553181]},"id":"node/2358955325"},{"type":"Feature","properties":{"@id":"node/2358955329","leaf_cycle":"deciduous","leaf_type":"broadleaved","natural":"tree","id":"node/2358955329"},"geometry":{"type":"Point","coordinates":[2.3651085,48.8551916]},"id":"node/2358955329"},{"type":"Feature","properties":{"@id":"node/2358955337","leaf_cycle":"deciduous","leaf_type":"broadleaved","natural":"tree","id":"node/2358955337"},"geometry":{"type":"Point","coordinates":[2.364785,48.8554309]},"id":"node/2358955337"},{"type":"Feature","properties":{"@id":"node/2358955340","leaf_cycle":"deciduous","leaf_type":"broadleaved","natural":"tree","id":"node/2358955340"},"geometry":{"type":"Point","coordinates":[2.3657006,48.8556317]},"id":"node/2358955340"},{"type":"Feature","properties":{"@id":"node/2358955344","leaf_cycle":"deciduous","leaf_type":"broadleaved","natural":"tree","id":"node/2358955344"},"geometry":{"type":"Point","coordinates":[2.3647316,48.8554897]},"id":"node/2358955344"},{"type":"Feature","properties":{"@id":"node/2358955346","leaf_cycle":"deciduous","leaf_type":"broadleaved","natural":"tree","id":"node/2358955346"},"geometry":{"type":"Point","coordinates":[2.3647692,48.8553874]},"id":"node/2358955346"},{"type":"Feature","properties":{"@id":"node/2358955349","leaf_cycle":"deciduous","leaf_type":"broadleaved","natural":"tree","id":"node/2358955349"},"geometry":{"type":"Point","coordinates":[2.3648509,48.8554225]},"id":"node/2358955349"},{"type":"Feature","properties":{"@id":"node/2358955353","leaf_cycle":"deciduous","leaf_type":"broadleaved","natural":"tree","id":"node/2358955353"},"geometry":{"type":"Point","coordinates":[2.3651491,48.8552789]},"id":"node/2358955353"},{"type":"Feature","properties":{"@id":"node/2358955356","leaf_cycle":"deciduous","leaf_type":"broadleaved","natural":"tree","id":"node/2358955356"},"geometry":{"type":"Point","coordinates":[2.364817,48.855334]},"id":"node/2358955356"},{"type":"Feature","properties":{"@id":"node/2358955360","leaf_cycle":"deciduous","leaf_type":"broadleaved","natural":"tree","id":"node/2358955360"},"geometry":{"type":"Point","coordinates":[2.3646812,48.8553566]},"id":"node/2358955360"},{"type":"Feature","properties":{"@id":"node/2358955363","leaf_cycle":"deciduous","leaf_type":"broadleaved","natural":"tree","id":"node/2358955363"},"geometry":{"type":"Point","coordinates":[2.3650811,48.8552902]},"id":"node/2358955363"},{"type":"Feature","properties":{"@id":"node/2358955365","leaf_cycle":"deciduous","leaf_type":"broadleaved","natural":"tree","id":"node/2358955365"},"geometry":{"type":"Point","coordinates":[2.3649733,48.8552147]},"id":"node/2358955365"},{"type":"Feature","properties":{"@id":"node/2358955368","leaf_cycle":"deciduous","leaf_type":"broadleaved","natural":"tree","id":"node/2358955368"},"geometry":{"type":"Point","coordinates":[2.3657452,48.855661]},"id":"node/2358955368"},{"type":"Feature","properties":{"@id":"node/2358955372","leaf_cycle":"deciduous","leaf_type":"broadleaved","natural":"tree","id":"node/2358955372"},"geometry":{"type":"Point","coordinates":[2.364847,48.8556019]},"id":"node/2358955372"},{"type":"Feature","properties":{"@id":"node/2358955375","leaf_cycle":"deciduous","leaf_type":"broadleaved","natural":"tree","id":"node/2358955375"},"geometry":{"type":"Point","coordinates":[2.3656341,48.8551493]},"id":"node/2358955375"},{"type":"Feature","properties":{"@id":"node/2358955382","leaf_cycle":"deciduous","leaf_type":"broadleaved","natural":"tree","id":"node/2358955382"},"geometry":{"type":"Point","coordinates":[2.3650613,48.8552465]},"id":"node/2358955382"},{"type":"Feature","properties":{"@id":"node/2358955386","leaf_cycle":"deciduous","leaf_type":"broadleaved","natural":"tree","id":"node/2358955386"},"geometry":{"type":"Point","coordinates":[2.3657073,48.8555046]},"id":"node/2358955386"},{"type":"Feature","properties":{"@id":"node/2358955389","leaf_cycle":"deciduous","leaf_type":"broadleaved","natural":"tree","id":"node/2358955389"},"geometry":{"type":"Point","coordinates":[2.3656174,48.8551037]},"id":"node/2358955389"},{"type":"Feature","properties":{"@id":"node/2358955397","leaf_cycle":"deciduous","leaf_type":"broadleaved","natural":"tree","id":"node/2358955397"},"geometry":{"type":"Point","coordinates":[2.365534,48.8554668]},"id":"node/2358955397"},{"type":"Feature","properties":{"@id":"node/2358955404","leaf_cycle":"deciduous","leaf_type":"broadleaved","natural":"tree","id":"node/2358955404"},"geometry":{"type":"Point","coordinates":[2.3649099,48.8552256]},"id":"node/2358955404"},{"type":"Feature","properties":{"@id":"node/2358955418","leaf_cycle":"deciduous","leaf_type":"broadleaved","natural":"tree","id":"node/2358955418"},"geometry":{"type":"Point","coordinates":[2.3647222,48.8552577]},"id":"node/2358955418"},{"type":"Feature","properties":{"@id":"node/2358955424","leaf_cycle":"deciduous","leaf_type":"broadleaved","natural":"tree","id":"node/2358955424"},"geometry":{"type":"Point","coordinates":[2.3651939,48.8552225]},"id":"node/2358955424"},{"type":"Feature","properties":{"@id":"node/2358955428","leaf_cycle":"deciduous","leaf_type":"broadleaved","natural":"tree","id":"node/2358955428"},"geometry":{"type":"Point","coordinates":[2.3649158,48.8555919]},"id":"node/2358955428"},{"type":"Feature","properties":{"@id":"node/2358955431","leaf_cycle":"deciduous","leaf_type":"broadleaved","natural":"tree","id":"node/2358955431"},"geometry":{"type":"Point","coordinates":[2.3647837,48.8552472]},"id":"node/2358955431"},{"type":"Feature","properties":{"@id":"node/2358955434","leaf_cycle":"deciduous","leaf_type":"broadleaved","natural":"tree","id":"node/2358955434"},"geometry":{"type":"Point","coordinates":[2.3649332,48.8556371]},"id":"node/2358955434"},{"type":"Feature","properties":{"@id":"node/2358955438","leaf_cycle":"deciduous","leaf_type":"broadleaved","natural":"tree","id":"node/2358955438"},"geometry":{"type":"Point","coordinates":[2.3651762,48.85518]},"id":"node/2358955438"},{"type":"Feature","properties":{"@id":"node/2389188915","brand":"Dammann Frères","brand:wikidata":"Q3012927","brand:wikipedia":"fr:Dammann Frères","check_date":"2025-03-23","check_date:opening_hours":"2024-09-14","name":"Dammann Frères","opening_hours":"Mo-Fr 11:00-19:30; Sa,Su 10:00-19:30; PH off","shop":"tea","source":"survey 2013","wheelchair":"yes","id":"node/2389188915"},"geometry":{"type":"Point","coordinates":[2.3645365,48.8558271]},"id":"node/2389188915"},{"type":"Feature","properties":{"@id":"node/2389221532","name":"Debauve & Gallais","shop":"chocolate","source":"survey 2013","id":"node/2389221532"},"geometry":{"type":"Point","coordinates":[2.3644713,48.8556582]},"id":"node/2389221532"},{"type":"Feature","properties":{"@id":"node/2389221533","check_date":"2025-11-25","name":"Cécile & Jeanne","opening_hours":"Mo-Su 11:00-12:45,13:45-19:00","shop":"jewelry","source":"survey 2013","id":"node/2389221533"},"geometry":{"type":"Point","coordinates":[2.3644933,48.8557242]},"id":"node/2389221533"},{"type":"Feature","properties":{"@id":"node/2942297715","amenity":"drinking_water","bottle":"yes","check_date":"2022-04-09","fee":"no","man_made":"water_tap","wheelchair":"yes","id":"node/2942297715"},"geometry":{"type":"Point","coordinates":[2.3657463,48.8557582]},"id":"node/2942297715"},{"type":"Feature","properties":{"@id":"node/2942297716","amenity":"drinking_water","bottle":"yes","check_date":"2022-04-09","fee":"no","man_made":"water_tap","id":"node/2942297716"},"geometry":{"type":"Point","coordinates":[2.3654657,48.8558026]},"id":"node/2942297716"},{"type":"Feature","properties":{"@id":"node/6487937171","amenity":"bench","backrest":"yes","material":"wood","id":"node/6487937171"},"geometry":{"type":"Point","coordinates":[2.3652594,48.8557257]},"id":"node/6487937171"},{"type":"Feature","properties":{"@id":"node/6487937172","amenity":"bench","backrest":"yes","material":"wood","id":"node/6487937172"},"geometry":{"type":"Point","coordinates":[2.3651863,48.8557369]},"id":"node/6487937172"},{"type":"Feature","properties":{"@id":"node/6487937173","amenity":"bench","backrest":"yes","material":"wood","id":"node/6487937173"},"geometry":{"type":"Point","coordinates":[2.3651059,48.8557493]},"id":"node/6487937173"},{"type":"Feature","properties":{"@id":"node/6487937174","amenity":"bench","backrest":"yes","material":"wood","id":"node/6487937174"},"geometry":{"type":"Point","coordinates":[2.3652172,48.8556254]},"id":"node/6487937174"},{"type":"Feature","properties":{"@id":"node/6487937175","amenity":"bench","backrest":"yes","material":"wood","id":"node/6487937175"},"geometry":{"type":"Point","coordinates":[2.3651441,48.8556367]},"id":"node/6487937175"},{"type":"Feature","properties":{"@id":"node/6487937176","amenity":"bench","backrest":"yes","material":"wood","id":"node/6487937176"},"geometry":{"type":"Point","coordinates":[2.3650636,48.855649]},"id":"node/6487937176"},{"type":"Feature","properties":{"@id":"node/10221391064","highway":"street_lamp","id":"node/10221391064"},"geometry":{"type":"Point","coordinates":[2.3648206,48.8558059]},"id":"node/10221391064"},{"type":"Feature","properties":{"@id":"node/10221391065","amenity":"waste_basket","material":"metal","id":"node/10221391065"},"geometry":{"type":"Point","coordinates":[2.364786,48.8557274]},"id":"node/10221391065"},{"type":"Feature","properties":{"@id":"node/10221391067","highway":"street_lamp","id":"node/10221391067"},"geometry":{"type":"Point","coordinates":[2.3647651,48.8556658]},"id":"node/10221391067"},{"type":"Feature","properties":{"@id":"node/10221391068","highway":"street_lamp","id":"node/10221391068"},"geometry":{"type":"Point","coordinates":[2.3646901,48.8554588]},"id":"node/10221391068"},{"type":"Feature","properties":{"@id":"node/10221391069","highway":"street_lamp","id":"node/10221391069"},"geometry":{"type":"Point","coordinates":[2.364645,48.8553438]},"id":"node/10221391069"},{"type":"Feature","properties":{"@id":"node/10221391070","amenity":"waste_basket","id":"node/10221391070"},"geometry":{"type":"Point","coordinates":[2.3646582,48.8552668]},"id":"node/10221391070"},{"type":"Feature","properties":{"@id":"node/10221391071","highway":"street_lamp","id":"node/10221391071"},"geometry":{"type":"Point","coordinates":[2.3647385,48.85523]},"id":"node/10221391071"},{"type":"Feature","properties":{"@id":"node/10221391072","highway":"street_lamp","id":"node/10221391072"},"geometry":{"type":"Point","coordinates":[2.3649896,48.8551873]},"id":"node/10221391072"},{"type":"Feature","properties":{"@id":"node/10221391073","amenity":"waste_basket","id":"node/10221391073"},"geometry":{"type":"Point","coordinates":[2.3649937,48.8551809]},"id":"node/10221391073"},{"type":"Feature","properties":{"@id":"node/10221391074","amenity":"waste_basket","id":"node/10221391074"},"geometry":{"type":"Point","coordinates":[2.3653357,48.8551237]},"id":"node/10221391074"},{"type":"Feature","properties":{"@id":"node/10221391075","highway":"street_lamp","id":"node/10221391075"},"geometry":{"type":"Point","coordinates":[2.3652427,48.8551442]},"id":"node/10221391075"},{"type":"Feature","properties":{"@id":"node/10221391076","highway":"street_lamp","id":"node/10221391076"},"geometry":{"type":"Point","coordinates":[2.3654537,48.8551083]},"id":"node/10221391076"},{"type":"Feature","properties":{"@id":"node/10221391077","highway":"street_lamp","id":"node/10221391077"},"geometry":{"type":"Point","coordinates":[2.3657013,48.8550665]},"id":"node/10221391077"},{"type":"Feature","properties":{"@id":"node/11200318269","amenity":"waste_basket","material":"metal","id":"node/11200318269"},"geometry":{"type":"Point","coordinates":[2.3648122,48.8557189]},"id":"node/11200318269"},{"type":"Feature","properties":{"@id":"node/11200318332","leaf_cycle":"deciduous","leaf_type":"broadleaved","natural":"tree","id":"node/11200318332"},"geometry":{"type":"Point","coordinates":[2.3654871,48.855713]},"id":"node/11200318332"},{"type":"Feature","properties":{"@id":"node/11200318333","amenity":"bench","backrest":"yes","id":"node/11200318333"},"geometry":{"type":"Point","coordinates":[2.3648993,48.855274]},"id":"node/11200318333"},{"type":"Feature","properties":{"@id":"node/11200318334","amenity":"bench","backrest":"yes","id":"node/11200318334"},"geometry":{"type":"Point","coordinates":[2.3649654,48.8552629]},"id":"node/11200318334"},{"type":"Feature","properties":{"@id":"node/11200318335","amenity":"bench","backrest":"yes","id":"node/11200318335"},"geometry":{"type":"Point","coordinates":[2.3650306,48.855252]},"id":"node/11200318335"},{"type":"Feature","properties":{"@id":"node/11200318336","amenity":"bench","backrest":"yes","id":"node/11200318336"},"geometry":{"type":"Point","coordinates":[2.3650967,48.855241]},"id":"node/11200318336"},{"type":"Feature","properties":{"@id":"node/11200318337","amenity":"bench","backrest":"yes","id":"node/11200318337"},"geometry":{"type":"Point","coordinates":[2.3651655,48.8552294]},"id":"node/11200318337"},{"type":"Feature","properties":{"@id":"node/11200318338","amenity":"bench","backrest":"yes","id":"node/11200318338"},"geometry":{"type":"Point","coordinates":[2.3651783,48.855274]},"id":"node/11200318338"},{"type":"Feature","properties":{"@id":"node/11200318339","amenity":"bench","backrest":"yes","id":"node/11200318339"},"geometry":{"type":"Point","coordinates":[2.3651122,48.8552848]},"id":"node/11200318339"},{"type":"Feature","properties":{"@id":"node/11200318340","amenity":"bench","backrest":"yes","id":"node/11200318340"},"geometry":{"type":"Point","coordinates":[2.3650473,48.8552955]},"id":"node/11200318340"},{"type":"Feature","properties":{"@id":"node/11200318341","amenity":"bench","backrest":"yes","id":"node/11200318341"},"geometry":{"type":"Point","coordinates":[2.3649786,48.8553067]},"id":"node/11200318341"},{"type":"Feature","properties":{"@id":"node/11200318342","amenity":"bench","backrest":"yes","id":"node/11200318342"},"geometry":{"type":"Point","coordinates":[2.3649144,48.8553172]},"id":"node/11200318342"},{"type":"Feature","properties":{"@id":"node/11200318343","amenity":"bench","backrest":"yes","id":"node/11200318343"},"geometry":{"type":"Point","coordinates":[2.3656138,48.8551981]},"id":"node/11200318343"},{"type":"Feature","properties":{"@id":"node/11200318344","amenity":"bench","backrest":"yes","id":"node/11200318344"},"geometry":{"type":"Point","coordinates":[2.3656829,48.8551866]},"id":"node/11200318344"},{"type":"Feature","properties":{"@id":"node/11200318345","amenity":"bench","backrest":"yes","id":"node/11200318345"},"geometry":{"type":"Point","coordinates":[2.3657454,48.8551762]},"id":"node/11200318345"},{"type":"Feature","properties":{"@id":"node/11200318366","highway":"street_lamp","id":"node/11200318366"},"geometry":{"type":"Point","coordinates":[2.3656252,48.8552202]},"id":"node/11200318366"},{"type":"Feature","properties":{"@id":"node/11200318367","highway":"street_lamp","id":"node/11200318367"},"geometry":{"type":"Point","coordinates":[2.3651863,48.8552941]},"id":"node/11200318367"},{"type":"Feature","properties":{"@id":"node/11200318368","highway":"street_lamp","id":"node/11200318368"},"geometry":{"type":"Point","coordinates":[2.3648551,48.8553512]},"id":"node/11200318368"},{"type":"Feature","properties":{"@id":"node/11200318369","highway":"street_lamp","id":"node/11200318369"},"geometry":{"type":"Point","coordinates":[2.3649392,48.8555656]},"id":"node/11200318369"}]}