{"type":"FeatureCollection","features":[{"type":"Feature","properties":{"@id":"way/516982096","cycleway:left":"no","highway":"residential","lit":"yes","maxspeed":"30","name":"Rue des Maraîchers","name:etymology:wikidata":"Q19914236","oneway":"yes","oneway:bicycle":"no","sidewalk:both":"separate","source:maxspeed":"BMO arrêté n°2013P0846","surface":"asphalt","zone:maxspeed":"FR:30","id":"way/516982096"},"geometry":{"type":"LineString","coordinates":[[2.4064117,48.8539014],[2.4063867,48.8540052],[2.4063022,48.8543946],[2.4060923,48.8553408],[2.4055548,48.8560507],[2.4055057,48.8561155]]},"id":"way/516982096"},{"type":"Feature","properties":{"@id":"way/799100969","busway:left":"lane","cycleway:left":"share_busway","highway":"secondary","lanes":"2","lit":"yes","maxspeed":"30","name":"Rue des Pyrénées","name:etymology:wikidata":"Q12431","sidewalk:both":"separate","source:maxspeed":"sign","surface":"asphalt","traffic:hourly":"640","traffic:hourly:source":"Open Data Paris 2019 : Comptage routier - Données trafic issues des capteurs permanents","id":"way/799100969"},"geometry":{"type":"LineString","coordinates":[[2.4051707,48.8557126],[2.4052825,48.8554109],[2.4052986,48.8553612],[2.4057041,48.8540382],[2.4057184,48.8539904]]},"id":"way/799100969"},{"type":"Feature","properties":{"@id":"way/1190407035","footway":"sidewalk","highway":"footway","surface":"asphalt","id":"way/1190407035"},"geometry":{"type":"LineString","coordinates":[[2.4051911,48.8553503],[2.4053326,48.8548985],[2.4055519,48.8541578],[2.4056036,48.8540234],[2.4055948,48.8540007]]},"id":"way/1190407035"},{"type":"Feature","properties":{"@id":"way/1190407040","footway":"sidewalk","highway":"footway","surface":"asphalt","id":"way/1190407040"},"geometry":{"type":"LineString","coordinates":[[2.4063385,48.8540005],[2.4062406,48.8543792],[2.4062326,48.8543909],[2.406207,48.854428],[2.4060327,48.8553252],[2.4054761,48.856064],[2.405521,48.8560571]]},"id":"way/1190407040"},{"type":"Feature","properties":{"@id":"way/1190407046","footway":"sidewalk","highway":"footway","smoothness":"good","surface":"asphalt","id":"way/1190407046"},"geometry":{"type":"LineString","coordinates":[[2.4054131,48.8553733],[2.4054701,48.8552316],[2.4058255,48.8540545],[2.4057765,48.8540479]]},"id":"way/1190407046"},{"type":"Feature","properties":{"@id":"way/1192356685","footway":"sidewalk","highway":"footway","surface":"asphalt","id":"way/1192356685"},"geometry":{"type":"LineString","coordinates":[[2.4064238,48.8540081],[2.4064351,48.8540131],[2.4063533,48.8542922],[2.4063166,48.8544753],[2.4063241,48.8545292],[2.4062179,48.8550174],[2.4061548,48.8553621],[2.4058605,48.8557432],[2.4056931,48.8559728],[2.4057006,48.8560142],[2.4056662,48.8560312]]},"id":"way/1192356685"}]}