{"type":"FeatureCollection","features":[{"type":"Feature","properties":{"@id":"way/63234223","building":"apartments","source":"cadastre-dgi-fr source : Direction Générale des Impôts - Cadastre. Mise à jour : 2010","id":"way/63234223"},"geometry":{"type":"Polygon","coordinates":[[[2.4017616,48.8784429],[2.4018033,48.8782367],[2.4020558,48.8782621],[2.4020156,48.8784257],[2.401894,48.8784575],[2.401826,48.8784754],[2.4017942,48.8784621],[2.4017828,48.8784659],[2.4017623,48.8784568],[2.4017616,48.8784429]]]},"id":"way/63234223"},{"type":"Feature","properties":{"@id":"way/1369928640","leisure":"park","name":"Jardin de l'Église Notre-Dame-de-Fatima","id":"way/1369928640"},"geometry":{"type":"Polygon","coordinates":[[[2.4023728,48.8786865],[2.4026935,48.8786132],[2.4028698,48.8789942],[2.4026506,48.8789965],[2.4024923,48.8789096],[2.4024232,48.878883],[2.4024211,48.8787991],[2.4024017,48.8787452],[2.4023728,48.8786865]]]},"id":"way/1369928640"},{"type":"Feature","properties":{"@id":"way/10816362","highway":"residential","lit":"yes","maxspeed":"30","name":"Rue des Bois","name:etymology:wikidata":"Q3241565","oneway":"yes","sidewalk:left":"no","sidewalk:right":"separate","surface":"asphalt","id":"way/10816362"},"geometry":{"type":"LineString","coordinates":[[2.4014936,48.8788223],[2.4013443,48.8787334]]},"id":"way/10816362"},{"type":"Feature","properties":{"@id":"way/19579112","highway":"tertiary","lanes":"2","lit":"yes","maxspeed":"30","name":"Rue Haxo","name:etymology:wikidata":"Q327070","oneway":"yes","sidewalk":"separate","surface":"asphalt","id":"way/19579112"},"geometry":{"type":"LineString","coordinates":[[2.4016039,48.8787369],[2.4016244,48.8786344]]},"id":"way/19579112"},{"type":"Feature","properties":{"@id":"way/31720285","crossing":"uncontrolled","crossing:markings":"lines","footway":"crossing","highway":"footway","lit":"yes","surface":"asphalt","tactile_paving":"yes","id":"way/31720285"},"geometry":{"type":"LineString","coordinates":[[2.4021436,48.87853],[2.4021548,48.8785424],[2.4021793,48.8785695],[2.4021917,48.8785833]]},"id":"way/31720285"},{"type":"Feature","properties":{"@id":"way/32424506","highway":"tertiary","lanes":"2","lit":"yes","maxspeed":"30","name":"Boulevard Sérurier","name:etymology:wikidata":"Q376344","oneway":"yes","sidewalk:left":"no","sidewalk:right":"separate","surface":"asphalt","id":"way/32424506"},"geometry":{"type":"LineString","coordinates":[[2.4014936,48.8788223],[2.4013443,48.8788221],[2.4012533,48.8788435]]},"id":"way/32424506"},{"type":"Feature","properties":{"@id":"way/37191384","cycleway:both":"no","dual_carriageway":"yes","highway":"primary","lanes":"2","lit":"yes","maxspeed":"50","name":"Boulevard Sérurier","name:etymology:wikidata":"Q376344","oneway":"yes","parking:left":"no","parking:right":"street_side","parking:right:orientation":"parallel","sidewalk:left":"no","sidewalk:right":"separate","surface":"asphalt","id":"way/37191384"},"geometry":{"type":"LineString","coordinates":[[2.4021121,48.878492],[2.4022873,48.8784338],[2.4025902,48.8783642],[2.403351,48.8782196],[2.4034756,48.8781952],[2.4055296,48.8778071],[2.4056378,48.8777884],[2.4058785,48.8777427],[2.4059619,48.8777238],[2.4060515,48.8776933],[2.4061175,48.8776649],[2.4061708,48.8776376],[2.4062134,48.8776124],[2.406273,48.8775728],[2.4063257,48.8775262],[2.4063514,48.8774925],[2.4064136,48.8774093]]},"id":"way/37191384"},{"type":"Feature","properties":{"@id":"way/93799620","crossing":"traffic_signals","crossing:signals":"yes","cycleway":"crossing","highway":"cycleway","lit":"yes","surface":"paving_stones","id":"way/93799620"},"geometry":{"type":"LineString","coordinates":[[2.4017122,48.8792064],[2.4016664,48.8792087],[2.401624,48.879211]]},"id":"way/93799620"},{"type":"Feature","properties":{"@id":"way/139769212","crossing":"traffic_signals","crossing:markings":"pictograms","crossing:signals":"yes","cycleway":"crossing","highway":"cycleway","lit":"yes","name":"Boulevard Sérurier","name:etymology:wikidata":"Q376344","oneway":"yes","surface":"asphalt","id":"way/139769212"},"geometry":{"type":"LineString","coordinates":[[2.4013443,48.8787334],[2.4014187,48.8787077]]},"id":"way/139769212"},{"type":"Feature","properties":{"@id":"way/154892300","cycleway:both":"separate","dual_carriageway":"yes","highway":"tertiary","lanes":"1","lit":"yes","maxspeed":"30","name":"Avenue de la Porte du Pré Saint-Gervais","name:etymology:wikidata":"Q3399189","oneway":"yes","sidewalk:left":"no","sidewalk:right":"separate","smoothness":"good","surface":"asphalt","id":"way/154892300"},"geometry":{"type":"LineString","coordinates":[[2.4018693,48.878874],[2.4018202,48.8790485],[2.4017791,48.879174],[2.4017685,48.8792036],[2.4016129,48.8795981],[2.4015883,48.8796604]]},"id":"way/154892300"},{"type":"Feature","properties":{"@id":"way/154892304","highway":"primary_link","lanes":"3","lit":"yes","maxspeed":"30","oneway":"yes","sidewalk:both":"no","surface":"asphalt","id":"way/154892304"},"geometry":{"type":"LineString","coordinates":[[2.4018017,48.8786242],[2.4018839,48.8786872],[2.4019145,48.8787106],[2.4019727,48.8787553]]},"id":"way/154892304"},{"type":"Feature","properties":{"@id":"way/190588936","dual_carriageway":"yes","highway":"primary","lanes":"3","lit":"yes","maxspeed":"50","name":"Boulevard Sérurier","name:etymology:wikidata":"Q376344","oneway":"yes","sidewalk:left":"no","sidewalk:right":"separate","surface":"asphalt","turn:lanes:forward":"left|left;through|through","id":"way/190588936"},"geometry":{"type":"LineString","coordinates":[[2.4018693,48.878874],[2.4017728,48.8789191],[2.4016472,48.8789778],[2.4016213,48.8789887]]},"id":"way/190588936"},{"type":"Feature","properties":{"@id":"way/190588938","dual_carriageway":"yes","highway":"primary","lanes":"3","lit":"yes","maxspeed":"50","name":"Boulevard Sérurier","name:etymology:wikidata":"Q376344","oneway":"yes","sidewalk:left":"no","sidewalk:right":"separate","surface":"asphalt","id":"way/190588938"},"geometry":{"type":"LineString","coordinates":[[2.4019727,48.8787553],[2.4018693,48.878874]]},"id":"way/190588938"},{"type":"Feature","properties":{"@id":"way/190588940","dual_carriageway":"yes","highway":"primary","lanes":"2","lit":"yes","maxspeed":"50","name":"Boulevard Sérurier","name:etymology:wikidata":"Q376344","oneway":"yes","sidewalk:left":"no","sidewalk:right":"separate","surface":"asphalt","id":"way/190588940"},"geometry":{"type":"LineString","coordinates":[[2.4018017,48.8786242],[2.4020553,48.8785109],[2.4021121,48.878492]]},"id":"way/190588940"},{"type":"Feature","properties":{"@id":"way/190595997","dual_carriageway":"yes","highway":"primary","lanes":"2","lit":"yes","maxspeed":"50","name":"Boulevard d'Algérie","name:etymology:wikidata":"Q262","oneway":"yes","sidewalk:left":"no","sidewalk:right":"separate","surface":"asphalt","id":"way/190595997"},"geometry":{"type":"LineString","coordinates":[[2.4016213,48.8789887],[2.4015709,48.8790095],[2.4014512,48.8790542],[2.4013932,48.8790815],[2.4013421,48.8791328]]},"id":"way/190595997"},{"type":"Feature","properties":{"@id":"way/195340744","cycleway":"sidewalk","highway":"cycleway","lit":"yes","name":"Avenue de la Porte du Pré Saint-Gervais","name:etymology:wikidata":"Q3399189","sidewalk":"right","smoothness":"excellent","surface":"concrete","id":"way/195340744"},"geometry":{"type":"LineString","coordinates":[[2.4022183,48.8786824],[2.4021781,48.8786925],[2.4020852,48.8787422],[2.4020183,48.8787909],[2.4019678,48.8788434],[2.4019171,48.8789157],[2.4018412,48.8791277],[2.4018452,48.8791468],[2.4018377,48.8791713]]},"id":"way/195340744"},{"type":"Feature","properties":{"@id":"way/195340745","cycleway":"crossing","highway":"cycleway","lit":"yes","name":"Boulevard Sérurier","name:etymology:wikidata":"Q376344","sidewalk":"separate","surface":"asphalt","id":"way/195340745"},"geometry":{"type":"LineString","coordinates":[[2.4022183,48.8786824],[2.4021828,48.8786443],[2.4021311,48.8785886],[2.4021061,48.8785631],[2.4020553,48.8785109],[2.4020191,48.878473]]},"id":"way/195340745"},{"type":"Feature","properties":{"@id":"way/257350975","cycleway:both":"separate","dual_carriageway":"yes","highway":"tertiary","lanes":"3","lit":"yes","maxspeed":"30","name":"Avenue de la Porte du Pré Saint-Gervais","name:etymology:wikidata":"Q3399189","oneway":"yes","sidewalk:left":"no","sidewalk:right":"separate","surface":"asphalt","id":"way/257350975"},"geometry":{"type":"LineString","coordinates":[[2.4016664,48.8792087],[2.4016755,48.8791786],[2.4016882,48.8791376],[2.4016921,48.8791113],[2.4016875,48.8790842],[2.4016745,48.8790589],[2.4016728,48.8790566],[2.4016291,48.8790001],[2.4016213,48.8789887],[2.4016047,48.8789661],[2.4015459,48.8788899],[2.4014936,48.8788223]]},"id":"way/257350975"},{"type":"Feature","properties":{"@id":"way/278108948","cycleway":"crossing","highway":"cycleway","lit":"yes","name":"Boulevard d'Algérie","name:etymology:wikidata":"Q262","oneway":"yes","surface":"paving_stones","id":"way/278108948"},"geometry":{"type":"LineString","coordinates":[[2.4015676,48.8792139],[2.4014805,48.879184],[2.4014418,48.8791687],[2.4013762,48.8791451]]},"id":"way/278108948"},{"type":"Feature","properties":{"@id":"way/278108954","dual_carriageway":"yes","highway":"primary","lanes":"3","lit":"yes","maxspeed":"50","name":"Boulevard d'Algérie","name:etymology:wikidata":"Q262","oneway":"yes","sidewalk:left":"no","sidewalk:right":"separate","surface":"asphalt","id":"way/278108954"},"geometry":{"type":"LineString","coordinates":[[2.4016039,48.8787369],[2.4018017,48.8786242]]},"id":"way/278108954"},{"type":"Feature","properties":{"@id":"way/278108956","footway":"sidewalk","highway":"footway","lit":"no","surface":"asphalt","id":"way/278108956"},"geometry":{"type":"LineString","coordinates":[[2.4019209,48.8791677],[2.4018754,48.8791696]]},"id":"way/278108956"},{"type":"Feature","properties":{"@id":"way/362926541","cycleway:both":"no","dual_carriageway":"yes","highway":"primary","lanes":"2","lit":"yes","maxspeed":"50","name":"Boulevard Sérurier","name:etymology:wikidata":"Q376344","oneway":"yes","parking:left":"no","parking:right":"street_side","parking:right:orientation":"parallel","sidewalk:left":"no","sidewalk:right":"separate","smoothness":"excellent","surface":"asphalt","id":"way/362926541"},"geometry":{"type":"LineString","coordinates":[[2.4067931,48.8772473],[2.4067584,48.8772924],[2.4066454,48.8774437],[2.4065496,48.8775621],[2.4064553,48.8776446],[2.4063974,48.8776855],[2.4063315,48.8777285],[2.4062064,48.8777917],[2.4061337,48.8778216],[2.4060314,48.8778574],[2.4059548,48.8778769],[2.4058752,48.8778945],[2.4055613,48.8779544],[2.4046975,48.8781172],[2.4035369,48.8783394],[2.4034353,48.8783585],[2.4034208,48.8783612],[2.4031472,48.8784128],[2.4029361,48.8784518],[2.4026783,48.8784995],[2.4026391,48.8785068],[2.4024994,48.8785405],[2.4023836,48.8785713],[2.4023094,48.8785965],[2.4022294,48.8786266],[2.4021828,48.8786443],[2.4019727,48.8787553]]},"id":"way/362926541"},{"type":"Feature","properties":{"@id":"way/362926544","dual_carriageway":"yes","highway":"primary","lanes":"3","lit":"yes","maxspeed":"50","name":"Boulevard d'Algérie","name:etymology:wikidata":"Q262","oneway":"yes","sidewalk:left":"no","sidewalk:right":"separate","surface":"asphalt","id":"way/362926544"},"geometry":{"type":"LineString","coordinates":[[2.4014936,48.8788223],[2.4016039,48.8787369]]},"id":"way/362926544"},{"type":"Feature","properties":{"@id":"way/362926545","dual_carriageway":"yes","highway":"primary","lanes":"2","lit":"yes","maxspeed":"50","name":"Boulevard d'Algérie","name:etymology:wikidata":"Q262","oneway":"yes","sidewalk:left":"no","sidewalk:right":"separate","smoothness":"excellent","surface":"asphalt","id":"way/362926545"},"geometry":{"type":"LineString","coordinates":[[2.4013421,48.8791328],[2.401318,48.8791637],[2.4009511,48.8796155],[2.4008437,48.8796836]]},"id":"way/362926545"},{"type":"Feature","properties":{"@id":"way/362926546","dual_carriageway":"yes","highway":"primary","lanes":"2","lit":"yes","maxspeed":"50","name":"Boulevard d'Algérie","name:etymology:wikidata":"Q262","oneway":"yes","sidewalk:left":"no","sidewalk:right":"separate","surface":"asphalt","id":"way/362926546"},"geometry":{"type":"LineString","coordinates":[[2.4012559,48.8791019],[2.4013978,48.878935],[2.4014936,48.8788223]]},"id":"way/362926546"},{"type":"Feature","properties":{"@id":"way/362926552","cycleway:both":"no","highway":"tertiary","lanes":"2","lit":"yes","maxspeed":"30","name":"Rue Haxo","name:etymology:wikidata":"Q327070","oneway":"yes","oneway:bicycle":"no","sidewalk:both":"separate","surface":"asphalt","id":"way/362926552"},"geometry":{"type":"LineString","coordinates":[[2.4016244,48.8786344],[2.4016268,48.878601],[2.401738,48.8780086],[2.4018069,48.8775973],[2.4018402,48.8775458]]},"id":"way/362926552"},{"type":"Feature","properties":{"@id":"way/362926558","colour":"beige","cycleway":"sidewalk","highway":"cycleway","lit":"yes","name":"Avenue de la Porte du Pré Saint-Gervais","name:etymology:wikidata":"Q3399189","oneway":"yes","sidewalk":"right","smoothness":"good","surface":"asphalt","width":"1.3","id":"way/362926558"},"geometry":{"type":"LineString","coordinates":[[2.4018261,48.8792012],[2.4016442,48.8797268],[2.4016346,48.879756],[2.4016196,48.8798109]]},"id":"way/362926558"},{"type":"Feature","properties":{"@id":"way/362926559","cycleway":"sidewalk","highway":"cycleway","lit":"yes","name":"Boulevard Sérurier","name:etymology:wikidata":"Q376344","oneway":"yes","sidewalk":"right","surface":"asphalt","id":"way/362926559"},"geometry":{"type":"LineString","coordinates":[[2.4020191,48.878473],[2.4020774,48.8784501],[2.4022588,48.8783884],[2.4024794,48.8783284],[2.4026518,48.8782962],[2.4030293,48.8782254],[2.4033263,48.8781707],[2.4034546,48.8781459],[2.4054048,48.8777713]]},"id":"way/362926559"},{"type":"Feature","properties":{"@id":"way/362926580","cycleway":"sidewalk","highway":"cycleway","lit":"yes","name":"Boulevard Sérurier","name:etymology:wikidata":"Q376344","oneway":"yes","sidewalk":"right","surface":"asphalt","id":"way/362926580"},"geometry":{"type":"LineString","coordinates":[[2.4016565,48.8786213],[2.4018022,48.8785617],[2.4020191,48.878473]]},"id":"way/362926580"},{"type":"Feature","properties":{"@id":"way/362926582","highway":"footway","lit":"yes","surface":"asphalt","id":"way/362926582"},"geometry":{"type":"LineString","coordinates":[[2.4022751,48.8786913],[2.4023071,48.8787509],[2.4023215,48.8788008],[2.4023259,48.8788585],[2.4023174,48.8789188],[2.4022984,48.8789652],[2.4022622,48.8790152],[2.4022406,48.8790404],[2.4022333,48.879049],[2.4021833,48.879085],[2.402116,48.8791186],[2.4020456,48.8791418]]},"id":"way/362926582"},{"type":"Feature","properties":{"@id":"way/550905935","cycleway":"sidewalk","highway":"cycleway","lit":"yes","name":"Boulevard Sérurier","name:etymology:wikidata":"Q376344","oneway":"yes","sidewalk":"right","surface":"concrete","id":"way/550905935"},"geometry":{"type":"LineString","coordinates":[[2.4029792,48.8785109],[2.4027048,48.8785633],[2.4024674,48.878613],[2.4023057,48.8786507],[2.4022618,48.8786687]]},"id":"way/550905935"},{"type":"Feature","properties":{"@id":"way/642287395","cycleway:left":"lane","cycleway:left:lane":"exclusive","cycleway:left:oneway":"-1","cycleway:right":"shared_lane","cycleway:right:lane":"pictogram","highway":"residential","lit":"yes","maxspeed":"30","name":"Rue des Bois","name:etymology:wikidata":"Q3241565","oneway":"yes","oneway:bicycle":"no","sidewalk:left":"no","sidewalk:right":"separate","surface":"asphalt","id":"way/642287395"},"geometry":{"type":"LineString","coordinates":[[2.4013443,48.8787334],[2.4012964,48.8787227],[2.4012393,48.8787115],[2.4009569,48.8786686]]},"id":"way/642287395"},{"type":"Feature","properties":{"@id":"way/665448187","crossing":"traffic_signals","crossing:markings":"zebra","crossing:signals":"yes","footway":"crossing","highway":"footway","lit":"yes","surface":"asphalt","traffic_signals:sound":"no","id":"way/665448187"},"geometry":{"type":"LineString","coordinates":[[2.4017524,48.8791752],[2.4017791,48.879174],[2.4018062,48.8791727]]},"id":"way/665448187"},{"type":"Feature","properties":{"@id":"way/667480395","footway":"sidewalk","highway":"footway","lit":"yes","surface":"paving_stones","id":"way/667480395"},"geometry":{"type":"LineString","coordinates":[[2.4015676,48.8792139],[2.4015923,48.8791824]]},"id":"way/667480395"},{"type":"Feature","properties":{"@id":"way/877922725","highway":"footway","surface":"paving_stones","id":"way/877922725"},"geometry":{"type":"LineString","coordinates":[[2.4023321,48.8790815],[2.4024021,48.8791153],[2.4024213,48.8791245]]},"id":"way/877922725"},{"type":"Feature","properties":{"@id":"way/877922726","highway":"footway","surface":"asphalt","id":"way/877922726"},"geometry":{"type":"LineString","coordinates":[[2.4022406,48.8790404],[2.4022758,48.8790542]]},"id":"way/877922726"},{"type":"Feature","properties":{"@id":"way/877922729","highway":"footway","surface":"paving_stones","id":"way/877922729"},"geometry":{"type":"LineString","coordinates":[[2.4024469,48.8791364],[2.4024582,48.8791408]]},"id":"way/877922729"},{"type":"Feature","properties":{"@id":"way/1104779983","footway":"sidewalk","highway":"footway","lit":"yes","smoothness":"good","surface":"asphalt","id":"way/1104779983"},"geometry":{"type":"LineString","coordinates":[[2.4025685,48.8818609],[2.4025624,48.8818542],[2.4025192,48.8818324],[2.4024573,48.8817918],[2.4020999,48.8814078],[2.4019792,48.8812693],[2.4019215,48.881184],[2.4018525,48.8810819],[2.4017924,48.8809703],[2.4017485,48.8808887],[2.4016607,48.8806634],[2.4016218,48.8805139],[2.4016017,48.8802467],[2.401605,48.8800857],[2.4016278,48.8799406],[2.4016704,48.8797648],[2.4018754,48.8791696],[2.4019514,48.8789519],[2.4019925,48.8788793],[2.4020761,48.878788],[2.4022001,48.8787194],[2.4022751,48.8786913]]},"id":"way/1104779983"},{"type":"Feature","properties":{"@id":"way/1191859188","footway":"sidewalk","highway":"footway","surface":"asphalt","id":"way/1191859188"},"geometry":{"type":"LineString","coordinates":[[2.4019044,48.8776052],[2.4017304,48.8784803],[2.4017056,48.8785732]]},"id":"way/1191859188"},{"type":"Feature","properties":{"@id":"way/1191859189","footway":"sidewalk","highway":"footway","lit":"yes","surface":"paving_stones","id":"way/1191859189"},"geometry":{"type":"LineString","coordinates":[[2.4017304,48.8784803],[2.4018525,48.8785141],[2.4017056,48.8785732]]},"id":"way/1191859189"},{"type":"Feature","properties":{"@id":"way/1191859190","footway":"sidewalk","highway":"footway","lit":"yes","surface":"paving_stones","id":"way/1191859190"},"geometry":{"type":"LineString","coordinates":[[2.4018525,48.8785141],[2.4020634,48.8784321]]},"id":"way/1191859190"},{"type":"Feature","properties":{"@id":"way/1191859191","footway":"sidewalk","highway":"footway","lit":"yes","surface":"asphalt","id":"way/1191859191"},"geometry":{"type":"LineString","coordinates":[[2.4020634,48.8784321],[2.4025713,48.8782805],[2.4034434,48.8781155],[2.403448,48.8781284]]},"id":"way/1191859191"},{"type":"Feature","properties":{"@id":"way/1191859219","footway":"sidewalk","highway":"footway","lit":"yes","surface":"asphalt","id":"way/1191859219"},"geometry":{"type":"LineString","coordinates":[[2.4030065,48.8785288],[2.4029584,48.8785388],[2.4027152,48.8785882],[2.4025272,48.8786322],[2.4022751,48.8786913]]},"id":"way/1191859219"},{"type":"Feature","properties":{"@id":"way/1191859220","footway":"sidewalk","highway":"footway","lit":"yes","surface":"asphalt","id":"way/1191859220"},"geometry":{"type":"LineString","coordinates":[[2.402266,48.878676],[2.4022751,48.8786913]]},"id":"way/1191859220"},{"type":"Feature","properties":{"@id":"way/1191859222","footway":"sidewalk","highway":"footway","lit":"no","surface":"asphalt","id":"way/1191859222"},"geometry":{"type":"LineString","coordinates":[[2.4018754,48.8791696],[2.4018377,48.8791713]]},"id":"way/1191859222"},{"type":"Feature","properties":{"@id":"way/1191859223","crossing":"traffic_signals","crossing:markings":"zebra","crossing:signals":"yes","footway":"crossing","highway":"footway","lit":"yes","surface":"asphalt","traffic_signals:sound":"no","id":"way/1191859223"},"geometry":{"type":"LineString","coordinates":[[2.401639,48.8791803],[2.4016755,48.8791786],[2.4017241,48.8791764]]},"id":"way/1191859223"},{"type":"Feature","properties":{"@id":"way/1191859224","footway":"traffic_island","highway":"footway","lit":"yes","surface":"asphalt","traffic_signals:sound":"no","id":"way/1191859224"},"geometry":{"type":"LineString","coordinates":[[2.4017241,48.8791764],[2.4017524,48.8791752]]},"id":"way/1191859224"},{"type":"Feature","properties":{"@id":"way/1191859227","crossing":"traffic_signals","crossing:markings":"lines","crossing:signals":"yes","footway":"crossing","highway":"footway","kerb":"lowered","lit":"yes","surface":"asphalt","id":"way/1191859227"},"geometry":{"type":"LineString","coordinates":[[2.4014792,48.8792211],[2.4014562,48.8792127],[2.401417,48.8791985],[2.4013976,48.8791914]]},"id":"way/1191859227"},{"type":"Feature","properties":{"@id":"way/1191859228","crossing:markings":"zebra","footway":"sidewalk","highway":"footway","kerb":"lowered","lit":"yes","surface":"asphalt","id":"way/1191859228"},"geometry":{"type":"LineString","coordinates":[[2.4013781,48.8791843],[2.4013532,48.8791757]]},"id":"way/1191859228"},{"type":"Feature","properties":{"@id":"way/1191859229","footway":"sidewalk","highway":"footway","lit":"yes","surface":"paving_stones","id":"way/1191859229"},"geometry":{"type":"LineString","coordinates":[[2.401357,48.8792096],[2.4013781,48.8791843]]},"id":"way/1191859229"},{"type":"Feature","properties":{"@id":"way/1191859230","crossing":"traffic_signals","crossing:markings":"zebra","crossing:signals":"yes","footway":"crossing","highway":"footway","kerb":"lowered","lit":"yes","surface":"asphalt","tactile_paving":"yes","traffic_signals:sound":"no","id":"way/1191859230"},"geometry":{"type":"LineString","coordinates":[[2.4013532,48.8791757],[2.401318,48.8791637],[2.4012833,48.8791518]]},"id":"way/1191859230"},{"type":"Feature","properties":{"@id":"way/1191859257","crossing:markings":"zebra","footway":"sidewalk","highway":"footway","kerb":"lowered","lit":"yes","surface":"asphalt","id":"way/1191859257"},"geometry":{"type":"LineString","coordinates":[[2.4013976,48.8791914],[2.4013781,48.8791843]]},"id":"way/1191859257"},{"type":"Feature","properties":{"@id":"way/1191859259","footway":"sidewalk","highway":"footway","lit":"yes","surface":"paving_stones","id":"way/1191859259"},"geometry":{"type":"LineString","coordinates":[[2.4015923,48.8791824],[2.401639,48.8791803]]},"id":"way/1191859259"},{"type":"Feature","properties":{"@id":"way/1191859260","cycleway":"sidewalk","highway":"cycleway","lit":"yes","name":"Avenue de la Porte du Pré Saint-Gervais","name:etymology:wikidata":"Q3399189","sidewalk":"right","smoothness":"excellent","surface":"concrete","id":"way/1191859260"},"geometry":{"type":"LineString","coordinates":[[2.4018377,48.8791713],[2.4018261,48.8792012]]},"id":"way/1191859260"},{"type":"Feature","properties":{"@id":"way/1191859261","footway":"sidewalk","highway":"footway","lit":"yes","surface":"asphalt","traffic_signals:sound":"no","id":"way/1191859261"},"geometry":{"type":"LineString","coordinates":[[2.4018062,48.8791727],[2.4018377,48.8791713]]},"id":"way/1191859261"},{"type":"Feature","properties":{"@id":"way/1191859262","crossing":"traffic_signals","crossing:markings":"zebra","crossing:signals":"yes","footway":"crossing","highway":"footway","lit":"yes","tactile_paving":"yes","traffic_signals:sound":"yes","id":"way/1191859262"},"geometry":{"type":"LineString","coordinates":[[2.4016584,48.8785898],[2.4016268,48.878601],[2.4015814,48.8786169]]},"id":"way/1191859262"},{"type":"Feature","properties":{"@id":"way/1191859263","footway":"sidewalk","highway":"footway","lit":"yes","id":"way/1191859263"},"geometry":{"type":"LineString","coordinates":[[2.4017056,48.8785732],[2.4016584,48.8785898]]},"id":"way/1191859263"},{"type":"Feature","properties":{"@id":"way/1191859264","footway":"sidewalk","highway":"footway","lit":"yes","id":"way/1191859264"},"geometry":{"type":"LineString","coordinates":[[2.4015408,48.8786312],[2.4015814,48.8786169]]},"id":"way/1191859264"},{"type":"Feature","properties":{"@id":"way/1191859265","footway":"sidewalk","highway":"footway","surface":"paving_stones","id":"way/1191859265"},"geometry":{"type":"LineString","coordinates":[[2.4015408,48.8786312],[2.4011524,48.8785452],[2.4005892,48.8784663],[2.4004803,48.8785688],[2.400227,48.8785301]]},"id":"way/1191859265"},{"type":"Feature","properties":{"@id":"way/1191859268","footway":"traffic_island","highway":"footway","lit":"yes","surface":"asphalt","id":"way/1191859268"},"geometry":{"type":"LineString","coordinates":[[2.4022526,48.8786532],[2.4022572,48.8786611]]},"id":"way/1191859268"},{"type":"Feature","properties":{"@id":"way/1191859269","crossing":"uncontrolled","crossing:markings":"yes","footway":"crossing","highway":"footway","lit":"yes","tactile_paving":"yes","id":"way/1191859269"},"geometry":{"type":"LineString","coordinates":[[2.402266,48.878676],[2.4022618,48.8786687]]},"id":"way/1191859269"},{"type":"Feature","properties":{"@id":"way/1191859270","footway":"traffic_island","highway":"footway","lit":"yes","surface":"asphalt","id":"way/1191859270"},"geometry":{"type":"LineString","coordinates":[[2.4022463,48.8786461],[2.4022526,48.8786532]]},"id":"way/1191859270"},{"type":"Feature","properties":{"@id":"way/1191859271","crossing":"traffic_signals","crossing:markings":"zebra","footway":"crossing","highway":"footway","lit":"yes","surface":"asphalt","tactile_paving":"yes","traffic_signals:sound":"yes","id":"way/1191859271"},"geometry":{"type":"LineString","coordinates":[[2.4022045,48.8785979],[2.4022294,48.8786266],[2.4022463,48.8786461]]},"id":"way/1191859271"},{"type":"Feature","properties":{"@id":"way/1191859272","crossing":"marked","crossing:markings":"zebra","footway":"crossing","highway":"footway","lit":"yes","surface":"asphalt","tactile_paving":"yes","traffic_signals:sound":"yes","id":"way/1191859272"},"geometry":{"type":"LineString","coordinates":[[2.4020774,48.8784501],[2.4021121,48.878492],[2.4021329,48.8785171]]},"id":"way/1191859272"},{"type":"Feature","properties":{"@id":"way/1191859273","footway":"traffic_island","highway":"footway","lit":"yes","surface":"asphalt","id":"way/1191859273"},"geometry":{"type":"LineString","coordinates":[[2.4021917,48.8785833],[2.4022045,48.8785979]]},"id":"way/1191859273"},{"type":"Feature","properties":{"@id":"way/1191859274","footway":"traffic_island","highway":"footway","lit":"yes","surface":"asphalt","id":"way/1191859274"},"geometry":{"type":"LineString","coordinates":[[2.4021329,48.8785171],[2.4021436,48.87853]]},"id":"way/1191859274"},{"type":"Feature","properties":{"@id":"way/1191859275","crossing":"marked","crossing:markings":"zebra","footway":"crossing","highway":"footway","lit":"yes","id":"way/1191859275"},"geometry":{"type":"LineString","coordinates":[[2.4020676,48.8784379],[2.4020774,48.8784501]]},"id":"way/1191859275"},{"type":"Feature","properties":{"@id":"way/1191860980","footway":"sidewalk","highway":"footway","lit":"no","surface":"asphalt","id":"way/1191860980"},"geometry":{"type":"LineString","coordinates":[[2.4016505,48.8780451],[2.4015408,48.8786312]]},"id":"way/1191860980"},{"type":"Feature","properties":{"@id":"way/1191860983","footway":"sidewalk","highway":"footway","lit":"yes","id":"way/1191860983"},"geometry":{"type":"LineString","coordinates":[[2.4013492,48.8787018],[2.4015408,48.8786312]]},"id":"way/1191860983"},{"type":"Feature","properties":{"@id":"way/1191860984","crossing":"traffic_signals","crossing:markings":"zebra","crossing:signals":"yes","footway":"crossing","highway":"footway","lit":"yes","tactile_paving":"yes","traffic_signals:sound":"yes","id":"way/1191860984"},"geometry":{"type":"LineString","coordinates":[[2.4012458,48.8787427],[2.4012964,48.8787227],[2.4013492,48.8787018]]},"id":"way/1191860984"},{"type":"Feature","properties":{"@id":"way/1226939198","crossing":"uncontrolled","crossing:markings":"yes","footway":"crossing","highway":"footway","lit":"yes","tactile_paving":"yes","id":"way/1226939198"},"geometry":{"type":"LineString","coordinates":[[2.4022618,48.8786687],[2.4022572,48.8786611]]},"id":"way/1226939198"},{"type":"Feature","properties":{"@id":"way/1226939199","cycleway":"sidewalk","highway":"cycleway","lit":"yes","name":"Boulevard Sérurier","name:etymology:wikidata":"Q376344","oneway":"yes","sidewalk":"right","surface":"concrete","id":"way/1226939199"},"geometry":{"type":"LineString","coordinates":[[2.4022618,48.8786687],[2.4022183,48.8786824]]},"id":"way/1226939199"},{"type":"Feature","properties":{"@id":"way/1263001925","crossing":"marked","crossing:island":"yes","crossing:markings":"pictograms","cycleway":"crossing","highway":"cycleway","lit":"yes","name":"Boulevard d'Algérie","name:etymology:wikidata":"Q262","oneway":"yes","surface":"paving_stones","id":"way/1263001925"},"geometry":{"type":"LineString","coordinates":[[2.4013762,48.8791451],[2.4013421,48.8791328],[2.4013106,48.8791215]]},"id":"way/1263001925"},{"type":"Feature","properties":{"@id":"way/1263001927","cycleway":"sidewalk","highway":"cycleway","lit":"yes","name":"Boulevard Sérurier","name:etymology:wikidata":"Q376344","oneway":"yes","surface":"paving_stones","id":"way/1263001927"},"geometry":{"type":"LineString","coordinates":[[2.4012173,48.8790877],[2.4011986,48.8790809],[2.4013232,48.8789159],[2.4012885,48.8788765]]},"id":"way/1263001927"},{"type":"Feature","properties":{"@id":"way/1263001928","crossing":"traffic_signals","crossing:markings":"pictograms","crossing:signals":"yes","cycleway":"crossing","highway":"cycleway","lit":"yes","name":"Boulevard Sérurier","name:etymology:wikidata":"Q376344","oneway":"yes","surface":"asphalt","id":"way/1263001928"},"geometry":{"type":"LineString","coordinates":[[2.4012625,48.8787632],[2.4013443,48.8787334]]},"id":"way/1263001928"},{"type":"Feature","properties":{"@id":"way/1263001929","cycleway":"sidewalk","highway":"cycleway","lit":"yes","name":"Boulevard Sérurier","name:etymology:wikidata":"Q376344","oneway":"yes","surface":"asphalt","id":"way/1263001929"},"geometry":{"type":"LineString","coordinates":[[2.4014187,48.8787077],[2.4015493,48.8786621]]},"id":"way/1263001929"},{"type":"Feature","properties":{"@id":"way/1327928612","crossing":"marked","crossing:markings":"pictograms","cycleway":"crossing","highway":"cycleway","lit":"yes","name":"Boulevard Sérurier","name:etymology:wikidata":"Q376344","oneway":"yes","sidewalk":"right","surface":"asphalt","id":"way/1327928612"},"geometry":{"type":"LineString","coordinates":[[2.4015493,48.8786621],[2.4016244,48.8786344],[2.4016565,48.8786213]]},"id":"way/1327928612"},{"type":"Feature","properties":{"@id":"way/1328004789","footway":"sidewalk","highway":"footway","lit":"yes","id":"way/1328004789"},"geometry":{"type":"LineString","coordinates":[[2.4020634,48.8784321],[2.4020676,48.8784379]]},"id":"way/1328004789"},{"type":"Feature","properties":{"@id":"way/1369923071","highway":"footway","id":"way/1369923071"},"geometry":{"type":"LineString","coordinates":[[2.4025272,48.8786322],[2.4025634,48.8786823],[2.4025474,48.878721],[2.4025864,48.8787892],[2.402574,48.8788394],[2.4026426,48.8789135],[2.4025638,48.8789592],[2.4024021,48.8791153],[2.4022434,48.8792641]]},"id":"way/1369923071"},{"type":"Feature","properties":{"@id":"way/1422300973","crossing":"traffic_signals","crossing:signals":"yes","cycleway":"crossing","highway":"cycleway","lit":"yes","surface":"paving_stones","id":"way/1422300973"},"geometry":{"type":"LineString","coordinates":[[2.4018261,48.8792012],[2.4017685,48.8792036],[2.4017401,48.879205]]},"id":"way/1422300973"},{"type":"Feature","properties":{"@id":"way/1422300974","cycleway":"traffic_island","highway":"cycleway","lit":"yes","surface":"paving_stones","id":"way/1422300974"},"geometry":{"type":"LineString","coordinates":[[2.4017401,48.879205],[2.4017122,48.8792064]]},"id":"way/1422300974"},{"type":"Feature","properties":{"@id":"node/2825334210","highway":"traffic_signals","traffic_signals":"signal","id":"node/2825334210"},"geometry":{"type":"Point","coordinates":[2.4015459,48.8788899]},"id":"node/2825334210"},{"type":"Feature","properties":{"@id":"node/6228383594","highway":"traffic_signals","traffic_signals":"signal","id":"node/6228383594"},"geometry":{"type":"Point","coordinates":[2.4013978,48.878935]},"id":"node/6228383594"},{"type":"Feature","properties":{"@id":"node/6228383595","highway":"traffic_signals","traffic_signals":"signal","id":"node/6228383595"},"geometry":{"type":"Point","coordinates":[2.4016728,48.8790566]},"id":"node/6228383595"},{"type":"Feature","properties":{"@id":"node/6228383596","highway":"traffic_signals","traffic_signals":"signal","id":"node/6228383596"},"geometry":{"type":"Point","coordinates":[2.4017728,48.8789191]},"id":"node/6228383596"},{"type":"Feature","properties":{"@id":"node/6228383597","highway":"traffic_signals","traffic_signals":"signal","id":"node/6228383597"},"geometry":{"type":"Point","coordinates":[2.4023094,48.8785965]},"id":"node/6228383597"},{"type":"Feature","properties":{"@id":"node/8168214316","amenity":"bench","backrest":"yes","id":"node/8168214316"},"geometry":{"type":"Point","coordinates":[2.4025721,48.878573]},"id":"node/8168214316"},{"type":"Feature","properties":{"@id":"node/10870837748","genus":"Aesculus","leaf_type":"broadleaved","natural":"tree","species":"Aesculus × carnea","id":"node/10870837748"},"geometry":{"type":"Point","coordinates":[2.4013309,48.8786058]},"id":"node/10870837748"},{"type":"Feature","properties":{"@id":"node/11897856883","highway":"street_lamp","id":"node/11897856883"},"geometry":{"type":"Point","coordinates":[2.4014345,48.8791129]},"id":"node/11897856883"},{"type":"Feature","properties":{"@id":"node/11897856888","highway":"street_lamp","id":"node/11897856888"},"geometry":{"type":"Point","coordinates":[2.4017249,48.8785124]},"id":"node/11897856888"},{"type":"Feature","properties":{"@id":"node/11897856889","highway":"street_lamp","id":"node/11897856889"},"geometry":{"type":"Point","coordinates":[2.4022047,48.8787077]},"id":"node/11897856889"},{"type":"Feature","properties":{"@id":"node/11897856894","highway":"street_lamp","id":"node/11897856894"},"geometry":{"type":"Point","coordinates":[2.4025085,48.8785873]},"id":"node/11897856894"},{"type":"Feature","properties":{"@id":"node/11897856930","highway":"street_lamp","id":"node/11897856930"},"geometry":{"type":"Point","coordinates":[2.4017323,48.8786154]},"id":"node/11897856930"},{"type":"Feature","properties":{"@id":"node/11897856931","highway":"street_lamp","id":"node/11897856931"},"geometry":{"type":"Point","coordinates":[2.4016329,48.8791315]},"id":"node/11897856931"},{"type":"Feature","properties":{"@id":"node/11897856936","highway":"street_lamp","id":"node/11897856936"},"geometry":{"type":"Point","coordinates":[2.401973,48.8785068]},"id":"node/11897856936"},{"type":"Feature","properties":{"@id":"node/11897857421","highway":"street_lamp","id":"node/11897857421"},"geometry":{"type":"Point","coordinates":[2.401903,48.8790354]},"id":"node/11897857421"},{"type":"Feature","properties":{"@id":"node/11897857422","highway":"street_lamp","id":"node/11897857422"},"geometry":{"type":"Point","coordinates":[2.4022848,48.8791654]},"id":"node/11897857422"},{"type":"Feature","properties":{"@id":"node/11897857423","highway":"street_lamp","id":"node/11897857423"},"geometry":{"type":"Point","coordinates":[2.4024274,48.8790246]},"id":"node/11897857423"},{"type":"Feature","properties":{"@id":"node/11897857424","amenity":"bench","id":"node/11897857424"},"geometry":{"type":"Point","coordinates":[2.4023526,48.87899]},"id":"node/11897857424"},{"type":"Feature","properties":{"@id":"node/11897857425","amenity":"bench","id":"node/11897857425"},"geometry":{"type":"Point","coordinates":[2.4023706,48.8789567]},"id":"node/11897857425"},{"type":"Feature","properties":{"@id":"node/11897857426","amenity":"bench","id":"node/11897857426"},"geometry":{"type":"Point","coordinates":[2.4023824,48.878922]},"id":"node/11897857426"},{"type":"Feature","properties":{"@id":"node/11897857427","amenity":"bench","id":"node/11897857427"},"geometry":{"type":"Point","coordinates":[2.4024088,48.8788939]},"id":"node/11897857427"},{"type":"Feature","properties":{"@id":"node/12686754935","natural":"tree","species":"Quercus ilex","id":"node/12686754935"},"geometry":{"type":"Point","coordinates":[2.4019411,48.879121]},"id":"node/12686754935"},{"type":"Feature","properties":{"@id":"node/12686754936","leaf_type":"needleleaved","natural":"tree","species":"Pinus nigra","id":"node/12686754936"},"geometry":{"type":"Point","coordinates":[2.4020155,48.8790923]},"id":"node/12686754936"},{"type":"Feature","properties":{"@id":"node/12686754937","natural":"tree","species":"Quercus ilex","id":"node/12686754937"},"geometry":{"type":"Point","coordinates":[2.4020691,48.8790694]},"id":"node/12686754937"},{"type":"Feature","properties":{"@id":"node/12686754938","natural":"tree","species":"Quercus ilex","id":"node/12686754938"},"geometry":{"type":"Point","coordinates":[2.4019719,48.8790839]},"id":"node/12686754938"},{"type":"Feature","properties":{"@id":"node/12686754939","leaf_type":"needleleaved","natural":"tree","species":"Pinus nigra","id":"node/12686754939"},"geometry":{"type":"Point","coordinates":[2.4022354,48.8788974]},"id":"node/12686754939"},{"type":"Feature","properties":{"@id":"node/12686754940","natural":"tree","species":"Quercus ilex","id":"node/12686754940"},"geometry":{"type":"Point","coordinates":[2.4021912,48.8788842]},"id":"node/12686754940"},{"type":"Feature","properties":{"@id":"node/12686754941","natural":"tree","species":"Quercus ilex","id":"node/12686754941"},"geometry":{"type":"Point","coordinates":[2.4021898,48.8788286]},"id":"node/12686754941"},{"type":"Feature","properties":{"@id":"node/12686754942","leaf_type":"needleleaved","natural":"tree","species":"Pinus nigra","id":"node/12686754942"},"geometry":{"type":"Point","coordinates":[2.4022468,48.8788414]},"id":"node/12686754942"},{"type":"Feature","properties":{"@id":"node/12686754943","natural":"tree","species":"Quercus ilex","id":"node/12686754943"},"geometry":{"type":"Point","coordinates":[2.4022441,48.8787823]},"id":"node/12686754943"},{"type":"Feature","properties":{"@id":"node/12686755766","natural":"tree","species":"Aesculus x carnea","id":"node/12686755766"},"geometry":{"type":"Point","coordinates":[2.4014103,48.8786231]},"id":"node/12686755766"},{"type":"Feature","properties":{"@id":"node/12686791593","natural":"tree","species":"Catalpa bignonioides","id":"node/12686791593"},"geometry":{"type":"Point","coordinates":[2.4025078,48.8788483]},"id":"node/12686791593"},{"type":"Feature","properties":{"@id":"node/12686791594","natural":"tree","species":"Catalpa bignonioides","id":"node/12686791594"},"geometry":{"type":"Point","coordinates":[2.4024943,48.8787936]},"id":"node/12686791594"},{"type":"Feature","properties":{"@id":"node/12686791595","natural":"tree","species":"Catalpa bignonioides","id":"node/12686791595"},"geometry":{"type":"Point","coordinates":[2.402485,48.8787354]},"id":"node/12686791595"},{"type":"Feature","properties":{"@id":"node/12686791596","natural":"tree","species":"Catalpa bignonioides","id":"node/12686791596"},"geometry":{"type":"Point","coordinates":[2.4024528,48.8786957]},"id":"node/12686791596"},{"type":"Feature","properties":{"@id":"node/12686791597","natural":"tree","species":"Catalpa bignonioides","id":"node/12686791597"},"geometry":{"type":"Point","coordinates":[2.4026016,48.8786648]},"id":"node/12686791597"},{"type":"Feature","properties":{"@id":"node/12686791598","natural":"tree","species":"Catalpa bignonioides","id":"node/12686791598"},"geometry":{"type":"Point","coordinates":[2.4026097,48.8787248]},"id":"node/12686791598"},{"type":"Feature","properties":{"@id":"node/12686791599","natural":"tree","species":"Catalpa bignonioides","id":"node/12686791599"},"geometry":{"type":"Point","coordinates":[2.4026352,48.8787857]},"id":"node/12686791599"},{"type":"Feature","properties":{"@id":"node/12686816504","natural":"tree","species":"Catalpa bignonioides","id":"node/12686816504"},"geometry":{"type":"Point","coordinates":[2.4026647,48.8788659]},"id":"node/12686816504"},{"type":"Feature","properties":{"@id":"node/12686816506","natural":"tree","species":"Catalpa bignonioides","id":"node/12686816506"},"geometry":{"type":"Point","coordinates":[2.402603,48.8789647]},"id":"node/12686816506"}]}